,Type,Location,Country,Latitude,Longitude,Recorded_Lat,Recorded_Lng,Address,Country_Code
0,correct location data,Darul Aman,Afghanistan,34.48845,69.20288,34.48845,69.20288,"Darul Aman, Afghanistan",AF
1,correct location data,Darul Aman Kabul (2),Afghanistan,34.48845,69.20288,34.48845,69.20288,"Darul Aman Kabul (2), Afghanistan",AF
2,correct location data,Qara- Boghe,Afghanistan,34.48845,69.20288,34.48845,69.20288,"Qara- Boghe, Afghanistan",AF
3,no lat/lng entered - geocoded location,Angola,Angola,0.0,0.0,-11.8775768,17.5691241,"Angola, Angola",AO
4,correct location data,"Cabinda, St Vincent",Angola,-5.6,12.2,-5.6,12.2,"Cabinda, St Vincent, Angola",AO
5,correct location data,Cacuso,Angola,-9.42,15.75,-9.42,15.75,"Cacuso, Angola",AO
6,correct location data,Cela,Angola,-11.42,15.12,-11.42,15.12,"Cela, Angola",AO
7,correct location data,Chianga,Angola,-12.73,15.83,-12.73,15.83,"Chianga, Angola",AO
8,correct location data,Humpata,Angola,-15.03,13.43,-15.03,13.43,"Humpata, Angola",AO
9,correct location data,Kilombo,Angola,-8.91,14.73,-8.91,14.73,"Kilombo, Angola",AO
10,correct location data,Kilombo Experimental Station,Angola,-8.9,14.7,-8.9,14.7,"Kilombo Experimental Station, Angola",AO
11,correct location data,Malange,Angola,-9.533,16.333,-9.533,16.333,"Malange, Angola",AO
12,correct location data,Mazozo Experimental Station,Angola,-9.1,13.7,-9.1,13.7,"Mazozo Experimental Station, Angola",AO
13,correct location data,Poligno-floresta,Angola,-9.52,16.32,-9.52,16.32,"Poligno-floresta, Angola",AO
14,no lat/lng entered - geocoded location,Anguil - Provincia La Pampa,Argentina,0.0,0.0,-36.5362218,-63.9442519,"Ruta Provincial 7, 63000, La Pampa, Argentina",AR
15,no lat/lng entered - geocoded location,Argentina,Argentina,0.0,0.0,-34.9964963,-64.9672817,"Argentina, Argentina",AR
16,no lat/lng entered - geocoded location,El Manantial,Argentina,0.0,0.0,-28.7273918,-66.1433925,"El Manantial, K4726, Catamarca, Argentina",AR
17,no lat/lng entered - geocoded location,Los Pereyras,Argentina,0.0,0.0,-34.5121516,-58.5248182,"Unilever Argentina, 4191, Alférez Hipólito Bouchard, B1605BNA, Alférez Hipólito Bouchard, Vicente López, Buenos Aires, Argentina",AR
18,correct location data,Tucuman,Argentina,-26.8,-65.2,-26.8,-65.2,"Tucuman, Argentina",AR
19,no lat/lng entered - geocoded location,"Zakatala, City",Azerbaijan,0.0,0.0,40.58189255,49.6918518562582,"Rivyera City, Sumgayit, Sumqayit, Azerbaijan",AZ
20,no lat/lng entered - geocoded location,Dinajpur,Bangladesh,0.0,0.0,25.6260712,88.6346228,"Dinajpur, 5216, Rangpur Division, Bangladesh",BD
21,no lat/lng entered - geocoded location,"Ars, Rajbari, Dinajpur",Bangladesh,0.0,0.0,25.6422313,88.6462899,"aristocrats, Dhaka - Dinajpur Hwy, 5200, Dhaka - Dinajpur Hwy, Dinajpur, Rangpur Division, Bangladesh",BD
22,no lat/lng entered - geocoded location,"Ars. Burirhat, Rangpur",Bangladesh,0.0,0.0,25.754379999999998,89.24997547234628,"Police Area Quarter, Rangpur Police, Pourobazar Road, 5400, Pourobazar Road, Rangpur, Rangpur Division, Bangladesh",BD
23,no lat/lng entered - geocoded location,Bogra,Bangladesh,0.0,0.0,24.8480859,89.3729529,"Bogra, 5800, Rajshahi Division, Bangladesh",BD
24,correct location data,Burirhat Farm,Bangladesh,24.37,88.6,24.37,88.6,"Burirhat Farm, Bangladesh",BD
25,no lat/lng entered - geocoded location,Gazipur,Bangladesh,0.0,0.0,23.9980797,90.4229848,"Gazipur, 1702, Dhaka Division, Bangladesh",BD
26,correct location data,Hathazari,Bangladesh,22.5,91.78,22.5,91.78,"Hathazari, Bangladesh",BD
27,correct location data,Ishurdi,Bangladesh,24.12,89.08,24.12,89.08,"Ishurdi, Bangladesh",BD
28,correct location data,Ishurdi (2),Bangladesh,24.12,89.08,24.12,89.08,"Ishurdi (2), Bangladesh",BD
29,correct location data,Jamalpur,Bangladesh,24.93,89.95,24.93,89.95,"Jamalpur, Bangladesh",BD
30,correct location data,Jessore,Bangladesh,23.18,89.17,23.18,89.17,"Jessore, Bangladesh",BD
31,correct location data,Joydebpur,Bangladesh,24.0,90.42,24.0,90.42,"Joydebpur, Bangladesh",BD
32,no lat/lng entered - geocoded location,"Joydebpur, Gazipur",Bangladesh,0.0,0.0,23.9980797,90.4229848,"Gazipur, 1702, Dhaka Division, Bangladesh",BD
33,no lat/lng entered - geocoded location,Rahmatpur Barisal,Bangladesh,22.1,90.5,22.792110049999998,90.28801510193094,"Agriculture Training Institute - ATI- Rahmatpur, Barisal, Dhaka-Barisal Highway, 8220, Dhaka-Barisal Highway, Barisal Division, Bangladesh",BD
34,no lat/lng entered - geocoded location,Rajbari,Bangladesh,0.0,0.0,23.73987245,89.57039201261236,"Rajbari District, Dhaka Division, Bangladesh",BD
35,no lat/lng entered - geocoded location,"Rars, Bari, Jamalpur",Bangladesh,0.0,0.0,24.9510208,89.8722132,"Jamalpur-Melandah Rd, Char Banipakuri, Mymensingh Division, Bangladesh",BD
36,no lat/lng entered - geocoded location,"Belmopan, Cardi Station",Belize,0.0,0.0,17.2481986,-88.7647713,"Cardinal Avenue, BZ1000, Belmopan, Cayo, Belize",BZ
37,correct location data,Central Farm,Belize,17.0,-89.0,17.0,-89.0,"Central Farm, Belize",BZ
38,correct location data,San Pedro,Belize,16.23,-89.0,16.23,-89.0,"San Pedro, Belize",BZ
39,correct location data,Cotonou,Benin,6.3704,2.3715,6.3704,2.3715,"Cotonou, Benin",BJ
40,correct location data,Algarrobal,Bolivia,-21.45,-63.65,-21.45,-63.65,"Algarrobal, Bolivia",BO
41,no lat/lng entered - geocoded location,Bolivia,Bolivia,0.0,0.0,-17.0568696,-64.9912286,"Bolivia, Bolivia",BO
42,correct location data,Ca╤ada Larga,Bolivia,-17.57,-62.43,-17.57,-62.43,"Ca╤ada Larga, Bolivia",BO
43,correct location data,Charagua,Bolivia,-19.78,-63.23,-19.78,-63.23,"Charagua, Bolivia",BO
44,correct location data,Chuquisaca,Bolivia,-18.47,-64.47,-18.47,-64.47,"Chuquisaca, Bolivia",BO
45,correct location data,Cotoca,Bolivia,-17.75,-62.95,-17.75,-62.95,"Cotoca, Bolivia",BO
46,no lat/lng entered - geocoded location,El Abra (santa Cruz),Bolivia,0.0,0.0,-18.0342451,-63.45006110158694,"Municipio El Torno, Santa Cruz, Bolivia",BO
47,no lat/lng entered - geocoded location,El Palmar (santa Cruz),Bolivia,0.0,0.0,-17.0793079,-64.3090184,"El Palmar, Santa Cruz, Bolivia",BO
48,correct location data,El Vallecito,Bolivia,-17.77,-63.15,-17.77,-63.15,"El Vallecito, Bolivia",BO
49,no lat/lng entered - geocoded location,Entre Rios,Bolivia,0.0,0.0,-17.3054892,-64.44148087663636,"Municipio Entre Ríos, +591, Cochabamba, Bolivia",BO
50,no lat/lng entered - geocoded location,Fundacion Proinpa,Bolivia,0.0,0.0,-17.3462403,-66.1577497,"Fundación Cristo Vive Bolivia, Calle Jose Eduardo Guerra, 447, Calle Jose Eduardo Guerra, Cochabamba, Cochabamba, Bolivia",BO
51,correct location data,Iboperenda,Bolivia,-19.87,-63.77,-19.87,-63.77,"Iboperenda, Bolivia",BO
52,no lat/lng entered - geocoded location,Lomas De Arena (santa Cruz),Bolivia,0.0,0.0,-17.9548566,-63.145631662945014,"Parque Regional y Área Natural de Manejo Integrado Lomas de Arena, Camino Nuevo Palmar, Camino Nuevo Palmar, Municipio La Guardia, Santa Cruz, Bolivia",BO
53,no lat/lng entered - geocoded location,"Mairana, Santa Cruz",Bolivia,0.0,0.0,-17.89881405,-64.03835736267116,"Municipio Mairana, Santa Cruz, Bolivia",BO
54,no lat/lng entered - geocoded location,Monteagudo,Bolivia,0.0,0.0,-20.00271135,-64.08909541853487,"Municipio Monteagudo, Chuquisaca, Bolivia",BO
55,correct location data,Okinawa,Bolivia,-17.33,-62.08,-17.33,-62.08,"Okinawa, Bolivia",BO
56,correct location data,Pailon,Bolivia,-17.65,-62.65,-17.65,-62.65,"Pailon, Bolivia",BO
57,correct location data,Pairumani,Bolivia,-17.35,-66.32,-17.35,-66.32,"Pairumani, Bolivia",BO
58,no lat/lng entered - geocoded location,Pajonal,Bolivia,0.0,0.0,-21.4849868,-64.168901,"Pajonal, Tarija, Bolivia",BO
59,no lat/lng entered - geocoded location,Saavedra,Bolivia,0.0,0.0,-19.25,-65.5,"Provincia Saavedra, Potosí, Bolivia",BO
60,no lat/lng entered - geocoded location,San Ignacio,Bolivia,0.0,0.0,-15.28290925,-65.61426114395618,"Municipio San Ignacio, Beni, Bolivia",BO
61,correct location data,"San Julian, Santa Cruz",Bolivia,-16.8,-62.67,-16.8,-62.67,"San Julian, Santa Cruz, Bolivia",BO
62,no lat/lng entered - geocoded location,Santa Cruz (cuatro Caminos),Bolivia,0.0,0.0,-17.2762404,-62.174923340622634,"Municipio Cuatro Cañadas, 3391, Santa Cruz, Bolivia",BO
63,no lat/lng entered - geocoded location,Santa Cruz De La Sierra,Bolivia,0.0,0.0,-17.7836009,-63.182206,"Santa Cruz de la Sierra, 3212, Santa Cruz, Bolivia",BO
64,no lat/lng entered - geocoded location,Santa Cruz De La Sierra (el Vallecito),Bolivia,0.0,0.0,-17.6977599,-63.14502191551192,"UAGRM El Vallecito, Avenida Milton Parra P, Avenida Milton Parra P, Municipio Santa Cruz de la Sierra, Santa Cruz, Bolivia",BO
65,no lat/lng entered - geocoded location,Tarija,Bolivia,0.0,0.0,-21.5340695,-64.7344181,"Tarija, 0601, Tarija, Bolivia",BO
66,no lat/lng entered - geocoded location,Valle Del Medio,Bolivia,0.0,0.0,-21.6074533,-64.1465144,"Valle del Medio, Tarija, Bolivia",BO
67,no lat/lng entered - geocoded location,Vallecitos (iboperenda),Bolivia,0.0,0.0,-21.7330205,-64.0587266,"Vallecito Los Lapachos, Tarija, Bolivia",BO
68,correct location data,Vallegrande,Bolivia,-18.47,-64.12,-18.47,-64.12,"Vallegrande, Bolivia",BO
69,no lat/lng entered - geocoded location,Yacuiba,Bolivia,0.0,0.0,-22.0129441,-63.6774406,"Yacuiba, Tarija, Bolivia",BO
70,no lat/lng entered - geocoded location,Zona Norte De Santa Cruz,Bolivia,0.0,0.0,-17.750428,-63.18790697531949,"Zona 4x4, Avenida Antonio Vaca Diez, 3212, Avenida Antonio Vaca Diez, Municipio Santa Cruz de la Sierra, Santa Cruz, Bolivia",BO
71,correct location data,Zuda╤es,Bolivia,-19.12,-64.2,-19.12,-64.2,"Zuda╤es, Bolivia",BO
72,correct location data,Goodhope,Botswana,-25.48,25.47,-25.48,25.47,"Goodhope, Botswana",BW
73,correct location data,Hukuntsi,Botswana,-24.0,21.8,-24.0,21.8,"Hukuntsi, Botswana",BW
74,correct location data,Pandamatenga,Botswana,-18.55,25.65,-18.55,25.65,"Pandamatenga, Botswana",BW
75,correct location data,Pelotshetlha,Botswana,-23.03,26.517,-23.03,26.517,"Pelotshetlha, Botswana",BW
76,correct location data,Sebele,Botswana,-24.57,25.95,-24.57,25.95,"Sebele, Botswana",BW
77,correct location data,Sebele-lown,Botswana,-24.6,26.0,-24.6,26.0,"Sebele-lown, Botswana",BW
78,no lat/lng entered - geocoded location,Brazil,Brazil,0.0,0.0,-10.3333333,-53.2,"Brazil, Brazil",BR
79,no lat/lng entered - geocoded location,Campo Largo - Pr,Brazil,0.0,0.0,-10.3926525,-41.4194351,"Campo Largo, Bahia, Brazil",BR
80,correct location data,Cascavel,Brazil,-24.93,-53.43,-24.93,-53.43,"Cascavel, Brazil",BR
81,correct location data,Cravinhos,Brazil,-21.32,-47.75,-21.32,-47.75,"Cravinhos, Brazil",BR
82,correct location data,Guaira,Brazil,-24.08,-54.25,-24.08,-54.25,"Guaira, Brazil",BR
83,correct location data,Jardinopolis,Brazil,-21.0,-47.1,-21.0,-47.1,"Jardinopolis, Brazil",BR
84,correct location data,Sete Lagoas,Brazil,-19.47,-44.25,-19.47,-44.25,"Sete Lagoas, Brazil",BR
85,correct location data,Farako-ba,Burkina Faso,11.1,-4.333333,11.1,-4.333333,"Farako-ba, Burkina Faso",BF
86,correct location data,Kamboinse,Burkina Faso,12.47,-1.53,12.47,-1.53,"Kamboinse, Burkina Faso",BF
87,correct location data,Kouare,Burkina Faso,11.916666,-0.166666,11.916666,-0.166666,"Kouare, Burkina Faso",BF
88,correct location data,Burundi,Burundi,-3.3731,29.9189,-3.3731,29.9189,"Burundi, Burundi",BI
89,correct location data,Mosso,Burundi,-4.0,30.07,-4.0,30.07,"Mosso, Burundi",BI
90,correct location data,Beijing,China,40.0,105.0,40.0,105.0,"Beijing, China",CN
91,correct location data,Bijie,China,27.05,105.23,27.05,105.23,"Bijie, China",CN
92,correct location data,Chengdu,China,30.67,104.07,30.67,104.07,"Chengdu, China",CN
93,correct location data,Fujian Province,China,24.5,117.65,24.5,117.65,"Fujian Province, China",CN
94,correct location data,Guang-xi,China,22.6,108.17,22.6,108.17,"Guang-xi, China",CN
95,correct location data,Gui-yang,China,26.48,106.65,26.48,106.65,"Gui-yang, China",CN
96,no lat/lng entered - geocoded location,Honghe,China,0.0,0.0,23.234737,102.301136,"Honghe County, Yunnan, China",CN
97,correct location data,"Jialize, Kunming, Yunnan",China,34.16182,105.29297,34.16182,105.29297,"Jialize, Kunming, Yunnan, China",CN
98,correct location data,Kunming,China,25.12,102.72,25.12,102.72,"Kunming, China",CN
99,correct location data,Linciang,China,23.7,100.03,23.7,100.03,"Linciang, China",CN
100,no lat/lng entered - geocoded location,Mian Yang,China,0.0,0.0,33.1051332,106.686846,"Yangjia River, 723000, Mian, Shaanxi, China",CN
101,correct location data,Mongzi,China,23.38,103.38,23.38,103.38,"Mongzi, China",CN
102,correct location data,Nanning,China,22.6,108.17,22.6,108.17,"Nanning, China",CN
103,correct location data,Oifin,China,25.5,103.8,25.5,103.8,"Oifin, China",CN
104,correct location data,Qujin,China,25.5,103.67,25.5,103.67,"Qujin, China",CN
105,correct location data,Simao,China,21.67,101.4,21.67,101.4,"Simao, China",CN
106,no lat/lng entered - geocoded location,Wenshan,China,22.47,106.18,23.4191513,104.0896466,"Wenshan City, Yunnan, China",CN
107,correct location data,Yunnan,China,25.08062,102.68681,25.08062,102.68681,"Yunnan, China",CN
108,no lat/lng entered - geocoded location,Aguas Blancas,Colombia,0.0,0.0,6.9003599,-75.7235025,"Aguas Blancas., Antioquia, Colombia",CO
109,no lat/lng entered - geocoded location,Aguas Claras,Colombia,0.0,0.0,3.6304011,-73.8070253,"Aguas Claras, Meta, Colombia",CO
110,no lat/lng entered - geocoded location,Andremoni,Colombia,0.0,0.0,2.8894434,-73.783892,"Colombia, Colombia",CO
111,no lat/lng entered - geocoded location,Arborates,Colombia,0.0,0.0,2.8894434,-73.783892,"Colombia, Colombia",CO
112,no lat/lng entered - geocoded location,"Atuncela, Dagua",Colombia,0.0,0.0,3.65186675,-76.72289271511232,"Dagua, Valle del Cauca, Colombia",CO
113,no lat/lng entered - geocoded location,Bucaramanga,Colombia,0.0,0.0,7.1114611,-73.1172869,"Bucaramanga, Santander, Colombia",CO
114,no lat/lng entered - geocoded location,"Bucaramanga, Pinchote",Colombia,0.0,0.0,7.1114611,-73.1172869,"Bucaramanga, Santander, Colombia",CO
115,correct location data,Buga,Colombia,3.88,-76.28,3.88,-76.28,"Buga, Colombia",CO
116,no lat/lng entered - geocoded location,"Buga, Media Canoa",Colombia,0.0,0.0,3.8922119,-76.368673,"Vía Mediacanoa - Buga, Yotoco, Valle del Cauca, Colombia",CO
117,no lat/lng entered - geocoded location,Caicedonia,Colombia,0.0,0.0,4.3080642000000005,-75.83980499303324,"Caicedonia, Valle del Cauca, Colombia",CO
118,no lat/lng entered - geocoded location,Caldono,Colombia,0.0,0.0,2.796326,-76.4836526,"Caldono, Cauca, Colombia",CO
119,correct location data,Cali,Colombia,3.5,-76.37,3.5,-76.37,"Cali, Colombia",CO
120,no lat/lng entered - geocoded location,"Campo Alegre, Huila",Colombia,0.0,0.0,2.663056,-75.34,"Campo Alegre Airport, Huila, Colombia",CO
121,no lat/lng entered - geocoded location,Ca╤a Flecha,Colombia,0.0,0.0,8.7241403,-75.6877463,"Arroyo Negro, Caserío Flecha, Córdoba, Colombia",CO
122,no lat/lng entered - geocoded location,Carmen De Bolivar,Colombia,0.0,0.0,9.7178623,-75.1238318,"El Carmen de Bolívar, Bolívar, Colombia",CO
123,no lat/lng entered - geocoded location,"Cerete, Cordoba",Colombia,0.0,0.0,8.8884178,-75.84239456572658,"Cereté, Córdoba, Colombia",CO
124,no lat/lng entered - geocoded location,Cerrito,Colombia,0.0,0.0,6.8435992,-72.6939627,"Cerrito, Santander, Colombia",CO
125,no lat/lng entered - geocoded location,Cienega De Oro,Colombia,0.0,0.0,9.1108885,-72.8089164,"Río de Oro, Norte de Santander, Colombia",CO
126,no lat/lng entered - geocoded location,Ciudad Bolivar,Colombia,0.0,0.0,5.8500342,-76.0208666,"Ciudad Bolívar, Antioquia, Colombia",CO
127,no lat/lng entered - geocoded location,Colombia,Colombia,0.0,0.0,2.8894434,-73.783892,"Colombia, Colombia",CO
128,no lat/lng entered - geocoded location,Cordoba,Colombia,0.0,0.0,8.3344713,-75.6666238,"Córdoba, Colombia",CO
129,no lat/lng entered - geocoded location,Corozal,Colombia,0.0,0.0,4.3988856,-75.9180591,"Corozal, Valle del Cauca, Colombia",CO
130,no lat/lng entered - geocoded location,"Darien, Valle Del Cauca",Colombia,0.0,0.0,3.9318186,-76.4842408,"Darién, Valle del Cauca, Colombia",CO
131,no lat/lng entered - geocoded location,Duitama,Colombia,0.0,0.0,5.8277055,-73.0338939,"Duitama, 150461, Boyacá, Colombia",CO
132,correct location data,"El Cerrito, Valle Del Cauca",Colombia,3.7,-76.32,3.7,-76.32,"El Cerrito, Valle Del Cauca, Colombia",CO
133,no lat/lng entered - geocoded location,"El Espinal, Tolima",Colombia,0.0,0.0,3.6461987,-75.3992722,"Mesetas De El Espinal, 73168, Tolima, Colombia",CO
134,no lat/lng entered - geocoded location,El Libano,Colombia,0.0,0.0,4.9157501,-75.0618177,"El Líbano, Tolima, Colombia",CO
135,no lat/lng entered - geocoded location,El Naranjal,Colombia,0.0,0.0,2.9142726,-76.5053277,"El Naranjal, Cauca, Colombia",CO
136,no lat/lng entered - geocoded location,El Rosario,Colombia,0.0,0.0,5.0330087,-75.5690318,"El Rosario, 176002, Caldas, Colombia",CO
137,no lat/lng entered - geocoded location,"El Tambo, Valle Del Cauca",Colombia,0.0,0.0,3.7638803,-76.4861177,"El Tambor, Resguardo Indigena Gausirumos, Valle del Cauca, Colombia",CO
138,no lat/lng entered - geocoded location,El Tomate,Colombia,0.0,0.0,8.4554247,-76.3655876,"El Tomate, 054, Antioquia, Colombia",CO
139,no lat/lng entered - geocoded location,"Fuente De Oro, Granda",Colombia,0.0,0.0,3.4620439,-73.6174132,"Fuente de Oro, Meta, Colombia",CO
140,no lat/lng entered - geocoded location,"Garzon, Huila",Colombia,0.0,0.0,2.1625835,-75.55514449355248,"Garzón, 414020, Huila, Colombia",CO
141,no lat/lng entered - geocoded location,Granada,Colombia,0.0,0.0,6.1442998,-75.1844057,"Granada, Antioquia, Colombia",CO
142,no lat/lng entered - geocoded location,Guadalajara De Buga,Colombia,0.0,0.0,3.8884715,-76.2593652,"Rio Guadalajara, 042, Valle del Cauca, Colombia",CO
143,no lat/lng entered - geocoded location,"Independencia, Caldono",Colombia,0.0,0.0,2.796326,-76.4836526,"Caldono, Cauca, Colombia",CO
144,no lat/lng entered - geocoded location,"La Catalina, Pereira",Colombia,0.0,0.0,4.8023263,-75.6964439,"Carrera 21 bis, 576, Bostón, Risaralda, Colombia",CO
145,no lat/lng entered - geocoded location,"La Cubillera, Granada",Colombia,0.0,0.0,2.2768381,-74.9559382,"Rio La Granada, 182010, Caquetá, Colombia",CO
146,no lat/lng entered - geocoded location,La Palomera,Colombia,0.0,0.0,2.9537984,-76.4195252,"La Palomera, Cauca, Colombia",CO
147,no lat/lng entered - geocoded location,"La Trocha 12, Granda",Colombia,0.0,0.0,2.2551161,-76.90841105000001,"12, 12, Puerta Grande, Cauca, Colombia",CO
148,correct location data,La Ulloa Mpio Rivera,Colombia,2.62,-75.42,2.62,-75.42,"La Ulloa Mpio Rivera, Colombia",CO
149,no lat/lng entered - geocoded location,"La Union, Corcega",Colombia,0.0,0.0,4.5366453,-76.06681,"Corcega, Valle del Cauca, Colombia",CO
150,no lat/lng entered - geocoded location,"Lejania, Granada",Colombia,0.0,0.0,2.7688153,-75.649768,"Lejania, Huila, Colombia",CO
151,no lat/lng entered - geocoded location,Matazul,Colombia,0.0,0.0,2.8894434,-73.783892,"Colombia, Colombia",CO
152,no lat/lng entered - geocoded location,Menegua,Colombia,0.0,0.0,4.0919294,-72.8149621,"Menegua, Meta, Colombia",CO
153,no lat/lng entered - geocoded location,"Mondomo, Santander",Colombia,0.0,0.0,2.8606688,-76.5123296,"Rio Mondomo, El Arbolito, Cauca, Colombia",CO
154,no lat/lng entered - geocoded location,Monteria,Colombia,8.83,-57.78,8.7558921,-75.887029,"Montería, Córdoba, Colombia",CO
155,no lat/lng entered - geocoded location,"Neiva, Huila",Colombia,0.0,0.0,3.0332673000000003,-75.27944239597832,"Neiva, Huila, Colombia",CO
156,no lat/lng entered - geocoded location,"Obando, Molina",Colombia,0.0,0.0,4.6220602,-76.0282284,"MOLINA, Valle del Cauca, Colombia",CO
157,correct location data,Palmira,Colombia,4.27,-76.32,4.27,-76.32,"Palmira, Colombia",CO
158,no lat/lng entered - geocoded location,"Paraguaicito, Armenia",Colombia,0.0,0.0,4.4923898,-75.73960166465673,"Armenia, Quindío, Colombia",CO
159,no lat/lng entered - geocoded location,Pelaya-cesar (aguachica),Colombia,0.0,0.0,8.24811845,-73.62140380560058,"Aguachica, Cesar, Colombia",CO
160,no lat/lng entered - geocoded location,Pereira,Colombia,0.0,0.0,4.8142912,-75.6946451,"Pereira, 660002, Risaralda, Colombia",CO
161,no lat/lng entered - geocoded location,Piendamo,Colombia,0.0,0.0,2.735773,-76.5534967167817,"Piendamó, Cauca, Colombia",CO
162,no lat/lng entered - geocoded location,Procampo,Colombia,0.0,0.0,2.8894434,-73.783892,"Colombia, Colombia",CO
163,no lat/lng entered - geocoded location,Puerto Lopez,Colombia,0.0,0.0,7.7933241,-75.8401892,"Puerto Lopez, Córdoba, Colombia",CO
164,no lat/lng entered - geocoded location,Puerto Lopez (2),Colombia,0.0,0.0,6.4902145,-74.3997197,"Carrera 2, 00000, Puerto Berrío, Antioquia, Colombia",CO
165,no lat/lng entered - geocoded location,"Quindio, Montenegro",Colombia,0.0,0.0,4.5664176,-75.7507081,"Montenegro, Quindío, Colombia",CO
166,no lat/lng entered - geocoded location,"Rivera, Huila",Colombia,0.0,0.0,2.7779482,-75.2582697,"Rivera, Huila, Colombia",CO
167,no lat/lng entered - geocoded location,Roldanillo,Colombia,0.0,0.0,4.4440112,-76.16639092634387,"Roldanillo, Valle del Cauca, Colombia",CO
168,no lat/lng entered - geocoded location,"Sabana De Torres, Santander",Colombia,0.0,0.0,7.3939416,-73.4998859,"Sabana de Torres, Santander, Colombia",CO
169,no lat/lng entered - geocoded location,Sahagu,Colombia,0.0,0.0,8.9103343,-75.4817766,"Loma Grande, Córdoba, Colombia",CO
170,no lat/lng entered - geocoded location,San Antonio,Colombia,0.0,0.0,7.7017427,-75.6206362,"San Antonio, Córdoba, Colombia",CO
171,no lat/lng entered - geocoded location,San Barreto,Colombia,0.0,0.0,12.38051665,-81.6140750764522,"Archipiélago de San Andrés, Providencia y Santa Catalina (Colombia), Colombia",CO
172,no lat/lng entered - geocoded location,"San Francisco, Sandona",Colombia,0.0,0.0,1.2991853500000001,-77.47593481408893,"Sandoná, Nariño, Colombia",CO
173,no lat/lng entered - geocoded location,"San Ignacio, Granada",Colombia,0.0,0.0,4.6316367,-73.0282731,"San Ignacio, Meta, Colombia",CO
174,no lat/lng entered - geocoded location,San Pedro De Uraba,Colombia,0.0,0.0,8.33372075,-76.34080137233052,"San Pedro de Urabá, 054, Antioquia, Colombia",CO
175,no lat/lng entered - geocoded location,San Pelayo,Colombia,0.0,0.0,8.9572178,-75.8374769,"San Pelayo, Córdoba, Colombia",CO
176,no lat/lng entered - geocoded location,"San Rafael, Consaca",Colombia,0.0,0.0,1.1638005,-77.4519397,"San Rafael, Nariño, Colombia",CO
177,no lat/lng entered - geocoded location,"Sandona, Narino, Fidar",Colombia,0.0,0.0,1.2991853500000001,-77.47593481408893,"Sandoná, Nariño, Colombia",CO
178,no lat/lng entered - geocoded location,Santa Helena,Colombia,0.0,0.0,5.1187993,-75.1714513,"Santa Helena, Tolima, Colombia",CO
179,no lat/lng entered - geocoded location,Santa Lucia,Colombia,0.0,0.0,6.0537421,-75.9961388,"Santa Lucía, Las Andes, Antioquia, Colombia",CO
180,no lat/lng entered - geocoded location,Santander De Quilichao,Colombia,0.0,0.0,2.99828845,-76.51019933487012,"Santander de Quilichao, Cauca, Colombia",CO
181,no lat/lng entered - geocoded location,Segovia,Colombia,0.0,0.0,7.2775945,-74.62085391976942,"Segovia, Antioquia, Colombia",CO
182,no lat/lng entered - geocoded location,Semivalle,Colombia,0.0,0.0,2.8894434,-73.783892,"Colombia, Colombia",CO
183,no lat/lng entered - geocoded location,Sincelejo,Colombia,0.0,0.0,9.315429349999999,-75.43298059079754,"Sincelejo, 70001, Sucre, Colombia",CO
184,no lat/lng entered - geocoded location,Taluma,Colombia,0.0,0.0,2.8894434,-73.783892,"Colombia, Colombia",CO
185,no lat/lng entered - geocoded location,Tierra Alta,Colombia,0.0,0.0,8.3119698,-75.4425907,"Tierra Alta, Córdoba, Colombia",CO
186,no lat/lng entered - geocoded location,Tulenapa,Colombia,0.0,0.0,2.8894434,-73.783892,"Colombia, Colombia",CO
187,no lat/lng entered - geocoded location,Tunja,Colombia,0.0,0.0,5.5158168,-73.37773195372108,"Tunja, Boyacá, Colombia",CO
188,correct location data,Turipana,Colombia,8.65,-75.97,8.65,-75.97,"Turipana, Colombia",CO
189,correct location data,Turipana (2),Colombia,8.65,-75.97,8.65,-75.97,"Turipana (2), Colombia",CO
190,no lat/lng entered - geocoded location,Turipana (3),Colombia,0.0,0.0,2.9405994,-75.25635620782482,"Turipaná, Comuna Oriente, Huila, Colombia",CO
191,no lat/lng entered - geocoded location,Turipana (4),Colombia,0.0,0.0,2.9402105,-75.2568126,"Carrera 43B, Comuna Oriente, Huila, Colombia",CO
192,no lat/lng entered - geocoded location,Valle De Magdalena,Colombia,0.0,0.0,10.717347,-73.6220434,"Valle de Mamancanaca, Magdalena, Colombia",CO
193,no lat/lng entered - geocoded location,Valle De Magdalena (2),Colombia,0.0,0.0,10.717347,-73.6220434,"Valle de Mamancanaca, Magdalena, Colombia",CO
194,no lat/lng entered - geocoded location,Valle De Magdalena (3),Colombia,0.0,0.0,10.717347,-73.6220434,"Valle de Mamancanaca, Magdalena, Colombia",CO
195,no lat/lng entered - geocoded location,Valle De Magdalena (4),Colombia,0.0,0.0,3.5378217,-76.2976028,"Flota Magdalena S.A., Calle 42, 763531, Calle 42, Palmira, Valle del Cauca, Colombia",CO
196,no lat/lng entered - geocoded location,Valle Del Cauca,Colombia,0.0,0.0,4.063969999999999,-76.12337981939545,"Valle del Cauca, Colombia",CO
197,no lat/lng entered - geocoded location,Venecia,Colombia,0.0,0.0,5.9458914,-75.77586492822118,"Venecia, Antioquia, Colombia",CO
198,no lat/lng entered - geocoded location,Villavicencio,Colombia,0.0,0.0,4.1315113,-73.6206667,"Villavicencio, 500005, Villavicencio, Meta, Colombia",CO
199,no lat/lng entered - geocoded location,Villavo,Colombia,0.0,0.0,4.5066393,-74.1129318,"Salida para Villavo en Yomasa, Autopista al Llano Calle 71 Sur, 110541, Autopista al Llano Calle 71 Sur, Usme, Bogota Capital District, Colombia",CO
200,no lat/lng entered - geocoded location,Yotoco-valle Del Cauca,Colombia,0.0,0.0,3.89766105,-76.387873049896,"Yotoco, Valle del Cauca, Colombia",CO
201,no lat/lng entered - geocoded location,Congo,Congo,0.0,0.0,-0.7264327,15.6419155,"Congo-Brazzaville, Republic of the Congo",CG
202,correct location data,Odziba,Congo,-3.55,15.516666,-3.55,15.516666,"Odziba, Congo",CG
203,no lat/lng entered - geocoded location,Tshibati,Congo,0.0,0.0,-0.7264327,15.6419155,"Congo-Brazzaville, Republic of the Congo",CG
204,correct location data,"Ca╤as, Guanacaste",Costa Rica,10.43,-85.1,10.43,-85.1,"Ca╤as, Guanacaste, Costa Rica",CR
205,no lat/lng entered - geocoded location,Costa Rica,Costa Rica,0.0,0.0,10.2735633,-84.0739102,"Costa Rica, Costa Rica",CR
206,no lat/lng entered - geocoded location,"El Aguila, Pejibaye",Costa Rica,0.0,0.0,9.1194544,-83.5303297,"Río Águila, 11907, Pejibaye, Provincia San José, Costa Rica",CR
207,no lat/lng entered - geocoded location,"El Parque, Los Chiles",Costa Rica,0.0,0.0,10.89066895,-84.78596013649482,"Parque de Caño Negro, 21402, Caño Negro, Provincia Alajuela, Costa Rica",CR
208,no lat/lng entered - geocoded location,"El Progreso, Pejibaye",Costa Rica,0.0,0.0,10.7306671,-84.915083,"El Progreso, 21504, Provincia Alajuela, Costa Rica",CR
209,no lat/lng entered - geocoded location,Guagaral,Costa Rica,11.69527,-85.78125,9.0749483,-83.511078,"Guagaral de Buenos Aires, Provincia Puntarenas, Costa Rica",CR
210,correct location data,Guanacaste,Costa Rica,10.35,-85.13,10.35,-85.13,"Guanacaste, Costa Rica",CR
211,no lat/lng entered - geocoded location,Las Ca╤as,Costa Rica,0.0,0.0,10.27969975,-84.95930039143778,"Parque Central de Las Juntas, 50701, Las Juntas, Provincia Guanacaste, Costa Rica",CR
212,no lat/lng entered - geocoded location,Pejibaye De Perez Zeledon,Costa Rica,0.0,0.0,9.16834465,-83.5713993251368,"Cementerio de Pejibaye, 11907, Pejibaye, Provincia San José, Costa Rica",CR
213,correct location data,"San Jose, Costa Rica",Costa Rica,9.98,-84.07,9.98,-84.07,"San Jose, Costa Rica, Costa Rica",CR
214,no lat/lng entered - geocoded location,Upala,Costa Rica,0.0,0.0,10.8838931,-85.14527533051114,"Cantón Upala, Provincia Alajuela, Costa Rica",CR
215,no lat/lng entered - geocoded location,Upala Pueblo Nuevo,Costa Rica,0.0,0.0,10.9710491,-85.1232129,"Barrio Pueblo Nuevo, Provincia Alajuela, Costa Rica",CR
216,no lat/lng entered - geocoded location,"Veracruz, Pejibaye",Costa Rica,0.0,0.0,9.1604954,-83.5693607,"Pejibaye, 11907, Provincia San José, Costa Rica",CR
217,correct location data,Badikaha,Cote D'ivoire,8.0,-5.0,8.0,-5.0,"Badikaha, Cote D'ivoire",CI
218,correct location data,Bouake,Cote D'ivoire,7.68,-5.03,7.68,-5.03,"Bouake, Cote D'ivoire",CI
219,correct location data,Ferkessedougou,Cote D'ivoire,9.58,-5.23,9.58,-5.23,"Ferkessedougou, Cote D'ivoire",CI
220,correct location data,Sinematiali,Cote D'ivoire,9.62,-3.07,9.62,-3.07,"Sinematiali, Cote D'ivoire",CI
221,correct location data,Touba,Cote D'ivoire,8.366666,-7.7,8.366666,-7.7,"Touba, Cote D'ivoire",CI
222,correct location data,Warda/adrao-mbe,Cote D'ivoire,7.866666,-5.1,7.866666,-5.1,"Warda/adrao-mbe, Cote D'ivoire",CI
223,no lat/lng entered - geocoded location,Alquizar,Cuba,23.83,-82.52,22.7664656,-82.60529356062673,"Alquízar, Artemisa, Cuba",CU
224,no lat/lng entered - geocoded location,Tomeguin,Cuba,23.85,-82.52,23.0131338,-80.8328748,"Cuba, Cuba",CU
225,correct location data,Bani,Dominican Republic,18.32,-70.35,18.32,-70.35,"Bani, Dominican Republic",DO
226,no lat/lng entered - geocoded location,Ecuador,Ecuador,0.0,0.0,-1.3397668,-79.3666965,"Ecuador, Ecuador",EC
227,no lat/lng entered - geocoded location,La Virginia Quevedo,Ecuador,0.0,0.0,-1.0465244,-79.4895278,"La Virginia, 120305, Los Ríos, Ecuador",EC
228,no lat/lng entered - geocoded location,Lodana,Ecuador,0.0,0.0,-1.1786654,-80.384962,"Lodana, Manabí, Ecuador",EC
229,correct location data,Los Rios,Ecuador,-1.1,-79.48,-1.1,-79.48,"Los Rios, Ecuador",EC
230,no lat/lng entered - geocoded location,Organos,Ecuador,0.0,0.0,-1.3397668,-79.3666965,"Ecuador, Ecuador",EC
231,correct location data,Pichilingue,Ecuador,-1.1,-79.48,-1.1,-79.48,"Pichilingue, Ecuador",EC
232,no lat/lng entered - geocoded location,Pindal,Ecuador,0.0,0.0,-4.10051445,-80.13880820830161,"Cantón Pindal, Loja, Ecuador",EC
233,correct location data,Porto Viejo,Ecuador,-1.07,-80.43,-1.07,-80.43,"Porto Viejo, Ecuador",EC
234,correct location data,Porto Viejo (2),Ecuador,-1.12,-80.47,-1.12,-80.47,"Porto Viejo (2), Ecuador",EC
235,correct location data,Gemmeiza,Egypt,30.72,31.12,30.72,31.12,"Gemmeiza, Egypt",EG
236,no lat/lng entered - geocoded location,Giza,Egypt,0.0,0.0,30.0170059,31.2134513,"Giza, 12541, Giza Governorate, Egypt",EG
237,correct location data,Nubaria,Egypt,31.0,30.5,31.0,30.5,"Nubaria, Egypt",EG
238,correct location data,Sakha,Egypt,31.12,30.95,31.12,30.95,"Sakha, Egypt",EG
239,correct location data,Sids,Egypt,28.93,30.98,28.93,30.98,"Sids, Egypt",EG
240,correct location data,Ahuachapan,El Salvador,13.92,-89.85,13.92,-89.85,"Ahuachapan, El Salvador",SV
241,no lat/lng entered - geocoded location,Apastepeque,El Salvador,0.0,0.0,13.8000382,-88.9140683,"El Salvador, El Salvador",SV
242,no lat/lng entered - geocoded location,"Barrio Nuevo, La Paz",El Salvador,0.0,0.0,13.5088301,-88.8721725,"Pasaje Nuevo Ángulo, Zacatecoluca, Departamento de La Paz, El Salvador",SV
243,no lat/lng entered - geocoded location,Chalchahuapa,El Salvador,0.0,0.0,13.8000382,-88.9140683,"El Salvador, El Salvador",SV
244,no lat/lng entered - geocoded location,Cuhisnuat,El Salvador,0.0,0.0,13.8000382,-88.9140683,"El Salvador, El Salvador",SV
245,no lat/lng entered - geocoded location,El Coyalito,El Salvador,0.0,0.0,13.8000382,-88.9140683,"El Salvador, El Salvador",SV
246,no lat/lng entered - geocoded location,Jiquilisco,El Salvador,0.0,0.0,13.8000382,-88.9140683,"El Salvador, El Salvador",SV
247,no lat/lng entered - geocoded location,"Jocoro, Morazan",El Salvador,0.0,0.0,13.6993111,-89.19031923357137,"Plaza Morazán, CP 1102, San Salvador, Departamento de San Salvador, El Salvador",SV
248,no lat/lng entered - geocoded location,"Jucuapa, Usulutan",El Salvador,0.0,0.0,13.191240050000001,-88.36871601380577,"Isla El Platanar, Jucuarán, Departamento de Usulután, El Salvador",SV
249,no lat/lng entered - geocoded location,La Libertad,El Salvador,0.0,0.0,13.67551125,-89.24383353889507,"MCormick El Salvador, 1114, Antiguo Cuscatlán, Departamento de La Libertad, El Salvador",SV
250,no lat/lng entered - geocoded location,Lomas De Santiago,El Salvador,0.0,0.0,13.8300527,-89.3809173,"Quebrada El Zapote, Departamento de La Libertad, El Salvador",SV
251,no lat/lng entered - geocoded location,"Nacimiento, La Union",El Salvador,0.0,0.0,13.2003965,-87.71245064931787,"Cantón El Salvador, Departamento de La Unión, El Salvador",SV
252,no lat/lng entered - geocoded location,Nahuilingo,El Salvador,0.0,0.0,13.8000382,-88.9140683,"El Salvador, El Salvador",SV
253,no lat/lng entered - geocoded location,"Quelepa, San Miguel",El Salvador,0.0,0.0,13.4677996,-88.1926121,"Pasaje El Salvador, San Miguel, Departamento de San Miguel, El Salvador",SV
254,no lat/lng entered - geocoded location,San Mauricio,El Salvador,0.0,0.0,13.7338605,-89.22964259059421,"Cancha El Milagro, CP 1102, Residencial Monte Bello, Departamento de San Salvador, El Salvador",SV
255,no lat/lng entered - geocoded location,"San Pedro Puxtla, Ahuachapan",El Salvador,0.0,0.0,13.7424589,-89.8140037,"Escuela El Cortez, San Pedro Puxtla, Departamento de Ahuachapán, El Salvador",SV
256,no lat/lng entered - geocoded location,San Vicente,El Salvador,0.0,0.0,13.6977668,-89.18805,"Calle Presbiterio Vicente Aguilar, CP 1102, San Salvador, Departamento de San Salvador, El Salvador",SV
257,correct location data,Santa Cruz (2),El Salvador,13.33,-88.83,13.33,-88.83,"Santa Cruz (2), El Salvador",SV
258,correct location data,"Santa Cruz, El Salvador",El Salvador,13.33,-88.83,13.33,-88.83,"Santa Cruz, El Salvador, El Salvador",SV
259,no lat/lng entered - geocoded location,"Suchitoto, Cuscatlan",El Salvador,0.0,0.0,13.934355199999999,-89.02801160200242,"Plataforma Global El Salvador, 39, 2a Avenida Sur, 2a Avenida Sur, Suchitoto, Departamento de Cuscatlán, El Salvador",SV
260,no lat/lng entered - geocoded location,Tenancingo,El Salvador,0.0,0.0,13.8000382,-88.9140683,"El Salvador, El Salvador",SV
261,no lat/lng entered - geocoded location,"Uluazapa, La Union",El Salvador,0.0,0.0,13.2003965,-87.71245064931787,"Cantón El Salvador, Departamento de La Unión, El Salvador",SV
262,correct location data,Halhale,Eritrea,15.0,39.0,15.0,39.0,"Halhale, Eritrea",ER
263,correct location data,Shambiko,Eritrea,14.92,37.83,14.92,37.83,"Shambiko, Eritrea",ER
264,correct location data,Pontevedra,España,40.9799,-2.10938,40.9799,-2.10938,"Pontevedra, España",ES
265,correct location data,Adet,Ethiopia,11.27,37.48,11.27,37.48,"Adet, Ethiopia",ET
266,correct location data,Alemaya,Ethiopia,9.5,41.95,9.5,41.95,"Alemaya, Ethiopia",ET
267,correct location data,Ambo,Ethiopia,8.96,38.857,8.96,38.857,"Ambo, Ethiopia",ET
268,correct location data,Awassa,Ethiopia,7.05,38.47,7.05,38.47,"Awassa, Ethiopia",ET
269,correct location data,Awassa (2),Ethiopia,7.08,38.48,7.08,38.48,"Awassa (2), Ethiopia",ET
270,correct location data,Bako,Ethiopia,9.1,37.15,9.1,37.15,"Bako, Ethiopia",ET
271,correct location data,Bako (2),Ethiopia,5.85,37.08,5.85,37.08,"Bako (2), Ethiopia",ET
272,correct location data,Ethiopia,Ethiopia,7.71099,42.53906,7.71099,42.53906,"Ethiopia, Ethiopia",ET
273,no lat/lng entered - geocoded location,Haramaya,Ethiopia,0.0,0.0,9.41467595,42.03515001516861,"Haramaya University, Didimtu, Harari Region, Ethiopia",ET
274,correct location data,Holetta,Ethiopia,9.05,38.5,9.05,38.5,"Holetta, Ethiopia",ET
275,correct location data,Jimma,Ethiopia,7.67,36.83,7.67,36.83,"Jimma, Ethiopia",ET
276,no lat/lng entered - geocoded location,Kitale-ws,Ethiopia,1.01666998863,34.9833297729,12.91667,39.56666,"Kitare, Tigray Region, Ethiopia",ET
277,correct location data,Kokate,Ethiopia,10.7853002548,38.0278015137,10.7853002548,38.0278015137,"Kokate, Ethiopia",ET
278,correct location data,Kulumsa,Ethiopia,8.0,39.15,8.0,39.15,"Kulumsa, Ethiopia",ET
279,correct location data,Melkasa,Ethiopia,8.4,39.33,8.4,39.33,"Melkasa, Ethiopia",ET
280,correct location data,Mieso,Ethiopia,9.33,41.18,9.33,41.18,"Mieso, Ethiopia",ET
281,correct location data,Nazareth,Ethiopia,8.5,39.5,8.5,39.5,"Nazareth, Ethiopia",ET
282,correct location data,Nazret,Ethiopia,8.5239,39.2582,8.5239,39.2582,"Nazret, Ethiopia",ET
283,correct location data,Pawe,Ethiopia,11.23,38.0,11.23,38.0,"Pawe, Ethiopia",ET
284,no lat/lng entered - geocoded location,Ws,Ethiopia,0.0,0.0,10.2116702,38.6521203,"Ethiopia, Ethiopia",ET
285,correct location data,Ziway,Ethiopia,8.0,38.83,8.0,38.83,"Ziway, Ethiopia",ET
286,no lat/lng entered - geocoded location,Dobuleni Research Station,Fiji,0.0,0.0,-16.7056525,-179.9082564,"Mua Research Station, West Coast Road, West Coast Road, Matei, Northern, Fiji",FJ
287,no lat/lng entered - geocoded location,Koronnia Research Station,Fiji,0.0,0.0,-16.7056525,-179.9082564,"Mua Research Station, West Coast Road, West Coast Road, Matei, Northern, Fiji",FJ
288,no lat/lng entered - geocoded location,Legalega Research Station,Fiji,0.0,0.0,-16.7056525,-179.9082564,"Mua Research Station, West Coast Road, West Coast Road, Matei, Northern, Fiji",FJ
289,no lat/lng entered - geocoded location,Sigatoka Research Station,Fiji,0.0,0.0,-16.7056525,-179.9082564,"Mua Research Station, West Coast Road, West Coast Road, Matei, Northern, Fiji",FJ
290,no lat/lng entered - geocoded location,Tserovani,Georgia,0.0,0.0,41.894183,44.6744183,"Tserovani, Mtskheta-Mtianeti, Georgia",GE
291,correct location data,Damongo,Ghana,9.066666,-1.816666,9.066666,-1.816666,"Damongo, Ghana",GH
292,correct location data,Ejura,Ghana,7.383333,-1.366666,7.383333,-1.366666,"Ejura, Ghana",GH
293,correct location data,Fumesua,Ghana,6.75,-1.583333,6.75,-1.583333,"Fumesua, Ghana",GH
294,correct location data,Kwadaso,Ghana,6.75,-1.58,6.75,-1.58,"Kwadaso, Ghana",GH
295,correct location data,Nyankpala,Ghana,9.42,-0.97,9.42,-0.97,"Nyankpala, Ghana",GH
296,correct location data,Pokuase,Ghana,5.683333,-0.283333,5.683333,-0.283333,"Pokuase, Ghana",GH
297,"entered (lat, -lng)",Tamale,Ghana,9.3972,0.8329,9.3972,-0.8329,"Tamale, Ghana",GH
298,correct location data,Thessaloniki,Greece,40.55,23.0,40.55,23.0,"Thessaloniki, Greece",GR
299,no lat/lng entered - geocoded location,Thessaloniki-kentriko,Greece,39.09596,23.37891,40.6370053,22.9365145,"Kentriko Thessalonikis, 1, Leondos Sofou, 54626, Leondos Sofou, Thessaloniki, Macedonia - Thrace, Greece",GR
300,correct location data,"Barcenas, Villa Nuev",Guatemala,14.5467,-90.62283,14.5467,-90.62283,"Barcenas, Villa Nuev, Guatemala",GT
301,no lat/lng entered - geocoded location,"Caballo Blanco, Retalhuleu",Guatemala,0.0,0.0,14.485095699999999,-91.65043931764578,"Casa Blanca, Retalhuleu, Guatemala",GT
302,correct location data,Chimaltenango,Guatemala,14.67,-90.8,14.67,-90.8,"Chimaltenango, Guatemala",GT
303,correct location data,Cuyuta,Guatemala,14.25,-90.0,14.25,-90.0,"Cuyuta, Guatemala",GT
304,no lat/lng entered - geocoded location,"El Ovejero, Jutiapa",Guatemala,0.0,0.0,14.4393269,-89.8680008,"El Ovejero, Jutiapa, Guatemala",GT
305,no lat/lng entered - geocoded location,Estanzuela,Guatemala,0.0,0.0,14.9788616,-89.60987405581477,"Estanzuela, Zacapa, Guatemala",GT
306,no lat/lng entered - geocoded location,Guatemala,Guatemala,,,15.6356088,-89.8988087,"Guatemala, Guatemala",GT
307,no lat/lng entered - geocoded location,Isidro Avarez,Guatemala,16.87,-96.78,15.1318255,-91.7181262,"San Isidro, San Marcos, Guatemala",GT
308,correct location data,Jutiapa,Guatemala,14.25,-89.92,14.25,-89.92,"Jutiapa, Guatemala",GT
309,no lat/lng entered - geocoded location,La Flecha,Guatemala,0.0,0.0,17.2708286,-90.8744237,"Río San Pedro (Guatemala-México), Petén, Guatemala",GT
310,no lat/lng entered - geocoded location,La Maquina,Guatemala,0.0,0.0,14.30496535,-91.56539103867601,"Parque San José La Máquina, Suchitepéquez, Guatemala",GT
311,no lat/lng entered - geocoded location,"La Maquina, Tulate",Guatemala,0.0,0.0,14.2371945,-91.6748598,"Centro 2 La Máquina, Tulate, Retalhuleu, Guatemala",GT
312,no lat/lng entered - geocoded location,Las Monjas,Guatemala,0.0,0.0,14.51342945,-89.8990143228134,"Monjas, Jalapa, Guatemala",GT
313,correct location data,Las Vegas,Guatemala,14.58358,-90.59326,14.58358,-90.59326,"Las Vegas, Guatemala",GT
314,no lat/lng entered - geocoded location,"Monjas, Jalapa",Guatemala,0.0,0.0,14.51342945,-89.8990143228134,"Monjas, Jalapa, Guatemala",GT
315,no lat/lng entered - geocoded location,Nueva Concepcion,Guatemala,0.0,0.0,14.126215349999999,-91.29472825431031,"Nueva Concepción, Escuintla, Guatemala",GT
316,no lat/lng entered - geocoded location,"Ovejero, Jutiapa",Guatemala,0.0,0.0,14.4393269,-89.8680008,"El Ovejero, Jutiapa, Guatemala",GT
317,no lat/lng entered - geocoded location,"Quesada, Jutiapa",Guatemala,0.0,0.0,14.2853523,-90.03049884223813,"Quesada, Jutiapa, Guatemala",GT
318,no lat/lng entered - geocoded location,Salam B. V.,Guatemala,0.0,0.0,15.0446519,-90.32065034806926,"Salamá, Baja Verapaz, Guatemala",GT
319,no lat/lng entered - geocoded location,San Jos╔ Pinula,Guatemala,0.0,0.0,14.55343475,-90.34585630827843,"San José Pinula, Guatemala, Guatemala",GT
320,no lat/lng entered - geocoded location,"San Pedro Pinula, Jalapa",Guatemala,0.0,0.0,14.7148894,-89.83911116760636,"San Pedro Pinula, Jalapa, Guatemala",GT
321,no lat/lng entered - geocoded location,Sto Domingo,Guatemala,0.0,0.0,14.2812826,-91.49676486660707,"Santo Domingo Suchitepéquez, Suchitepéquez, Guatemala",GT
322,correct location data,Tequinzate,Guatemala,14.27,-91.35,14.27,-91.35,"Tequinzate, Guatemala",GT
323,correct location data,Tequinzate (2),Guatemala,14.27,-91.35,14.27,-91.35,"Tequinzate (2), Guatemala",GT
324,no lat/lng entered - geocoded location,Zacapa,Guatemala,0.0,0.0,14.96919145,-89.44919255064195,"Zacapa, Zacapa, Guatemala",GT
325,correct location data,Cayes,Haiti,18.27,-73.78,18.27,-73.78,"Cayes, Haiti",HT
326,no lat/lng entered - geocoded location,Chantilly,Haiti,0.0,0.0,19.1399952,-72.3570972,"Haiti, Haiti",HT
327,correct location data,Damien Farm.,Haiti,19.3,-72.25,19.3,-72.25,"Damien Farm., Haiti",HT
328,correct location data,Levy-cayes,Haiti,18.2,-73.75,18.2,-73.75,"Levy-cayes, Haiti",HT
329,no lat/lng entered - geocoded location,"Candelaria, Lempira",Honduras,0.0,0.0,15.172222600000001,-83.94367098441666,"Puerto Lempira, Gracias a Dios, Honduras",HN
330,no lat/lng entered - geocoded location,"Catacamas, Olancho",Honduras,0.0,0.0,14.8484732,-85.894113,"Catacamas, Olancho, Honduras",HN
331,correct location data,Comayagua,Honduras,14.5,-87.65,14.5,-87.65,"Comayagua, Honduras",HN
332,no lat/lng entered - geocoded location,"Comayagua, E.e. Playitas",Honduras,0.0,0.0,14.3188383,-87.5135833,"El Coyolito, Comayagua, Comayagua, Honduras",HN
333,correct location data,Danli,Honduras,14.03,-86.5,14.03,-86.5,"Danli, Honduras",HN
334,no lat/lng entered - geocoded location,"El Pital, Atlantida",Honduras,0.0,0.0,14.3846736,-89.1293056,"Cerro El Pital, Nueva Ocotepeque, Ocotepeque, Honduras",HN
335,correct location data,"Higuero Qumado, Yori",Honduras,15.07,-87.33,15.07,-87.33,"Higuero Qumado, Yori, Honduras",HN
336,no lat/lng entered - geocoded location,"Jutiquile, Olancho",Honduras,0.0,0.0,14.7432601,-86.0952627,"Jutiquile, Olancho, Honduras",HN
337,correct location data,La Esperanza,Honduras,14.25,-88.2,14.25,-88.2,"La Esperanza, Honduras",HN
338,correct location data,Las Acacias,Honduras,14.55,-86.43,14.55,-86.43,"Las Acacias, Honduras",HN
339,no lat/lng entered - geocoded location,Litoral Atlantico,Honduras,0.0,0.0,15.771626399999999,-87.46722434647117,"Escuela Normal Mixta Del Litoral Atlantico, Puerto Arturo, Atlántida, Honduras",HN
340,no lat/lng entered - geocoded location,"Luquigue Yorito, Yoro",Honduras,0.0,0.0,15.0654325,-87.2820675,"Yorito, Yoro, Honduras",HN
341,no lat/lng entered - geocoded location,"Obraje, Danli",Honduras,0.0,0.0,14.0332817,-86.5686813,"Danli, El Paraíso, Honduras",HN
342,correct location data,Omonita,Honduras,14.4,-87.67,14.4,-87.67,"Omonita, Honduras",HN
343,no lat/lng entered - geocoded location,Playita,Honduras,0.0,0.0,13.641861,-87.3636421,"Las Playitas, Choluteca, Honduras",HN
344,no lat/lng entered - geocoded location,"Potrerillos, Olancho",Honduras,0.0,0.0,14.5958328,-86.1500015,"Desvio Potrerillos Airport, Juticalpa, Olancho, Honduras",HN
345,no lat/lng entered - geocoded location,"San Lucas, El Paraiso",Honduras,0.0,0.0,15.7776096,-87.4810315,"Barrio El Paraiso, Aldea de San Juan, Atlántida, Honduras",HN
346,no lat/lng entered - geocoded location,"San Pedro De Catacamas, Olancho",Honduras,0.0,0.0,14.7511235,-86.0574774,"Carretera Hacia Catacamas, Santa Maria del Real, Olancho, Honduras",HN
347,correct location data,"Santa Cruz, Yorito,y",Honduras,15.07,-87.23,15.07,-87.23,"Santa Cruz, Yorito,y, Honduras",HN
348,no lat/lng entered - geocoded location,"Yoro, El Pate",Honduras,0.0,0.0,15.3067118,-87.6991901,"El Negrito, Yoro, Honduras",HN
349,no lat/lng entered - geocoded location,"Yoro, Morazan",Honduras,0.0,0.0,15.3202182,-87.598286,"Morazan, Yoro, Honduras",HN
350,correct location data,Adoni Mandal,India,15.63,77.27,15.63,77.27,"Adoni Mandal, India",IN
351,correct location data,Almora,India,29.6,79.67,29.6,79.67,"Almora, India",IN
352,no lat/lng entered - geocoded location,Amberpet,India,0.0,0.0,17.7776835,78.5705066,"Amberpet, Telangana, India",IN
353,correct location data,Anantnagar,India,34.0,74.7,34.0,74.7,"Anantnagar, India",IN
354,correct location data,Arabhavi,India,16.2,74.9,16.2,74.9,"Arabhavi, India",IN
355,correct location data,Auli,India,30.52,79.57,30.52,79.57,"Auli, India",IN
356,correct location data,Aurangabad,India,24.73935,84.33655,24.73935,84.33655,"Aurangabad, India",IN
357,correct location data,Bahraich,India,27.72,81.6,27.72,81.6,"Bahraich, India",IN
358,correct location data,Bajaura,India,32.55,78.3,32.55,78.3,"Bajaura, India",IN
359,correct location data,Bangalore,India,12.97,77.58,12.97,77.58,"Bangalore, India",IN
360,correct location data,Bangalore (2),India,12.97,77.58,12.97,77.58,"Bangalore (2), India",IN
361,correct location data,Banswara,India,23.55,74.45,23.55,74.45,"Banswara, India",IN
362,correct location data,"Begusarai, Bihar",India,25.4169,86.13,25.4169,86.13,"Begusarai, Bihar, India",IN
363,no lat/lng entered - geocoded location,"Belipar, Gorakhpur, U.p.",India,0.0,0.0,26.7600217,83.3668129,"Gorakhpur, Uttar Pradesh, India",IN
364,no lat/lng entered - geocoded location,Bihar,India,0.0,0.0,25.6440845,85.906508,"Bihar, India",IN
365,correct location data,Chhindwara,India,22.82,79.4,22.82,79.4,"Chhindwara, India",IN
366,correct location data,Coimbatore,India,11.0,77.0,11.0,77.0,"Coimbatore, India",IN
367,correct location data,Delhi,India,28.07,77.17,28.07,77.17,"Delhi, India",IN
368,correct location data,Dhaulakuan,India,30.08,77.08,30.08,77.08,"Dhaulakuan, India",IN
369,correct location data,Dholi,India,25.98,86.25,25.98,86.25,"Dholi, India",IN
370,no lat/lng entered - geocoded location,Dholi (2),India,0.0,0.0,28.3513155,76.1198738,"Dholi, 123029, Haryana, India",IN
371,no lat/lng entered - geocoded location,Dmr I.a.r.i.,India,18.35,-66.76,28.6128924,77.2294312,"India Gate, Rajpath, 020626, Rajpath, New Delhi, Delhi, India",IN
372,no lat/lng entered - geocoded location,Dohad,India,0.0,0.0,22.3511148,78.6677428,"India, India",IN
373,correct location data,Godhra,India,22.75,73.67,22.75,73.67,"Godhra, India",IN
374,no lat/lng entered - geocoded location,Godhsa Gaujasat,India,0.0,0.0,22.7785001,73.6245157,"Godhra, 389001, Gujarat, India",IN
375,correct location data,Hyderabad,India,17.33,78.5,17.33,78.5,"Hyderabad, India",IN
376,no lat/lng entered - geocoded location,India,India,0.0,0.0,22.3511148,78.6677428,"India, India",IN
377,correct location data,Issarwadi,India,19.87,75.37,19.87,75.37,"Issarwadi, India",IN
378,correct location data,Jalna,India,19.85,75.88,19.85,75.88,"Jalna, India",IN
379,correct location data,Jashipur,India,21.28,85.68,21.28,85.68,"Jashipur, India",IN
380,correct location data,Jorhat,India,26.77,94.27,26.77,94.27,"Jorhat, India",IN
381,correct location data,Kangra (h.p.),India,29.68805,76.88232,29.68805,76.88232,"Kangra (h.p.), India",IN
382,correct location data,Kanpur,India,26.45,80.67,26.45,80.67,"Kanpur, India",IN
383,correct location data,Karnal,India,29.72,76.97,29.72,76.97,"Karnal, India",IN
384,correct location data,Karnataka,India,14.0,76.0,14.0,76.0,"Karnataka, India",IN
385,no lat/lng entered - geocoded location,Khadbrabhra,India,0.0,0.0,22.3511148,78.6677428,"India, India",IN
386,no lat/lng entered - geocoded location,Khedbrahma,India,0.0,0.0,24.0310797,73.0484074,"Khedbrahma, 383255, Gujarat, India",IN
387,correct location data,Kolhapur,India,16.72,74.23,16.72,74.23,"Kolhapur, India",IN
388,correct location data,Ludhiana,India,30.9,75.8,30.9,75.8,"Ludhiana, India",IN
389,correct location data,Medchal,India,17.68,78.45,17.68,78.45,"Medchal, India",IN
390,no lat/lng entered - geocoded location,Muzafferpur,India,0.0,0.0,22.3511148,78.6677428,"India, India",IN
391,no lat/lng entered - geocoded location,New Delhi,India,0.0,0.0,28.6141793,77.2022662,"New Delhi, Delhi, India",IN
392,correct location data,P.r Pally,India,18.98,77.92,18.98,77.92,"P.r Pally, India",IN
393,correct location data,Pahalgam,India,29.68805,76.88232,29.68805,76.88232,"Pahalgam, India",IN
394,correct location data,Pantnagar,India,29.0,79.45,29.0,79.45,"Pantnagar, India",IN
395,no lat/lng entered - geocoded location,Pantnagar (2),India,0.0,0.0,29.0264162,79.4859989,"Pantnagar, 263145, Uttarakhand, India",IN
396,no lat/lng entered - geocoded location,Parbhani,India,0.0,0.0,19.262469,76.7718,"Parbhani, 431400, Maharashtra, India",IN
397,no lat/lng entered - geocoded location,Poonch,India,0.0,0.0,25.8241798,79.0444959,"Poonch, Uttar Pradesh, India",IN
398,no lat/lng entered - geocoded location,Prabhakar Reddy,India,0.0,0.0,17.4202917,78.42046362794693,"Kasu Brahmananda Reddy Park, KBR Park Peripheral Jogging Track, 500034, KBR Park Peripheral Jogging Track, Greater Hyderabad Municipal Corporation, Telangana, India",IN
399,no lat/lng entered - geocoded location,Probhakor,India,0.0,0.0,22.3511148,78.6677428,"India, India",IN
400,correct location data,Pune,India,18.57,73.97,18.57,73.97,"Pune, India",IN
401,no lat/lng entered - geocoded location,Pusa,India,0.0,0.0,28.63629965,77.15764441079895,"Pusa, Delhi, India",IN
402,no lat/lng entered - geocoded location,R&d (pachora).,India,0.0,0.0,28.6128924,77.2294312,"India Gate, Rajpath, 020626, Rajpath, New Delhi, Delhi, India",IN
403,no lat/lng entered - geocoded location,R&d (wadadhe).,India,0.0,0.0,28.6128924,77.2294312,"India Gate, Rajpath, 020626, Rajpath, New Delhi, Delhi, India",IN
404,correct location data,Raipur,India,21.2336,81.63,21.2336,81.63,"Raipur, India",IN
405,no lat/lng entered - geocoded location,Ranchi,India,0.0,0.0,23.3700354,85.3250132,"Ranchi, 834001, Jharkhand, India",IN
406,no lat/lng entered - geocoded location,Rau Pusa (bihar),India,0.0,0.0,25.3851063,86.46769912015446,"Bihar School of Yoga, 811201, Munger, Bihar, India",IN
407,no lat/lng entered - geocoded location,Rayalkole,India,0.0,0.0,22.3511148,78.6677428,"India, India",IN
408,no lat/lng entered - geocoded location,Samastipur,India,0.0,0.0,25.75,85.916667,"Samastīpur, Bihar, India",IN
409,correct location data,Sonipat,India,29.0,77.02,29.0,77.02,"Sonipat, India",IN
410,correct location data,Srinagar,India,34.1,74.9,34.1,74.9,"Srinagar, India",IN
411,no lat/lng entered - geocoded location,"Srinagar, K.d. Research Station",India,0.0,0.0,13.69846395,75.2334723654391,"Horticulture Research Station, 577432, Surani, Karnataka, India",IN
412,correct location data,Udaipur,India,24.58,73.68,24.58,73.68,"Udaipur, India",IN
413,correct location data,Umiam Meghalaya,India,25.36388,90.92285,25.36388,90.92285,"Umiam Meghalaya, India",IN
414,correct location data,Varanasi,India,25.3,83.05,25.3,83.05,"Varanasi, India",IN
415,correct location data,"Wahdan, Pahalgam, Kashmir",India,29.68805,76.88232,29.68805,76.88232,"Wahdan, Pahalgam, Kashmir, India",IN
416,no lat/lng entered - geocoded location,Bontobili,Indonesia,-5.25,119.05,-4.7993356,114.5632032,"Indonesia, Indonesia",ID
417,no lat/lng entered - geocoded location,Gowa S. Sulawesi,Indonesia,0.0,0.0,3.5490959,125.5386701,"Gowa, North Sulawesi, Indonesia",ID
418,no lat/lng entered - geocoded location,Hulu Sungai Selatan,Indonesia,0.0,0.0,-2.4684359,115.213926,"Sungai Pandan Hulu, South Kalimantan, Indonesia",ID
419,no lat/lng entered - geocoded location,Jambegede,Indonesia,0.0,0.0,-4.7993356,114.5632032,"Indonesia, Indonesia",ID
420,correct location data,Malang,Indonesia,-7.98,112.75,-7.98,112.75,"Malang, Indonesia",ID
421,correct location data,Maros,Indonesia,-4.98,119.58,-4.98,119.58,"Maros, Indonesia",ID
422,no lat/lng entered - geocoded location,Muneng,Indonesia,-8.83,113.28,-7.9325776,111.4269451,"Muneng, East Java, Indonesia",ID
423,no lat/lng entered - geocoded location,Naibonat,Indonesia,0.0,0.0,-4.7993356,114.5632032,"Indonesia, Indonesia",ID
424,no lat/lng entered - geocoded location,"Natar, Lampung",Indonesia,0.0,0.0,-5.3188238,105.192809,"Natar, Lampung, Indonesia",ID
425,no lat/lng entered - geocoded location,Probolinggo,Indonesia,0.0,0.0,-7.7441461,113.2158401,"Probolinggo, 67214, East Java, Indonesia",ID
426,no lat/lng entered - geocoded location,"Takalar, South Sulawesi",Indonesia,0.0,0.0,-5.424416,119.4402163,"BRI Cabang Takalar, 01, jl. ince husain, 92261, jl. ince husain, Kalabbirang, South Sulawesi, Indonesia",ID
427,no lat/lng entered - geocoded location,Yogyakarta,Indonesia,0.0,0.0,-7.8011945,110.364917,"Yogyakarta, 55122, Special Region of Yogyakarta, Indonesia",ID
428,correct location data,Safiabad,Iran,32.54681,54.36035,32.54681,54.36035,"Safiabad, Iran",IR
429,no lat/lng entered - geocoded location,Ai - Latifyia,Iraq,0.0,0.0,32.550943,45.597238,"AI Malgayah, Wasit, Iraq",IQ
430,correct location data,Baghdad,Iraq,33.03,40.28,33.03,40.28,"Baghdad, Iraq",IQ
431,no lat/lng entered - geocoded location,Tuwaitha Baghdad,Iraq,0.0,0.0,33.20876715,44.514783343618504,"Tuwaitha Nuclear Research Center, 10001, Baghdad, Baghdad, Iraq",IQ
432,"entered (-lat, lng)",Alupe,Kenya,0.5,34.11,-0.5,34.11,"Alupe, Kenya",KE
433,no lat/lng entered - geocoded location,Baobab,Kenya,0.0,0.0,-4.0165731,39.7258892,"Baobab Road, 80101, Mombasa, Mombasa, Kenya",KE
434,correct location data,Bondo- On Farm,Kenya,-0.1003,34.2755,-0.1003,34.2755,"Bondo- On Farm, Kenya",KE
435,correct location data,Bukura,Kenya,0.2564,34.6899,0.2564,34.6899,"Bukura, Kenya",KE
436,correct location data,Bungema,Kenya,0.44769,37.81494,0.44769,37.81494,"Bungema, Kenya",KE
437,correct location data,Bungoma,Kenya,0.569369,34.561139,0.569369,34.561139,"Bungoma, Kenya",KE
438,correct location data,Burura,Kenya,0.44769,37.81494,0.44769,37.81494,"Burura, Kenya",KE
439,correct location data,Busia,Kenya,-0.7772,34.1728,-0.7772,34.1728,"Busia, Kenya",KE
440,correct location data,Emabwi,Kenya,0.0846,34.5569,0.0846,34.5569,"Emabwi, Kenya",KE
441,correct location data,Emali,Kenya,-2.1361,37.7856,-2.1361,37.7856,"Emali, Kenya",KE
442,correct location data,Embu,Kenya,-0.5,37.45,-0.5,37.45,"Embu, Kenya",KE
443,correct location data,Emuhaya,Kenya,0.092,34.5712,0.092,34.5712,"Emuhaya, Kenya",KE
444,correct location data,Endebess,Kenya,1.06424,34.85687,1.06424,34.85687,"Endebess, Kenya",KE
445,correct location data,Homabay,Kenya,-0.51,34.45,-0.51,34.45,"Homabay, Kenya",KE
446,correct location data,Ithookwe,Kenya,-1.0333,37.8333,-1.0333,37.8333,"Ithookwe, Kenya",KE
447,no lat/lng entered - geocoded location,K.t.i,Kenya,0.0,0.0,3.7326248499999997,34.8413908775106,"Kakuma I, Kakuma, Turkana, Kenya",KE
448,correct location data,Kakamega,Kenya,0.27,34.74,0.27,34.74,"Kakamega, Kenya",KE
449,correct location data,Kampiyamawe,Kenya,-1.85,37.67,-1.85,37.67,"Kampiyamawe, Kenya",KE
450,no lat/lng entered - geocoded location,Kari - Embu,Kenya,0.0,0.0,-0.5359626500000001,37.66530196902043,"Embu County, Kenya",KE
451,no lat/lng entered - geocoded location,Karurina,Kenya,0.0,0.0,1.4419683,38.4313975,"Kenya, Kenya",KE
452,correct location data,Katumani,Kenya,-1.6,37.23,-1.6,37.23,"Katumani, Kenya",KE
453,correct location data,Kenya,Kenya,0.44769,37.81494,0.44769,37.81494,"Kenya, Kenya",KE
454,correct location data,Kesref,Kenya,-0.0667,34.8167,-0.0667,34.8167,"Kesref, Kenya",KE
455,correct location data,Kiboko,Kenya,-2.25,37.73,-2.25,37.73,"Kiboko, Kenya",KE
456,correct location data,Kibos,Kenya,-0.07,34.82,-0.07,34.82,"Kibos, Kenya",KE
457,correct location data,Kimilili,Kenya,0.61385,37.66388,0.61385,37.66388,"Kimilili, Kenya",KE
458,correct location data,Kimlili (2),Kenya,0.61385,37.66388,0.61385,37.66388,"Kimlili (2), Kenya",KE
459,correct location data,Kitalale,Kenya,1.0044,34.9192,1.0044,34.9192,"Kitalale, Kenya",KE
460,correct location data,Kitale,Kenya,1.01,35.0,1.01,35.0,"Kitale, Kenya",KE
461,correct location data,Kitui,Kenya,-1.37,38.01,-1.37,38.01,"Kitui, Kenya",KE
462,correct location data,Ksc Field,Kenya,1.07,34.9979,1.07,34.9979,"Ksc Field, Kenya",KE
463,correct location data,Machakos,Kenya,-1.5143,37.2628,-1.5143,37.2628,"Machakos, Kenya",KE
464,correct location data,Makindu,Kenya,-2.278,37.8251,-2.278,37.8251,"Makindu, Kenya",KE
465,correct location data,Makueni,Kenya,-1.798,37.623,-1.798,37.623,"Makueni, Kenya",KE
466,correct location data,Mitungu,Kenya,0.057633,37.639197,0.057633,37.639197,"Mitungu, Kenya",KE
467,correct location data,Mombasa,Kenya,-4.07,39.67,-4.07,39.67,"Mombasa, Kenya",KE
468,correct location data,Mtwapa,Kenya,-3.93,39.75,-3.93,39.75,"Mtwapa, Kenya",KE
469,correct location data,Muguga,Kenya,-1.183,36.65,-1.183,36.65,"Muguga, Kenya",KE
470,correct location data,Nairobi,Kenya,-1.25,36.73,-1.25,36.73,"Nairobi, Kenya",KE
471,correct location data,"Narc, Kitale",Kenya,0.61385,37.66388,0.61385,37.66388,"Narc, Kitale, Kenya",KE
472,correct location data,Nyahera,Kenya,-0.0525,34.7405,-0.0525,34.7405,"Nyahera, Kenya",KE
473,correct location data,Rachuonyo,Kenya,-0.3684,34.6497,-0.3684,34.6497,"Rachuonyo, Kenya",KE
474,correct location data,Sigor,Kenya,1.483,35.467,1.483,35.467,"Sigor, Kenya",KE
475,no lat/lng entered - geocoded location,Tanseed,Kenya,0.0,0.0,1.4419683,38.4313975,"Kenya, Kenya",KE
476,correct location data,Vihiga,Kenya,0.0479,34.7271,0.0479,34.7271,"Vihiga, Kenya",KE
477,no lat/lng entered - geocoded location,Wanbugu,Kenya,0.0,0.0,1.4419683,38.4313975,"Kenya, Kenya",KE
478,correct location data,Western Kakamrga,Kenya,0.44769,37.81494,0.44769,37.81494,"Western Kakamrga, Kenya",KE
479,no lat/lng entered - geocoded location,Western Seeds,Kenya,0.0,0.0,0.5090396,34.5731341,"Western, Kenya",KE
480,correct location data,Leribe,Lesotho,-28.88,28.05,-28.88,28.05,"Leribe, Lesotho",LS
481,no lat/lng entered - geocoded location,Lesotho,Lesotho,0.0,0.0,-29.6039267,28.3350193,"Lesotho, Lesotho",LS
482,correct location data,Machache,Lesotho,-29.367,27.917,-29.367,27.917,"Machache, Lesotho",LS
483,correct location data,Mahobong,Lesotho,-28.88,28.05,-28.88,28.05,"Mahobong, Lesotho",LS
484,correct location data,Maseru,Lesotho,-29.28,27.5,-29.28,27.5,"Maseru, Lesotho",LS
485,correct location data,Mokhotlong,Lesotho,-29.28,29.08,-29.28,29.08,"Mokhotlong, Lesotho",LS
486,correct location data,Mokhotlong (2),Lesotho,-29.27,29.08,-29.27,29.08,"Mokhotlong (2), Lesotho",LS
487,correct location data,Nyakosoba,Lesotho,-29.55,27.78,-29.55,27.78,"Nyakosoba, Lesotho",LS
488,correct location data,Teyateyaneng,Lesotho,-29.15,27.75,-29.15,27.75,"Teyateyaneng, Lesotho",LS
489,correct location data,Tseka,Lesotho,-29.5,28.62,-29.5,28.62,"Tseka, Lesotho",LS
490,correct location data,Tulear,Madagascar,-23.33,43.68,-23.33,43.68,"Tulear, Madagascar",MG
491,no lat/lng entered - geocoded location,Baka Research Station,Malawi,0.0,0.0,-13.680208050000001,34.25890878313515,"Chitala Agricultural Research Station, Mphunga, Salima, Malawi",MW
492,correct location data,Bembeke,Malawi,-14.17,34.43,-14.17,34.43,"Bembeke, Malawi",MW
493,correct location data,Bolero,Malawi,-10.983,33.75,-10.983,33.75,"Bolero, Malawi",MW
494,correct location data,Bvumbwe,Malawi,-15.92,35.07,-15.92,35.07,"Bvumbwe, Malawi",MW
495,correct location data,Bwanje,Malawi,-14.08,34.95,-14.08,34.95,"Bwanje, Malawi",MW
496,correct location data,Chitala,Malawi,-13.13,34.07,-13.13,34.07,"Chitala, Malawi",MW
497,correct location data,Chitedze,Malawi,-13.98,33.63,-13.98,33.63,"Chitedze, Malawi",MW
498,correct location data,Lunyangwa,Malawi,-11.45,33.917,-11.45,33.917,"Lunyangwa, Malawi",MW
499,correct location data,Makoka,Malawi,-14.7,35.6,-14.7,35.6,"Makoka, Malawi",MW
500,correct location data,Mbawa,Malawi,-12.1,33.5,-12.1,33.5,"Mbawa, Malawi",MW
501,no lat/lng entered - geocoded location,Mphimbi,Malawi,0.0,0.0,-13.2687204,33.9301963,"Malawi, Malawi",MW
502,correct location data,Ngabu,Malawi,-16.47,34.92,-16.47,34.92,"Ngabu, Malawi",MW
503,no lat/lng entered - geocoded location,Not Identified,Malawi,0.0,0.0,-16.5043189,34.892303763072434,"Not known yet, Nsangwe, Chikwawa, Malawi",MW
504,correct location data,Salima,Malawi,-13.75,34.58,-13.75,34.58,"Salima, Malawi",MW
505,correct location data,Tsangano,Malawi,-15.18,34.62,-15.18,34.62,"Tsangano, Malawi",MW
506,correct location data,Zomba,Malawi,-15.38,35.33,-15.38,35.33,"Zomba, Malawi",MW
507,correct location data,Farako,Mali,10.75,-6.833333,10.75,-6.833333,"Farako, Mali",ML
508,no lat/lng entered - geocoded location,Katibougou,Mali,0.0,0.0,12.5017753,-8.0920452,"Katibougou, Koulikoro, Mali",ML
509,no lat/lng entered - geocoded location,Kolombada,Mali,0.0,0.0,12.69305,-7.0090667,"KOLOMBADA, Koulikoro, Mali",ML
510,"entered (lat, -lng)",Rue Mohamed,Mali,12.0,7.0,12.0,-7.0,"Rue Mohamed, Mali",ML
511,correct location data,Sotuba,Mali,12.666666,-8.45,12.666666,-8.45,"Sotuba, Mali",ML
512,no lat/lng entered - geocoded location,"Acatic, Jalisco",Mexico,0.0,0.0,20.76878345,-102.92039700254298,"Acatic, Jalisco, Mexico",MX
513,no lat/lng entered - geocoded location,"Acayucan, Veracruz",Mexico,0.0,0.0,18.0281048,-95.03593818139205,"Acayucan, 96000, Veracruz, Mexico",MX
514,correct location data,Aculco,Mexico,20.51707,-100.21179,20.51707,-100.21179,"Aculco, Mexico",MX
515,no lat/lng entered - geocoded location,Agua Fria,Mexico,0.0,0.0,20.53396,-97.623345,"Agua Fría, Puebla, Mexico",MX
516,correct location data,Aguascalientes,Mexico,21.85,-102.3,21.85,-102.3,"Aguascalientes, Mexico",MX
517,correct location data,"Ahuacatlan, Nayarit",Mexico,21.03,-104.5,21.03,-104.5,"Ahuacatlan, Nayarit, Mexico",MX
518,correct location data,Almoloya De Juarez,Mexico,19.36856,-99.76049,19.36856,-99.76049,"Almoloya De Juarez, Mexico",MX
519,correct location data,"Ameca, Jal.",Mexico,20.55,-104.05,20.55,-104.05,"Ameca, Jal., Mexico",MX
520,correct location data,"Ameca, Jal. (2)",Mexico,20.55,-104.05,20.55,-104.05,"Ameca, Jal. (2), Mexico",MX
521,correct location data,"Ameca, Jal. (3)",Mexico,20.55,-104.05,20.55,-104.05,"Ameca, Jal. (3), Mexico",MX
522,correct location data,"Amecameca, Mexico",Mexico,19.13,-98.77,19.13,-98.77,"Amecameca, Mexico, Mexico",MX
523,no lat/lng entered - geocoded location,"Apaseo El Guadalupe, Guanajuato",Mexico,0.0,0.0,20.5563477,-100.6388368,"Guadalupe del Monte, 38160, Guanajuato, Mexico",MX
524,no lat/lng entered - geocoded location,Atlacomulco,Mexico,0.0,0.0,19.81591915,-99.86811932469178,"Atlacomulco, Mexico, Mexico",MX
525,no lat/lng entered - geocoded location,"Axochio, San Andres Tuxtla, Veracruz",Mexico,0.0,0.0,18.3714731,-95.2992855,"Axochio, 95730, Veracruz, Mexico",MX
526,no lat/lng entered - geocoded location,"Buenavista Penjamo, Guanajuato",Mexico,0.0,0.0,20.4313763,-101.7241184,"Pénjamo, Guanajuato, Mexico",MX
527,correct location data,"Calera, Zacatecas",Mexico,22.9,-102.65,22.9,-102.65,"Calera, Zacatecas, Mexico",MX
528,no lat/lng entered - geocoded location,"Campeche, Campeche",Mexico,20.67,-90.53,19.3290208,-89.94398204458577,"Campeche, Mexico",MX
529,correct location data,"Candelaria Portezuelo, Puebla",Mexico,19.0,-98.0,19.0,-98.0,"Candelaria Portezuelo, Puebla, Mexico",MX
530,correct location data,"Candelaria Portezuelo, Puebla (2)",Mexico,19.0,-98.0,19.0,-98.0,"Candelaria Portezuelo, Puebla (2), Mexico",MX
531,no lat/lng entered - geocoded location,Cardel,Mexico,0.0,0.0,17.444722,-94.221389,"José Cardel, 96700, Veracruz, Mexico",MX
532,correct location data,"Celaya, Guanajuato",Mexico,20.52,-100.82,20.52,-100.82,"Celaya, Guanajuato, Mexico",MX
533,correct location data,"Celaya, Guanajuato (inifap)",Mexico,20.52,-100.82,20.52,-100.82,"Celaya, Guanajuato (inifap), Mexico",MX
534,correct location data,"Cerib, Tamaulipas",Mexico,25.98,-98.1,25.98,-98.1,"Cerib, Tamaulipas, Mexico",MX
535,no lat/lng entered - geocoded location,"Champoton, Campeche",Mexico,0.0,0.0,19.12975965,-90.45225444832099,"Champotón, Campeche, Mexico",MX
536,correct location data,"Chapingo, Estado De Mexico",Mexico,19.52,-98.88,19.52,-98.88,"Chapingo, Estado De Mexico, Mexico",MX
537,correct location data,Chavinda,Mexico,20.02,-102.45,20.02,-102.45,"Chavinda, Mexico",MX
538,no lat/lng entered - geocoded location,Chiapas,Mexico,0.0,0.0,16.5000001,-92.5000001,"Chiapas, Mexico",MX
539,no lat/lng entered - geocoded location,Chorrerones,Mexico,0.0,0.0,22.5000485,-100.0000375,"Mexico, Mexico",MX
540,correct location data,"Ciudad Anahuac, Nuevo Leon",Mexico,27.23,-100.15,27.23,-100.15,"Ciudad Anahuac, Nuevo Leon, Mexico",MX
541,correct location data,"Ciudad Guzman, Jalisco",Mexico,19.67,-103.5,19.67,-103.5,"Ciudad Guzman, Jalisco, Mexico",MX
542,no lat/lng entered - geocoded location,Ciudad Obregon,Mexico,26.67,-109.42,27.4846619,-109.9337782,"Ciudad Obregón, Sonora, Mexico",MX
543,correct location data,"Coatlinchan, Estado De Mexico",Mexico,19.44972,-98.87133,19.44972,-98.87133,"Coatlinchan, Estado De Mexico, Mexico",MX
544,correct location data,"Cocotitlan, Texcoco",Mexico,19.5238,-98.86764,19.5238,-98.86764,"Cocotitlan, Texcoco, Mexico",MX
545,correct location data,"Colon, Queretaro",Mexico,20.78581,-100.04957,20.78581,-100.04957,"Colon, Queretaro, Mexico",MX
546,no lat/lng entered - geocoded location,Colonia Del Turen,Mexico,0.0,0.0,20.949722,-97.458889,"Colonia México Lindo, 92770, Veracruz, Mexico",MX
547,no lat/lng entered - geocoded location,Coquimatlan,Mexico,0.0,0.0,19.1759779,-103.92391335718723,"Coquimatlán, Colima, Mexico",MX
548,no lat/lng entered - geocoded location,"Corralejo De Hidalgo, Guanajuato",Mexico,0.0,0.0,21.1693183,-100.9366005,"Corralejo, 37800, Colonia Padre Hidalgo, Guanajuato, Mexico",MX
549,no lat/lng entered - geocoded location,Cotaxla,Mexico,0.0,0.0,22.5000485,-100.0000375,"Mexico, Mexico",MX
550,correct location data,Cotaxtla (inifap),Mexico,19.33,-96.67,19.33,-96.67,"Cotaxtla (inifap), Mexico",MX
551,no lat/lng entered - geocoded location,"Coyoltepec, San Andres Tuxtla, Veracruz",Mexico,0.0,0.0,18.338333,-95.308889,"Coyoltepec, 95730, Veracruz, Mexico",MX
552,correct location data,"Cuautitlan, Estado De Mexico",Mexico,19.68,-99.18,19.68,-99.18,"Cuautitlan, Estado De Mexico, Mexico",MX
553,correct location data,Cuendo1,Mexico,19.4033,-99.02141,19.4033,-99.02141,"Cuendo1, Mexico",MX
554,correct location data,"Cuidad Guzman, Jalisco (2)",Mexico,19.67,-103.5,19.67,-103.5,"Cuidad Guzman, Jalisco (2), Mexico",MX
555,correct location data,"Culican, Sinaloa",Mexico,24.8,-107.4,24.8,-107.4,"Culican, Sinaloa, Mexico",MX
556,correct location data,"Delicias, Chihuahua",Mexico,28.18,-105.17,28.18,-105.17,"Delicias, Chihuahua, Mexico",MX
557,correct location data,"Diaz Ordaz, Tamaulipas",Mexico,26.08,-98.3,26.08,-98.3,"Diaz Ordaz, Tamaulipas, Mexico",MX
558,correct location data,"Dolores Enyeje, Ixtla",Mexico,19.55,-99.85,19.55,-99.85,"Dolores Enyeje, Ixtla, Mexico",MX
559,correct location data,"Dolores Hidalgo, Guanajuato",Mexico,21.15,-100.93,21.15,-100.93,"Dolores Hidalgo, Guanajuato, Mexico",MX
560,correct location data,"Durango, Durango",Mexico,24.0,-104.0,24.0,-104.0,"Durango, Durango, Mexico",MX
561,no lat/lng entered - geocoded location,"Edzna, Campeche",Mexico,0.0,0.0,19.5976011,-90.231118911752,"Zona Arqueológica de Edzná, Ramal a Edzná, Ramal a Edzná, Noyaxché, Campeche, Mexico",MX
562,no lat/lng entered - geocoded location,Ejido 1ro De Mayo,Mexico,0.0,0.0,18.657144,-91.8233753,"COL. 1ro DE MAYO, 24100, Campeche, Mexico",MX
563,correct location data,El Batan,Mexico,19.52,-98.87,19.52,-98.87,"El Batan, Mexico",MX
564,correct location data,El Batan (2),Mexico,19.52,-98.87,19.52,-98.87,"El Batan (2), Mexico",MX
565,correct location data,El Batan (3),Mexico,19.5238,-98.86764,19.5238,-98.86764,"El Batan (3), Mexico",MX
566,correct location data,El Molino Zinacantep,Mexico,19.25,-99.83,19.25,-99.83,"El Molino Zinacantep, Mexico",MX
567,correct location data,"El Refugio, San Luis De La Paz, Guanajuato",Mexico,21.29673,-100.54173,21.29673,-100.54173,"El Refugio, San Luis De La Paz, Guanajuato, Mexico",MX
568,no lat/lng entered - geocoded location,"El Zapote, Tonatico",Mexico,0.0,0.0,20.1974325,-97.5439497,"El Zapote, Veracruz, Mexico",MX
569,correct location data,"Gomez Farias, Jalisco",Mexico,19.78,-103.48,19.78,-103.48,"Gomez Farias, Jalisco, Mexico",MX
570,correct location data,Guadalajara,Mexico,20.67,-103.33,20.67,-103.33,"Guadalajara, Mexico",MX
571,no lat/lng entered - geocoded location,"Guadalajara, Jalisco",Mexico,0.0,0.0,20.676143,-103.3469982,"Guadalajara, 44100, Jalisco, Mexico",MX
572,correct location data,Guanajuato,Mexico,21.0,-101.27,21.0,-101.27,"Guanajuato, Mexico",MX
573,correct location data,"Guasave, Sinaloa",Mexico,25.55,-103.5,25.55,-103.5,"Guasave, Sinaloa, Mexico",MX
574,correct location data,"Gunyo, Aculco Estado De Mexico",Mexico,20.12,-99.85,20.12,-99.85,"Gunyo, Aculco Estado De Mexico, Mexico",MX
575,correct location data,Hidalgo,Mexico,20.09592,-98.75336,20.09592,-98.75336,"Hidalgo, Mexico",MX
576,correct location data,Huamantla Tlaxcala,Mexico,19.35,-97.97,19.35,-97.97,"Huamantla Tlaxcala, Mexico",MX
577,no lat/lng entered - geocoded location,"Huejutla De Reyes, Hidalgo",Mexico,0.0,0.0,21.14338025,-98.3883786710258,"Huejutla de Reyes, 43000, Hidalgo, Mexico",MX
578,no lat/lng entered - geocoded location,Huimanguillo,Mexico,0.0,0.0,17.7620967,-93.66344080511583,"Huimanguillo, Tabasco, Mexico",MX
579,no lat/lng entered - geocoded location,"Ignacio De La Llave, Veracruz",Mexico,0.0,0.0,19.333333,-96.666667,"Veracruz, Mexico",MX
580,correct location data,"Iguala, Guerrero",Mexico,18.35,-99.52,18.35,-99.52,"Iguala, Guerrero, Mexico",MX
581,correct location data,"Irapuato, Guanajuato",Mexico,20.73,-101.32,20.73,-101.32,"Irapuato, Guanajuato, Mexico",MX
582,no lat/lng entered - geocoded location,"Isla, Veracruz",Mexico,0.0,0.0,18.12289035,-95.58427533680396,"Isla, Veracruz, Mexico",MX
583,correct location data,"Iturbide, Guanajuato",Mexico,20.99943,-100.38912,20.99943,-100.38912,"Iturbide, Guanajuato, Mexico",MX
584,correct location data,Ixtapan De La Pano,Mexico,19.25,-99.6,19.25,-99.6,"Ixtapan De La Pano, Mexico",MX
585,no lat/lng entered - geocoded location,"Jalisco, Jalisco",Mexico,0.0,0.0,20.3333331,-103.6666671,"Jalisco, Mexico",MX
586,correct location data,Jamay,Mexico,20.3,-102.72,20.3,-102.72,"Jamay, Mexico",MX
587,no lat/lng entered - geocoded location,Jerico Chiapas,Mexico,0.0,0.0,15.5405542,-93.0162318,"Miguel Alemán Valdez (Jericó), Chiapas, Mexico",MX
588,no lat/lng entered - geocoded location,Jesus Maria,Mexico,0.0,0.0,20.64794705,-102.10757376228773,"Jesús María, Jalisco, Mexico",MX
589,correct location data,Jiquipilco,Mexico,19.55724,-99.60694,19.55724,-99.60694,"Jiquipilco, Mexico",MX
590,correct location data,Jocotitlan,Mexico,19.70753,-99.78813,19.70753,-99.78813,"Jocotitlan, Mexico",MX
591,correct location data,Jocotitlan 2,Mexico,19.70753,-99.78813,19.70753,-99.78813,"Jocotitlan 2, Mexico",MX
592,no lat/lng entered - geocoded location,"La Barca, Jalisco",Mexico,0.0,0.0,20.35720795,-102.50327003201096,"La Barca, Jalisco, Mexico",MX
593,no lat/lng entered - geocoded location,"La Cantera, Comonfort, Guanajuato",Mexico,0.0,0.0,21.146273,-101.0027656,"La Cantera, Guanajuato, Mexico",MX
594,no lat/lng entered - geocoded location,"La Cruz De Elota, Sinaloa",Mexico,0.0,0.0,23.9251224,-106.8992029,"Mar de la Plata, 82773, La Cruz, Sinaloa, Mexico",MX
595,no lat/lng entered - geocoded location,"La Huerta, Jalisco",Mexico,0.0,-104.63,19.4822921,-104.6408128,"La Huerta, Jalisco, Mexico",MX
596,correct location data,"La Loma Municipio, Tepatitla, Jalisco",Mexico,20.81646,-102.76122,20.81646,-102.76122,"La Loma Municipio, Tepatitla, Jalisco, Mexico",MX
597,correct location data,"La Piedad, Michoacan",Mexico,20.35,-102.0,20.35,-102.0,"La Piedad, Michoacan, Mexico",MX
598,no lat/lng entered - geocoded location,"La Torrecilla, Tlalixcoyan, Veracruz",Mexico,0.0,0.0,18.728889,-96.143333,"Torrecillas, Veracruz, Mexico",MX
599,correct location data,"Leon, Guanajuato",Mexico,21.12,-101.68,21.12,-101.68,"Leon, Guanajuato, Mexico",MX
600,correct location data,"Los Mochis, Sinaloa",Mexico,25.77,-109.0,25.77,-109.0,"Los Mochis, Sinaloa, Mexico",MX
601,correct location data,"Los Mochis, Sinaloa (2)",Mexico,25.77,-109.0,25.77,-109.0,"Los Mochis, Sinaloa (2), Mexico",MX
602,correct location data,"Malinalco, Mexico",Mexico,18.95,-99.5,18.95,-99.5,"Malinalco, Mexico, Mexico",MX
603,no lat/lng entered - geocoded location,Mata De Agua,Mexico,0.0,0.0,19.028889,-96.502222,"Mata de Agua, 94235, Veracruz, Mexico",MX
604,correct location data,"Mavoro, Estado De Mexico",Mexico,19.25,-99.6,19.25,-99.6,"Mavoro, Estado De Mexico, Mexico",MX
605,correct location data,Metepec,Mexico,19.3,-99.63,19.3,-99.63,"Metepec, Mexico",MX
606,correct location data,"Mixquihuala, Hidalgo",Mexico,20.22999,-99.2098,20.22999,-99.2098,"Mixquihuala, Hidalgo, Mexico",MX
607,correct location data,Montecillo,Mexico,19.5,-98.93,19.5,-98.93,"Montecillo, Mexico",MX
608,no lat/lng entered - geocoded location,Nayarit,Mexico,0.0,0.0,22.0000001,-105.0000001,"Nayarit, Mexico",MX
609,correct location data,"Nextipac, Jalisco",Mexico,20.75,-103.52,20.75,-103.52,"Nextipac, Jalisco, Mexico",MX
610,correct location data,"Nextipac, Jalisco (2)",Mexico,20.75,-103.52,20.75,-103.52,"Nextipac, Jalisco (2), Mexico",MX
611,correct location data,"Ocotitlan, Puebla",Mexico,18.879,-97.72339,18.879,-97.72339,"Ocotitlan, Puebla, Mexico",MX
612,correct location data,Ocozocoautla,Mexico,16.77,-93.37,16.77,-93.37,"Ocozocoautla, Mexico",MX
613,no lat/lng entered - geocoded location,"Ocuituco, Morelos",Mexico,0.0,0.0,18.879111899999998,-98.7772832902208,"Ocuituco, Morelos, Mexico",MX
614,no lat/lng entered - geocoded location,"Ojo De Agua, Santiago Tuxtla, Veracruz",Mexico,0.0,0.0,18.3725,-95.369722,"Ojo de Agua, Veracruz, Mexico",MX
615,no lat/lng entered - geocoded location,"Ojo De Agua, Tonatico",Mexico,0.0,0.0,18.7432956,-99.6127579,"Ojo de Agua, 39230.0, Mexico, Mexico",MX
616,correct location data,"Ojocaliente, Zacatecas",Mexico,22.63,-102.23,22.63,-102.23,"Ojocaliente, Zacatecas, Mexico",MX
617,correct location data,"Pabellon, Aguascalientes",Mexico,22.14615,-102.27533,22.14615,-102.27533,"Pabellon, Aguascalientes, Mexico",MX
618,correct location data,"Pedro Escobedo, Queretaro",Mexico,20.49923,-100.14291,20.49923,-100.14291,"Pedro Escobedo, Queretaro, Mexico",MX
619,no lat/lng entered - geocoded location,"Penjamo, Guanajuato",Mexico,0.0,0.0,20.4313763,-101.7241184,"Pénjamo, Guanajuato, Mexico",MX
620,correct location data,"Poncitlan, Jalisco",Mexico,20.37488,-102.91374,20.37488,-102.91374,"Poncitlan, Jalisco, Mexico",MX
621,correct location data,"Popotes Municipio De Tepatitlan, Jalisco",Mexico,20.82673,-102.75444,20.82673,-102.75444,"Popotes Municipio De Tepatitlan, Jalisco, Mexico",MX
622,correct location data,Poza Rica,Mexico,20.53,-97.43,20.53,-97.43,"Poza Rica, Mexico",MX
623,correct location data,Poza Rica (2),Mexico,20.53,-97.43,20.53,-97.43,"Poza Rica (2), Mexico",MX
624,correct location data,Puebla,Mexico,19.042,-98.21091,19.042,-98.21091,"Puebla, Mexico",MX
625,no lat/lng entered - geocoded location,Puerto Vallarta,Mexico,20.6,-105.25,20.69820775,-105.18152416996546,"Puerto Vallarta, Jalisco, Mexico",MX
626,correct location data,Queretaro,Mexico,20.52,-100.67,20.52,-100.67,"Queretaro, Mexico",MX
627,no lat/lng entered - geocoded location,"Quila, Sinaloa",Mexico,0.0,0.0,24.4244306,-107.2201796,"Quilá, Sinaloa, Mexico",MX
628,correct location data,"Rancheria Hernandez, Puebla",Mexico,18.98,-97.78,18.98,-97.78,"Rancheria Hernandez, Puebla, Mexico",MX
629,no lat/lng entered - geocoded location,"Rincon De Parangueo, Guanajuato",Mexico,0.0,0.0,20.4205322,-101.2537744,"Rincon de Parangueo, 38400, Guanajuato, Mexico",MX
630,correct location data,Rinconada Mazapiltepec,Mexico,18.80752,-98.00903,18.80752,-98.00903,"Rinconada Mazapiltepec, Mexico",MX
631,correct location data,"Rio Bravo, Tamaulipas",Mexico,25.98,-98.1,25.98,-98.1,"Rio Bravo, Tamaulipas, Mexico",MX
632,correct location data,"Roque, Guanajuato",Mexico,19.97,-99.82,19.97,-99.82,"Roque, Guanajuato, Mexico",MX
633,no lat/lng entered - geocoded location,San Andres Tuxtla,Mexico,0.0,0.0,18.4633672,-95.19831533920046,"San Andrés Tuxtla, 95730, Veracruz, Mexico",MX
634,correct location data,San Antonio La Isla Mexico,Mexico,19.16219,-99.56935,19.16219,-99.56935,"San Antonio La Isla Mexico, Mexico",MX
635,correct location data,San Jose De Gracia Michoacan,Mexico,19.98,-103.02,19.98,-103.02,"San Jose De Gracia Michoacan, Mexico",MX
636,correct location data,San Jose Del Valle Nayarit,Mexico,22.47,-105.45,22.47,-105.45,"San Jose Del Valle Nayarit, Mexico",MX
637,correct location data,"San Jose Iturbide, Guanajuato",Mexico,20.98965,-100.41779,20.98965,-100.41779,"San Jose Iturbide, Guanajuato, Mexico",MX
638,no lat/lng entered - geocoded location,San Juan De Abajo,Mexico,0.0,0.0,20.8516734,-100.7785417,"Don Juan Xido de Abajo, Guanajuato, Mexico",MX
639,correct location data,San Juan Del Rio,Mexico,20.38631,-99.99786,20.38631,-99.99786,"San Juan Del Rio, Mexico",MX
640,correct location data,San Juan Zitlaltepec,Mexico,19.77,-99.08,19.77,-99.08,"San Juan Zitlaltepec, Mexico",MX
641,correct location data,"San Luis De La Paz, Guanajuato",Mexico,21.29673,-100.54173,21.29673,-100.54173,"San Luis De La Paz, Guanajuato, Mexico",MX
642,no lat/lng entered - geocoded location,"San Miguel Allende, Guanajuato",Mexico,0.0,0.0,20.9139025,-100.744012,"San Miguel de Allende, Guanajuato, Mexico",MX
643,correct location data,"San Miguel Cuyutlan, Jalisco",Mexico,20.5,-103.5,20.5,-103.5,"San Miguel Cuyutlan, Jalisco, Mexico",MX
644,no lat/lng entered - geocoded location,"San Pedro Lagunillas, Nayarit",Mexico,0.0,0.0,21.16698955,-104.71791325047576,"San Pedro Lagunillas, Nayarit, Mexico",MX
645,correct location data,San Sebastian Teles,Mexico,22.17,-104.32,22.17,-104.32,"San Sebastian Teles, Mexico",MX
646,correct location data,"Santa Lucia, Estado De Mexico",Mexico,19.5,-98.92,19.5,-98.92,"Santa Lucia, Estado De Mexico, Mexico",MX
647,correct location data,Santa Maria Rayon,Mexico,19.14594,-99.58154,19.14594,-99.58154,"Santa Maria Rayon, Mexico",MX
648,correct location data,"Santiado Del Monte, Municipio Villa Victoria",Mexico,19.79659,-99.87722,19.79659,-99.87722,"Santiado Del Monte, Municipio Villa Victoria, Mexico",MX
649,correct location data,"Santiago Ixcuintla, Nayarit",Mexico,21.83,-105.18,21.83,-105.18,"Santiago Ixcuintla, Nayarit, Mexico",MX
650,correct location data,"Silao, Guanajuato",Mexico,20.93,-101.42,20.93,-101.42,"Silao, Guanajuato, Mexico",MX
651,no lat/lng entered - geocoded location,"Tamarindos, Veracruz",Mexico,0.0,0.0,19.043398850000003,-96.49325380452741,"EcoClub Tamarindos, S/N, 94235, Mata de Agua, Veracruz, Mexico",MX
652,no lat/lng entered - geocoded location,Tamaulipas,Mexico,0.0,0.0,23.9891553,-98.7026825,"Tamaulipas, Mexico",MX
653,correct location data,Tapachula,Mexico,14.92,-92.25,14.92,-92.25,"Tapachula, Mexico",MX
654,correct location data,Tejupilco,Mexico,18.92,-100.17,18.92,-100.17,"Tejupilco, Mexico",MX
655,no lat/lng entered - geocoded location,"Tepalcingo, Morelos",Mexico,0.0,0.0,18.56943655,-98.9080883044239,"Tepalcingo, Morelos, Mexico",MX
656,correct location data,"Tepatitlan, Jalisco",Mexico,20.82,-102.73,20.82,-102.73,"Tepatitlan, Jalisco, Mexico",MX
657,no lat/lng entered - geocoded location,Tlacomulco,Mexico,0.0,0.0,20.046667,-98.318889,"Tlacomulco, 43740, Hidalgo, Mexico",MX
658,correct location data,"Tlajomulco, De Zuniga",Mexico,20.47543,-103.44765,20.47543,-103.44765,"Tlajomulco, De Zuniga, Mexico",MX
659,correct location data,"Tlajomulco, Jalisco",Mexico,20.47,-103.77,20.47,-103.77,"Tlajomulco, Jalisco, Mexico",MX
660,correct location data,"Tlajomulco, Jalisco (2)",Mexico,20.47,-103.77,20.47,-103.77,"Tlajomulco, Jalisco (2), Mexico",MX
661,no lat/lng entered - geocoded location,Tlalixcoyan,Mexico,0.0,0.0,18.773168499999997,-96.20588646956678,"Tlalixcoyan, Veracruz, Mexico",MX
662,no lat/lng entered - geocoded location,Tlaltizapan,Mexico,0.0,0.0,18.7045227,-99.14191731588632,"Tlaltizapán de Zapata, Morelos, Mexico",MX
663,correct location data,Tlaltizapan (2),Mexico,18.68,-99.13,18.68,-99.13,"Tlaltizapan (2), Mexico",MX
664,correct location data,Tlaltizapan (3),Mexico,18.68,-99.13,18.68,-99.13,"Tlaltizapan (3), Mexico",MX
665,correct location data,Tlaxcoapan,Mexico,20.09523,-99.21774,20.09523,-99.21774,"Tlaxcoapan, Mexico",MX
666,correct location data,Toluca,Mexico,19.28,-99.65,19.28,-99.65,"Toluca, Mexico",MX
667,correct location data,"Tototlan, Jalisco",Mexico,20.55,-102.8,20.55,-102.8,"Tototlan, Jalisco, Mexico",MX
668,correct location data,"Uach, Campo Experimental",Mexico,19.48933,-98.89365,19.48933,-98.89365,"Uach, Campo Experimental, Mexico",MX
669,correct location data,"Usmajac Municipio De Sayula, Jalisco",Mexico,19.87373,-103.53953,19.87373,-103.53953,"Usmajac Municipio De Sayula, Jalisco, Mexico",MX
670,no lat/lng entered - geocoded location,Uxmal,Mexico,0.0,0.0,20.35930815,-89.77124282998557,"Uxmal, Carretera Umán-Chencollí, Carretera Umán-Chencollí, San Isidro, Yucatán, Mexico",MX
671,no lat/lng entered - geocoded location,"Valle De Bravo, Estado De Mexico",Mexico,0.0,0.0,19.1849101,-100.15126325880992,"Valle de Bravo, Mexico, Mexico",MX
672,no lat/lng entered - geocoded location,Valle De Culiacan,Mexico,0.0,0.0,24.7547946,-107.4580466,"Valle de Culiacan, 80148, Culiacán, Sinaloa, Mexico",MX
673,correct location data,Valle De Mexico,Mexico,23.86575,-102.46399,23.86575,-102.46399,"Valle De Mexico, Mexico",MX
674,no lat/lng entered - geocoded location,"Valle Del Fuerte, Sinaloa",Mexico,0.0,0.0,25.6859255,-109.07865204412306,"Federal del Valle del Fuerte International Airport, E.C. (Los Mochis - Topolobampo) - Los Paredones, 81250, E.C. (Los Mochis - Topolobampo) - Los Paredones, Los Mochis, Sinaloa, Mexico",MX
675,correct location data,Valle Del Yaqui,Mexico,27.38,-110.13,27.38,-110.13,"Valle Del Yaqui, Mexico",MX
676,correct location data,"Valparaiso, Zacatecas",Mexico,22.77163,-103.57086,22.77163,-103.57086,"Valparaiso, Zacatecas, Mexico",MX
677,no lat/lng entered - geocoded location,Veracrucito,Mexico,0.0,0.0,18.851667,-97.796111,"Veracrucito, 75610, Puebla, Mexico",MX
678,correct location data,Veracruz,Mexico,19.15,-96.12,19.15,-96.12,"Veracruz, Mexico",MX
679,correct location data,"Villa Flores, Chiapas",Mexico,16.5,-93.5,16.5,-93.5,"Villa Flores, Chiapas, Mexico",MX
680,no lat/lng entered - geocoded location,"Villa Hidalgo, Nayarit",Mexico,0.0,0.0,21.7418519,-105.2303018,"Villa Hidalgo, Nayarit, Mexico",MX
681,no lat/lng entered - geocoded location,"Villa Verde, Guanajuato",Mexico,0.0,0.0,20.5519216,-100.8345103,"Villa Verde, 38027, Celaya, Guanajuato, Mexico",MX
682,correct location data,"Villanueva, Zacatecas",Mexico,22.35,-102.88,22.35,-102.88,"Villanueva, Zacatecas, Mexico",MX
683,correct location data,"Xalisco, Nayarit",Mexico,21.43,-104.8,21.43,-104.8,"Xalisco, Nayarit, Mexico",MX
684,no lat/lng entered - geocoded location,"Xalostoc, Morelos",Mexico,0.0,0.0,19.5389294,-99.0777325,"San Pedro Xalostoc, 55520, San Andrés de la Cañada, Mexico, Mexico",MX
685,no lat/lng entered - geocoded location,"Xocoyucan, Tlaxcala",Mexico,0.0,0.0,19.307222,-98.372778,"San Diego Xocoyucan, 4475, Tlaxcala, Mexico",MX
686,correct location data,"Zotoluca, Hidalgo",Mexico,19.58688,-98.56805,19.58688,-98.56805,"Zotoluca, Hidalgo, Mexico",MX
687,correct location data,Zumpango,Mexico,19.794,-99.10028,19.794,-99.10028,"Zumpango, Mexico",MX
688,correct location data,El Menzeh,Morocco,33.52,-5.17,33.52,-5.17,"El Menzeh, Morocco",MA
689,no lat/lng entered - geocoded location,Khemiszemamra,Morocco,0.0,0.0,31.1728192,-7.3366043,"Morocco, Morocco",MA
690,correct location data,Angonia Tete,Mozambique,-16.16,33.59,-16.16,33.59,"Angonia Tete, Mozambique",MZ
691,no lat/lng entered - geocoded location,Angora,Mozambique,0.0,0.0,-19.302233,34.9144977,"Mozambique, Mozambique",MZ
692,correct location data,Chokwe,Mozambique,-24.53,33.0,-24.53,33.0,"Chokwe, Mozambique",MZ
693,correct location data,Lichinga,Mozambique,-13.3,35.23,-13.3,35.23,"Lichinga, Mozambique",MZ
694,correct location data,Mapupulo,Mozambique,-13.24,38.87,-13.24,38.87,"Mapupulo, Mozambique",MZ
695,correct location data,Maputo,Mozambique,-25.9689,32.5696,-25.9689,32.5696,"Maputo, Mozambique",MZ
696,correct location data,Mocuba,Mozambique,-16.84,38.26,-16.84,38.26,"Mocuba, Mozambique",MZ
697,correct location data,Morrumbala-zambezia,Mozambique,-17.33,35.58,-17.33,35.58,"Morrumbala-zambezia, Mozambique",MZ
698,no lat/lng entered - geocoded location,Mozambique,Mozambique,0.0,0.0,-19.302233,34.9144977,"Mozambique, Mozambique",MZ
699,correct location data,Mutarara,Mozambique,-17.45,35.067,-17.45,35.067,"Mutarara, Mozambique",MZ
700,correct location data,Namialo,Mozambique,-14.91,40.0,-14.91,40.0,"Namialo, Mozambique",MZ
701,correct location data,Nampula,Mozambique,-15.1,39.28,-15.1,39.28,"Nampula, Mozambique",MZ
702,correct location data,Nhacoongo,Mozambique,-24.49,34.75,-24.49,34.75,"Nhacoongo, Mozambique",MZ
703,no lat/lng entered - geocoded location,Semol,Mozambique,0.0,0.0,-19.302233,34.9144977,"Mozambique, Mozambique",MZ
704,correct location data,Sussundenga,Mozambique,-19.33,33.22,-19.33,33.22,"Sussundenga, Mozambique",MZ
705,correct location data,Umbeluzi,Mozambique,-26.0544,32.3635,-26.0544,32.3635,"Umbeluzi, Mozambique",MZ
706,no lat/lng entered - geocoded location,Ussudenga,Mozambique,0.0,0.0,-19.302233,34.9144977,"Mozambique, Mozambique",MZ
707,no lat/lng entered - geocoded location,Naung Mon,Myanmar,0.0,0.0,16.9786252,97.341379,"Naunggala, Mon, Myanmar",MM
708,no lat/lng entered - geocoded location,Sea,Myanmar,0.0,0.0,22.6405969,97.2675367,"Waterfall (wet season only)(still a fun trek anyway), Hsipaw Township, Shan State, Myanmar",MM
709,no lat/lng entered - geocoded location,Taryaw,Myanmar,0.0,0.0,17.1750495,95.9999652,"Myanmar, Myanmar",MM
710,no lat/lng entered - geocoded location,Tatkan,Myanmar,0.0,0.0,17.1750495,95.9999652,"Myanmar, Myanmar",MM
711,no lat/lng entered - geocoded location,Tatkone,Myanmar,0.0,0.0,20.1288844,96.2019535,"Tatkon Township, 15011, Naypyitaw, Myanmar",MM
712,"entered (-lng, -lat)",Mashare,Namibia,-17.88,20.22,-20.22,17.88,"Mashare, Namibia",NA
713,no lat/lng entered - geocoded location,Mitkomst Research Station,Namibia,0.0,0.0,-23.3421727,16.2250963,"Gamsberg Research Station, Khomas, Namibia",NA
714,correct location data,Runda,Namibia,-17.96,19.72,-17.96,19.72,"Runda, Namibia",NA
715,no lat/lng entered - geocoded location,Hardinath,Nepal,0.0,0.0,28.1083929,84.0917139,"Nepal, Nepal",NP
716,no lat/lng entered - geocoded location,Kabre,Nepal,0.0,0.0,28.3634261,83.9751363,"Kabre, Western Development Region, Nepal",NP
717,correct location data,Khumaltar,Nepal,27.67,85.33,27.67,85.33,"Khumaltar, Nepal",NP
718,no lat/lng entered - geocoded location,Lumle,Nepal,0.0,0.0,28.2992518,83.8023028,"Lumle, Western Development Region, Nepal",NP
719,no lat/lng entered - geocoded location,Pakhribas,Nepal,0.0,0.0,27.067448149999997,87.25030271671474,"Pakhribas, Eastern Development Region, Nepal",NP
720,correct location data,Parinanipur (p.a.s.),Nepal,27.07,84.97,27.07,84.97,"Parinanipur (p.a.s.), Nepal",NP
721,no lat/lng entered - geocoded location,Parwanipur,Nepal,0.0,0.0,27.113407950000003,85.73390863527482,"Parwanipur, 45800, Central Development Region, Nepal",NP
722,correct location data,Rampur,Nepal,27.5,85.42,27.5,85.42,"Rampur, Nepal",NP
723,correct location data,Surkhet,Nepal,28.5,81.8,28.5,81.8,"Surkhet, Nepal",NP
724,no lat/lng entered - geocoded location,Campos Azules,Nicaragua,0.0,0.0,12.0120715,-83.7624301,"Campos Azules, Calle Cabezas, 81000, Calle Cabezas, Bluefields, South Atlantic Autonomous Region, Nicaragua",NI
725,no lat/lng entered - geocoded location,"Campos Azules, Masatepe",Nicaragua,0.0,0.0,12.0120715,-83.7624301,"Campos Azules, Calle Cabezas, 81000, Calle Cabezas, Bluefields, South Atlantic Autonomous Region, Nicaragua",NI
726,no lat/lng entered - geocoded location,Carazo,Nicaragua,0.0,0.0,11.6635659,-86.3090376,"Carazo, Nicaragua",NI
727,correct location data,Chinandega,Nicaragua,12.63,-87.13,12.63,-87.13,"Chinandega, Nicaragua",NI
728,no lat/lng entered - geocoded location,Chontales,Nicaragua,0.0,0.0,11.8915422,-85.1013926,"Chontales, Nicaragua",NI
729,no lat/lng entered - geocoded location,"Chontales, Tamboral Sur",Nicaragua,0.0,0.0,12.0951184,-85.3609273,"13va Calle SurOeste, 55000, Juigalpa, Chontales, Nicaragua",NI
730,no lat/lng entered - geocoded location,"Condega, Esteli",Nicaragua,0.0,0.0,13.2712685,-86.363163,"Estelí-Condega, 32100, Estelí, Nicaragua",NI
731,no lat/lng entered - geocoded location,"El Areno, El Rama",Nicaragua,0.0,0.0,12.0131138,-84.543185,"Comarca El Areno, 82400, South Atlantic Autonomous Region, Nicaragua",NI
732,no lat/lng entered - geocoded location,"El Jicaro, Nueva Segovia",Nicaragua,0.0,0.0,13.5701676,-86.0196906,"Río El Jícaro, 38700, Nueva Segovia, Nicaragua",NI
733,no lat/lng entered - geocoded location,"El Pellizco, Chinandega",Nicaragua,0.0,0.0,12.8647263,-87.4757338,"El Calanchin, 26200, Chinandega, Nicaragua",NI
734,no lat/lng entered - geocoded location,Jalapa,Nicaragua,0.0,0.0,13.9192848,-86.1250346,"Jalapa, 39200, Nueva Segovia, Nicaragua",NI
735,no lat/lng entered - geocoded location,La Dal═a,Nicaragua,0.0,0.0,13.1673341,-85.6764429,"Via de acceso a Finca la fuente, 62700, Wasake, Matagalpa (Departemento), Nicaragua",NI
736,no lat/lng entered - geocoded location,La Presa,Nicaragua,0.0,0.0,13.1341173,-86.0366264,"Presa, 65000, La Ermita, Jinotega (Departamento), Nicaragua",NI
737,no lat/lng entered - geocoded location,"La Trinidad, Esteli",Nicaragua,0.0,0.0,12.9630934,-86.2679135,"Río La Trinidad, 32500, Estelí, Nicaragua",NI
738,no lat/lng entered - geocoded location,Las Cruces Carazo,Nicaragua,0.0,0.0,12.6374994,-86.2714557,"Quebrada Las Cruces, 62800, Managua, Nicaragua",NI
739,no lat/lng entered - geocoded location,"Las Piedras,nueva Segovia",Nicaragua,0.0,0.0,13.7235007,-86.482923,"Cerro Piedras Gordas, 38200, Nueva Segovia, Nicaragua",NI
740,no lat/lng entered - geocoded location,Llano Redondo,Nicaragua,0.0,0.0,12.8064933,-86.0142436,"Potrero Redondo, 62200, Matagalpa (Departemento), Nicaragua",NI
741,correct location data,Managua,Nicaragua,13.12,-86.18,13.12,-86.18,"Managua, Nicaragua",NI
742,no lat/lng entered - geocoded location,Mazatepec,Nicaragua,0.0,0.0,12.3724928,-84.8700308,"Nicaragua, Nicaragua",NI
743,no lat/lng entered - geocoded location,"Melchorita, San Carlos",Nicaragua,0.0,0.0,11.8137205,-86.4869739,"San Carlos, 16700, Managua, Nicaragua",NI
744,no lat/lng entered - geocoded location,"Nindiri, Mazaya",Nicaragua,0.0,0.0,12.0538656,-86.1520352018148,"Nindirí (Municipio), 42200, Masaya, Nicaragua",NI
745,no lat/lng entered - geocoded location,Paz De Carazo,Nicaragua,0.0,0.0,11.8226879,-86.1278901,"La Paz de Carazo, 46500, Carazo, Nicaragua",NI
746,no lat/lng entered - geocoded location,Pueblo Nuevo,Nicaragua,0.0,0.0,13.3804064,-86.4383255,"Río Pueblo Nuevo, 32200, Estelí, Nicaragua",NI
747,no lat/lng entered - geocoded location,San Bartolo,Nicaragua,0.0,0.0,13.5337539,-85.9261882,"San Bartolo, 38700, Nueva Segovia, Nicaragua",NI
748,no lat/lng entered - geocoded location,"San Benito, Chinandega",Nicaragua,0.0,0.0,12.3089404,-86.0543097,"San Benito, 15100, Managua, Nicaragua",NI
749,correct location data,San Cristobal,Nicaragua,12.13,-86.18,12.13,-86.18,"San Cristobal, Nicaragua",NI
750,no lat/lng entered - geocoded location,"Santa Cruz, Esteli",Nicaragua,0.0,0.0,13.017159,-86.3113292,"Valle Santa Cruz, 35000, Estelí, Nicaragua",NI
751,no lat/lng entered - geocoded location,"Santa Juana, Nindiri",Nicaragua,0.0,0.0,12.0342866,-86.237774,"Santa Juana, 10000 (CODIGO MAESTRO), Managua, Nicaragua",NI
752,correct location data,Santa Rosa,Nicaragua,12.13,-86.18,12.13,-86.18,"Santa Rosa, Nicaragua",NI
753,no lat/lng entered - geocoded location,Baganda,Nigeria,0.0,0.0,9.6000359,7.9999721,"Nigeria, Nigeria",NG
754,correct location data,Ibadan,Nigeria,7.38,3.9,7.38,3.9,"Ibadan, Nigeria",NG
755,correct location data,Ikenne,Nigeria,6.333333,8.7,6.333333,8.7,"Ikenne, Nigeria",NG
756,correct location data,Jos Nig,Nigeria,9.87,8.9,9.87,8.9,"Jos Nig, Nigeria",NG
757,correct location data,Layin Taki,Nigeria,8.3324,6.1577,8.3324,6.1577,"Layin Taki, Nigeria",NG
758,correct location data,Mokwa,Nigeria,9.3,5.07,9.3,5.07,"Mokwa, Nigeria",NG
759,correct location data,Mokwa (2),Nigeria,5.066666,7.066666,5.066666,7.066666,"Mokwa (2), Nigeria",NG
760,correct location data,Samaru,Nigeria,11.183333,7.583333,11.183333,7.583333,"Samaru, Nigeria",NG
761,no lat/lng entered - geocoded location,Saminaka Nig,Nigeria,0.0,0.0,10.4110334,8.669981111225605,"Saminaka, Kaduna, Nigeria",NG
762,no lat/lng entered - geocoded location,Temti Jos,Nigeria,0.0,0.0,9.9175125,8.8979401,"Jos, 930214, Plateau, Nigeria",NG
763,correct location data,Tiga,Nigeria,11.5833,8.5,11.5833,8.5,"Tiga, Nigeria",NG
764,correct location data,Turunku,Nigeria,10.8167,7.7,10.8167,7.7,"Turunku, Nigeria",NG
765,correct location data,Zaria,Nigeria,11.12,7.72,11.12,7.72,"Zaria, Nigeria",NG
766,no lat/lng entered - geocoded location,"Ari, D,i. Kham",Pakistan,0.0,0.0,24.8265123,67.1014782,"Bayer Pakistan Head office, 75500, Karachi, Sindh, Pakistan",PK
767,correct location data,Dadu,Pakistan,26.7,67.8,26.7,67.8,"Dadu, Pakistan",PK
768,correct location data,Faisalabad,Pakistan,30.58,72.93,30.58,72.93,"Faisalabad, Pakistan",PK
769,correct location data,Islamabad,Pakistan,33.5,72.75,33.5,72.75,"Islamabad, Pakistan",PK
770,correct location data,Pirsabak,Pakistan,34.0,72.83,34.0,72.83,"Pirsabak, Pakistan",PK
771,correct location data,Yousafwala,Pakistan,31.0,74.0,31.0,74.0,"Yousafwala, Pakistan",PK
772,no lat/lng entered - geocoded location,Azuer,Panama,0.0,0.0,7.9656156,-80.43680914654468,"Hotel Azuero Plaza, Chitré, Provincia de Herrera, Panama",PA
773,correct location data,Ceiachi,Panama,8.38,-82.33,8.38,-82.33,"Ceiachi, Panama",PA
774,correct location data,Chiriqui,Panama,8.38,-82.33,8.38,-82.33,"Chiriqui, Panama",PA
775,correct location data,El Ejido,Panama,7.93,-80.38,7.93,-80.38,"El Ejido, Panama",PA
776,correct location data,Guarare,Panama,7.83,-80.33,7.83,-80.33,"Guarare, Panama",PA
777,no lat/lng entered - geocoded location,Parita,Panama,8.13,-80.4,9.0946994,-79.4028143,"Calle Parita, Altos de Tocumen, Provincia de Panamá, Panama",PA
778,correct location data,Rio Hato,Panama,8.35,-80.17,8.35,-80.17,"Rio Hato, Panama",PA
779,correct location data,Caacupe,Paraguay,-25.4,-57.1,-25.4,-57.1,"Caacupe, Paraguay",PY
780,no lat/lng entered - geocoded location,Capitan Miranda,Paraguay,0.0,0.0,-27.2196484,-55.8011417,"Capitán Miranda, Itapúa, Paraguay",PY
781,correct location data,Capitan Miranda (2),Paraguay,-27.28,-55.82,-27.28,-55.82,"Capitan Miranda (2), Paraguay",PY
782,correct location data,Chore (d. S. Pedro),Paraguay,-24.17,-56.62,-24.17,-56.62,"Chore (d. S. Pedro), Paraguay",PY
783,no lat/lng entered - geocoded location,San Juan Bautista,Paraguay,0.0,0.0,-26.6690511,-57.1457939,"San Juan Bautista, Misiones, Paraguay",PY
784,correct location data,Tomas Romero Pereira,Paraguay,-26.45,-55.27,-26.45,-55.27,"Tomas Romero Pereira, Paraguay",PY
785,no lat/lng entered - geocoded location,Yjhovy,Paraguay,0.0,0.0,-23.3165935,-58.1693445,"Paraguay, Paraguay",PY
786,no lat/lng entered - geocoded location,Ascope,Peru,0.0,0.0,-7.6871281,-79.1720231,"Province of Ascope, Ascope, La Libertad, Peru",PE
787,no lat/lng entered - geocoded location,Aucaloma,Peru,0.0,0.0,-6.8699697,-75.0458515,"Peru, Peru",PE
788,no lat/lng entered - geocoded location,E.e. Pucallpa,Peru,0.0,0.0,-8.38665005,-74.55998706947082,"Embotelladora Pucallpa, 250105, Yarinacocha, Ucayali, Peru",PE
789,correct location data,El Porvenir,Peru,-6.52,-76.35,-6.52,-76.35,"El Porvenir, Peru",PE
790,no lat/lng entered - geocoded location,Huaral,Peru,0.0,0.0,-11.4954877,-77.2071394,"Huaral, Lima, Peru",PE
791,no lat/lng entered - geocoded location,Humay - Pisco,Peru,0.0,0.0,-13.7225359,-75.8866165,"Humay, 11601, Ica, Peru",PE
792,correct location data,Iquitos,Peru,-3.75,-73.25,-3.75,-73.25,"Iquitos, Peru",PE
793,no lat/lng entered - geocoded location,Juan Guerra,Peru,0.0,0.0,-6.5832708,-76.3299295,"Juan Guerra, San Martín, Peru",PE
794,no lat/lng entered - geocoded location,La Vi╤a-jayanca-lambayeque,Peru,0.0,0.0,-6.4036672,-79.8252381,"Vista Alegre, Ruta 1b, 14000, Ruta 1b, Jayanca, Lambayeque, Peru",PE
795,no lat/lng entered - geocoded location,Lambayeque,Peru,0.0,0.0,-6.333333,-80.0,"Lambayeque, Peru",PE
796,no lat/lng entered - geocoded location,Lima,Peru,0.0,0.0,-12.0621065,-77.0365256,"Lima, Lima, Peru",PE
797,no lat/lng entered - geocoded location,Montupe 99,Peru,0.0,0.0,-6.2769016,-79.748424,"Río Motupe, 14000, Motupe, Lambayeque, Peru",PE
798,no lat/lng entered - geocoded location,Muy Finca Mochumi Lambayeque,Peru,0.0,0.0,-6.612434,-79.8946013,"Institución Educativa 10138 Augusto Castillo Muro Sime, Motupe, 14000, Motupe, Mochumí, Lambayeque, Peru",PE
799,no lat/lng entered - geocoded location,Pachacamac,Peru,0.0,0.0,-12.3019444,-76.9022222,"Pachacámac, 15842, Lurín, Lima, Peru",PE
800,no lat/lng entered - geocoded location,Peru,Peru,0.0,0.0,-6.8699697,-75.0458515,"Peru, Peru",PE
801,no lat/lng entered - geocoded location,Pucallpa,Peru,0.0,0.0,-8.3820737,-74.5387507,"Pucallpa, 250105, Ucayali, Peru",PE
802,no lat/lng entered - geocoded location,"Pucallpa, San Fernando, Sa",Peru,0.0,0.0,-14.0908608,-72.4693601,"San Fernando, Apurímac, Peru",PE
803,no lat/lng entered - geocoded location,Rioja,Peru,0.0,0.0,-6.0,-77.416667,"Province of Rioja, Nueva Cajamarca, San Martín, Peru",PE
804,no lat/lng entered - geocoded location,"Rioja, San Fernando, Sa",Peru,0.0,0.0,-5.9029585,-77.2706361,"San Fernando, San Martín, Peru",PE
805,no lat/lng entered - geocoded location,Victoria 99,Peru,0.0,0.0,-12.070200849999999,-77.0298013,"Primax, 999, Avenida Iquitos, LIMA 13, Avenida Iquitos, La Victoria, Lima, Peru",PE
806,no lat/lng entered - geocoded location,Viru La Libertad,Peru,0.0,0.0,-8.4834983,-78.6713996,"Province of Virú, Chao, La Libertad, Peru",PE
807,no lat/lng entered - geocoded location,Vista Florida,Peru,0.0,0.0,-4.8781674,-80.990203,"Vista Florida, 20701, Piura, Peru",PE
808,no lat/lng entered - geocoded location,Vista Florida Chiclayo,Peru,0.0,0.0,-6.7631677,-79.8583674,"Vista Florida, 5174, Chiclayo, Lambayeque, Peru",PE
809,no lat/lng entered - geocoded location,Vista Florida Chiclayo (2),Peru,0.0,0.0,-4.8781674,-80.990203,"Vista Florida, 20701, Piura, Peru",PE
810,no lat/lng entered - geocoded location,Vista Florida Chiclayo (3),Peru,0.0,0.0,-6.7631677,-79.8583674,"Vista Florida, 5174, Chiclayo, Lambayeque, Peru",PE
811,no lat/lng entered - geocoded location,Yurimagua,Peru,0.0,0.0,-5.8994825,-76.3906998,"Nuevo Yurimaguas, 16401, Loreto, Peru",PE
812,no lat/lng entered - geocoded location,Baybay,Philippines,0.0,0.0,11.1912997,125.0218763,"Baybay, 6500, Leyte, Philippines",PH
813,correct location data,"Cabuyao, Laguna",Philippines,14.17,121.33,14.17,121.33,"Cabuyao, Laguna, Philippines",PH
814,correct location data,Cagayan Valley,Philippines,8.48,124.65,8.48,124.65,"Cagayan Valley, Philippines",PH
815,no lat/lng entered - geocoded location,Ipb Experiment Station,Philippines,0.0,0.0,9.78206895,118.737796789149,"Palawan Agricultural Experiment Station, 5300, Tagburos, Palawan, Philippines",PH
816,no lat/lng entered - geocoded location,Kabacan,Philippines,0.0,0.0,7.1082671,124.8232975,"Kabacan, Cotabato, Philippines",PH
817,no lat/lng entered - geocoded location,"Kabacan, Cotabato (2)",Philippines,0.0,0.0,7.1417611,125.0534924,"Kabacan Bridge 2, President Roxas, Cotabato, Philippines",PH
818,correct location data,Katangawan,Philippines,6.17,125.0,6.17,125.0,"Katangawan, Philippines",PH
819,no lat/lng entered - geocoded location,"San Felipe, Ilagan, Isabela.",Philippines,0.0,0.0,8.02297175,125.99278624466555,"Dalumpines, Felipe, NRJ Sta. Isabel-Tapaz Road, 8512, NRJ Sta. Isabel-Tapaz Road, Purok 1 Tapaz, Agusan del Sur, Philippines",PH
820,correct location data,Visca,Philippines,10.73,124.8,10.73,124.8,"Visca, Philippines",PH
821,correct location data,Rubona,Rwanda,-2.48,29.77,-2.48,29.77,"Rubona, Rwanda",RW
822,correct location data,Nioro,Senegal,13.67,-15.77,13.67,-15.77,"Nioro, Senegal",SN
823,correct location data,Barberton,South Africa,-25.79,31.06,-25.79,31.06,"Barberton, South Africa",ZA
824,no lat/lng entered - geocoded location,Burgershall,South Africa,0.0,0.0,-28.8166236,24.991639,"South Africa, South Africa",ZA
825,correct location data,Delmas,South Africa,-26.15,28.68,-26.15,28.68,"Delmas, South Africa",ZA
826,no lat/lng entered - geocoded location,Friedenheim Valley,South Africa,0.0,0.0,-25.4489113,30.9993523,"Friedenheim, 1201, Mbombela, Mpumalanga, South Africa",ZA
827,no lat/lng entered - geocoded location,Linkseed,South Africa,0.0,0.0,-28.8166236,24.991639,"South Africa, South Africa",ZA
828,no lat/lng entered - geocoded location,Mpumalanga,South Africa,0.0,0.0,-26.276849,30.1500153,"Mpumalanga, South Africa",ZA
829,correct location data,Nelspruit Mpumalanga,South Africa,-25.47,30.97,-25.47,30.97,"Nelspruit Mpumalanga, South Africa",ZA
830,no lat/lng entered - geocoded location,North West Province,South Africa,0.0,0.0,-25.7965065,25.62683721076813,"Joint Tactical Headquarters North-West Province, 2770, Mahikeng Local Municipality, North West, South Africa",ZA
831,correct location data,"Pannar, Graytown",South Africa,-29.07,30.58,-29.07,30.58,"Pannar, Graytown, South Africa",ZA
832,no lat/lng entered - geocoded location,Petit,South Africa,0.0,0.0,-26.1019444,28.3708333,"Petit, Gauteng, South Africa",ZA
833,no lat/lng entered - geocoded location,Tshiombo,South Africa,0.0,0.0,-22.8086111,30.4786111,"Tshiombo, 0950, Thulamela Local Municipality, Limpopo, South Africa",ZA
834,correct location data,Viljoonskroon,South Africa,-27.2,26.9,-27.2,26.9,"Viljoonskroon, South Africa",ZA
835,correct location data,Betlehem,South Africa Rep.,-28.25,28.33,-28.25,28.33,"Betlehem, South Africa Rep.",ZA
836,correct location data,Cedara,South Africa Rep.,-29.53,30.28,-29.53,30.28,"Cedara, South Africa Rep.",ZA
837,correct location data,Ezolimo,South Africa Rep.,-25.2,31.2,-25.2,31.2,"Ezolimo, South Africa Rep.",ZA
838,correct location data,Friedenhei,South Africa Rep.,-25.47,30.97,-25.47,30.97,"Friedenhei, South Africa Rep.",ZA
839,correct location data,Greytown,South Africa Rep.,-29.02,30.6,-29.02,30.6,"Greytown, South Africa Rep.",ZA
840,correct location data,Greytown (2),South Africa Rep.,-29.07,30.58,-29.07,30.58,"Greytown (2), South Africa Rep.",ZA
841,correct location data,Lwamongo,South Africa Rep.,-23.03,30.33,-23.03,30.33,"Lwamongo, South Africa Rep.",ZA
842,correct location data,Nelspruit,South Africa Rep.,-25.47,30.97,-25.47,30.97,"Nelspruit, South Africa Rep.",ZA
843,correct location data,Potchefstroom,South Africa,-26.67,27.07,-26.67,27.07,"Potchefstroom, South Africa",ZA
844,correct location data,Setlagole,South Africa Rep.,-26.28,25.12,-26.28,25.12,"Setlagole, South Africa Rep.",ZA
845,correct location data,Viljoenskroon,South Africa Rep.,-27.17,26.92,-27.17,26.92,"Viljoenskroon, South Africa Rep.",ZA
846,correct location data,Gezira,Sudan,14.4,33.48,14.4,33.48,"Gezira, Sudan",SD
847,correct location data,Wad Medani,Sudan,14.4,32.833333,14.4,32.833333,"Wad Medani, Sudan",SD
848,correct location data,Big-bend,Swaziland,-26.82,31.93,-26.82,31.93,"Big-bend, Swaziland",SZ
849,correct location data,Luve,Swaziland,-26.281,31.505,-26.281,31.505,"Luve, Swaziland",SZ
850,correct location data,Malkerns,Swaziland,-26.553,31.165,-26.553,31.165,"Malkerns, Swaziland",SZ
851,correct location data,Mangcongo,Swaziland,-26.57,30.85,-26.57,30.85,"Mangcongo, Swaziland",SZ
852,correct location data,Nhlangano,Swaziland,-27.11,31.216,-27.11,31.216,"Nhlangano, Swaziland",SZ
853,no lat/lng entered - geocoded location,Shewula,Swaziland,0.0,0.0,-26.1415941,32.0397707,"Shewula Mountaincamp, Shwula-Mbuluzi trail, Shwula-Mbuluzi trail, Lubombo, Swaziland",SZ
854,no lat/lng entered - geocoded location,Swaziland,Swaziland,0.0,0.0,-26.2950105,31.1398305,"Diplomat Swaziland Lane, H100, Mbabane, Hhohho, Swaziland",SZ
855,no lat/lng entered - geocoded location,Deir Al Zoor,Syria,0.0,0.0,35.3333335,40.1499999,"Deir ez-Zor, Deir ez-Zor, Syria",SY
856,no lat/lng entered - geocoded location,Raqqa,Syria,0.0,0.0,35.4782468,38.168005,"Salamiyah - Raqqa, Hama, Syria",SY
857,correct location data,Po-tzu-chia-i,Taiwan,23.5,120.23,23.5,120.23,"Po-tzu-chia-i, Taiwan",TW
858,correct location data,Afsf-arusha,Tanzania,-3.3658,36.6745,-3.3658,36.6745,"Afsf-arusha, Tanzania",TZ
859,correct location data,Arusha Tan,Tanzania,-3.36,36.67,-3.36,36.67,"Arusha Tan, Tanzania",TZ
860,correct location data,Cholima,Tanzania,-7.43,37.7,-7.43,37.7,"Cholima, Tanzania",TZ
861,correct location data,Dabaga Uyole,Tanzania,-8.83,34.83,-8.83,34.83,"Dabaga Uyole, Tanzania",TZ
862,correct location data,Dakawa,Tanzania,-7.43,37.7,-7.43,37.7,"Dakawa, Tanzania",TZ
863,correct location data,Ilonga,Tanzania,-6.77,37.03,-6.77,37.03,"Ilonga, Tanzania",TZ
864,correct location data,Inyala,Tanzania,-8.867,33.633,-8.867,33.633,"Inyala, Tanzania",TZ
865,correct location data,Katrin,Tanzania,-8.133,36.683,-8.133,36.683,"Katrin, Tanzania",TZ
866,correct location data,Katrin1,Tanzania,-8.13,36.68,-8.13,36.68,"Katrin1, Tanzania",TZ
867,correct location data,Katrin2,Tanzania,-8.13,36.68,-8.13,36.68,"Katrin2, Tanzania",TZ
868,correct location data,Katrin-ifakara,Tanzania,-8.13,36.68,-8.13,36.68,"Katrin-ifakara, Tanzania",TZ
869,no lat/lng entered - geocoded location,Lambo,Tanzania,-3.23,37.88,-3.2895184000000004,37.22804788645867,"Lambo Estate, 938, Nshara, Kilimanjaro, Tanzania",TZ
870,correct location data,Maruku,Tanzania,-1.338,32.786,-1.338,32.786,"Maruku, Tanzania",TZ
871,correct location data,Mbulumbulu,Tanzania,-3.25,35.8,-3.25,35.8,"Mbulumbulu, Tanzania",TZ
872,correct location data,Mlingano,Tanzania,-5.07,38.92,-5.07,38.92,"Mlingano, Tanzania",TZ
873,correct location data,Monduli,Tanzania,-3.3,36.45,-3.3,36.45,"Monduli, Tanzania",TZ
874,correct location data,Morogoro,Tanzania,-6.83,37.65,-6.83,37.65,"Morogoro, Tanzania",TZ
875,no lat/lng entered - geocoded location,Mwanza - Region,Tanzania,0.0,0.0,-2.5180665,32.8973412,"Mwanza Regional Commissioner Office, Kenyatta Road, Kenyatta Road, Mwanza, Mwanza, Tanzania",TZ
876,correct location data,Ngaramtoni,Tanzania,-3.36,36.67,-3.36,36.67,"Ngaramtoni, Tanzania",TZ
877,correct location data,Ngaramtoni-arusha,Tanzania,-3.36,36.67,-3.36,36.67,"Ngaramtoni-arusha, Tanzania",TZ
878,no lat/lng entered - geocoded location,Nm,Tanzania,0.0,0.0,-10.7228821,38.816551,"NMB, Masasi, Mtwara, Tanzania",TZ
879,correct location data,Selian,Tanzania,-3.22,36.37,-3.22,36.37,"Selian, Tanzania",TZ
880,correct location data,Tabora,Tanzania,-5.02,32.8,-5.02,32.8,"Tabora, Tanzania",TZ
881,no lat/lng entered - geocoded location,Tanzania,Tanzania,0.0,0.0,-6.5247123,35.7878438,"Tanzania, Tanzania",TZ
882,correct location data,Tumbi-tabora,Tanzania,-5.07,32.73,-5.07,32.73,"Tumbi-tabora, Tanzania",TZ
883,correct location data,Ukiriguru,Tanzania,-2.719,33.024,-2.719,33.024,"Ukiriguru, Tanzania",TZ
884,correct location data,Uyole,Tanzania,-8.92,33.57,-8.92,33.57,"Uyole, Tanzania",TZ
885,correct location data,Weruweru,Tanzania,-3.317,37.25,-3.317,37.25,"Weruweru, Tanzania",TZ
886,correct location data,Banmaisomrong,Thailand,14.87,101.65,14.87,101.65,"Banmaisomrong, Thailand",TH
887,correct location data,Nakhon Sawan R.c.,Thailand,15.35,100.5,15.35,100.5,"Nakhon Sawan R.c., Thailand",TH
888,correct location data,Nakhon Sawan R.c.(2),Thailand,15.35,100.5,15.35,100.5,"Nakhon Sawan R.c.(2), Thailand",TH
889,correct location data,Phetchabun,Thailand,16.43,101.15,16.43,101.15,"Phetchabun, Thailand",TH
890,correct location data,Phraphutthabat,Thailand,14.73,100.6,14.73,100.6,"Phraphutthabat, Thailand",TH
891,no lat/lng entered - geocoded location,Sawankalok Sukhotha,Thailand,0.0,0.0,17.1446985,99.4375845,"Sukhothai Province, Thailand",TH
892,correct location data,Suwan,Thailand,14.08,101.0,14.08,101.0,"Suwan, Thailand",TH
893,no lat/lng entered - geocoded location,Tak Fa,Thailand,0.0,0.0,15.3525676,100.496798,"Tak Fa, Nakhon Sawan Province, Thailand",TH
894,correct location data,Tak Fa (2),Thailand,15.5,100.17,15.5,100.17,"Tak Fa (2), Thailand",TH
895,correct location data,Adapazari,Turkey,40.75,30.38,40.75,30.38,"Adapazari, Turkey",TR
896,no lat/lng entered - geocoded location,Aydin,Turkey,0.0,0.0,37.8413007,27.8328374,"Aydin, 09010, Aydın, Turkey",TR
897,no lat/lng entered - geocoded location,Anny Settl,Turkmenistan,0.0,0.0,38.0466859,58.033832652179576,"Aba Annaýew, Ahal, Turkmenistan",TM
898,no lat/lng entered - geocoded location,Bulegeni,Uganda,0.0,0.0,1.2932763,34.2852388,"Bulegeni Secondary, Sironko Kapchorwa Road, Sironko Kapchorwa Road, Buyaga, Sironko, Uganda",UG
899,no lat/lng entered - geocoded location,Bulengeni,Uganda,0.0,0.0,1.5333554,32.2166578,"Uganda, Uganda",UG
900,correct location data,Kamayanmiggo,Uganda,-0.25,31.25,-0.25,31.25,"Kamayanmiggo, Uganda",UG
901,correct location data,Kamenyamiggo,Uganda,-0.25,31.25,-0.25,31.25,"Kamenyamiggo, Uganda",UG
902,correct location data,Kampala,Uganda,0.3528,32.5801,0.3528,32.5801,"Kampala, Uganda",UG
903,correct location data,Kapchorwa,Uganda,1.38279998302,34.5243988037,1.38279998302,34.5243988037,"Kapchorwa, Uganda",UG
904,no lat/lng entered - geocoded location,"Likonde,songea",Uganda,-10.66,35.58,1.6446775,31.2193473,"Songagagi, Hoima, Hoima, Uganda",UG
905,correct location data,Masaka,Uganda,-0.333,31.767,-0.333,31.767,"Masaka, Uganda",UG
906,no lat/lng entered - geocoded location,Msk,Uganda,0.0,0.0,1.5333554,32.2166578,"Uganda, Uganda",UG
907,correct location data,Naari,Uganda,0.5333,34.1167,0.5333,34.1167,"Naari, Uganda",UG
908,correct location data,Namulonge Uga,Uganda,0.53,32.58,0.53,32.58,"Namulonge Uga, Uganda",UG
909,correct location data,Serere,Uganda,1.517,33.45,1.517,33.45,"Serere, Uganda",UG
910,correct location data,Tororo,Uganda,0.7,34.18,0.7,34.18,"Tororo, Uganda",UG
911,no lat/lng entered - geocoded location,Uganda,Uganda,0.0,0.0,1.5333554,32.2166578,"Uganda, Uganda",UG
912,correct location data,Barnum Mn,United States Of America,46.50241,-92.6944,46.50241,-92.6944,"Barnum Mn, United States Of America",US
913,no lat/lng entered - geocoded location,"College Station, Texas",United States Of America,0.0,0.0,30.6253463,-96.3271538,"College Station, Texas, United States of America",US
914,no lat/lng entered - geocoded location,"Kenedy, Tx.",United States Of America,0.0,0.0,26.9205171,-97.7461361,"Kenedy County, 78385, Texas, United States of America",US
915,correct location data,Sn Antonio,United States Of America,29.42,-99.0,29.42,-99.0,"Sn Antonio, United States Of America",US
916,no lat/lng entered - geocoded location,"Tifton, Georgia",United States Of America,0.0,0.0,31.4504629,-83.5084973,"Tifton, Georgia, United States of America",US
917,no lat/lng entered - geocoded location,"Tifton, Georgia (2)",United States Of America,0.0,0.0,31.466866,-83.503898,"14 1/2 Street West, 31794, Tifton, Georgia, United States of America",US
918,no lat/lng entered - geocoded location,"Weslaco, Texas",United States Of America,0.0,0.0,26.1595156,-97.9908429,"Weslaco, Texas, United States of America",US
919,correct location data,La Estanzuela,Uruguay,-34.33,-57.68,-34.33,-57.68,"La Estanzuela, Uruguay",UY
920,correct location data,Agua Blanca,Venezuela,9.57,-69.22,9.57,-69.22,"Agua Blanca, Venezuela",VE
921,no lat/lng entered - geocoded location,"Agua Blanca, Portuguesa",Venezuela,0.0,0.0,9.661637,-69.1061456,"Agua Blanca, Portuguesa, Venezuela",VE
922,no lat/lng entered - geocoded location,Aragua (ceniap),Venezuela,0.0,0.0,10.0,-67.166667,"Aragua, Venezuela",VE
923,no lat/lng entered - geocoded location,Araure (acarigua),Venezuela,0.0,0.0,9.5578528,-69.2050846,"Acarigua, 3301, Portuguesa, Venezuela",VE
924,no lat/lng entered - geocoded location,Araure (portuguesa),Venezuela,0.0,0.0,9.633333,-69.166667,"Distrito Araure, Portuguesa, Venezuela",VE
925,no lat/lng entered - geocoded location,"Carretera O, Turen, Portuguesa",Venezuela,0.0,0.0,9.3939787,-69.3827452,"Carretera Nacional Guanare - San Carlos, Ospino, Portuguesa, Venezuela",VE
926,no lat/lng entered - geocoded location,Centro Norte,Venezuela,0.0,0.0,10.2085867,-67.4563348,"Autopista: Regional del Centro, 2122, Cagua, Aragua, Venezuela",VE
927,no lat/lng entered - geocoded location,"El Diamante, Yaritagua",Venezuela,0.0,0.0,10.0888314,-68.9824683,"El Diamante, 3203, Yaracuy, Venezuela",VE
928,no lat/lng entered - geocoded location,El Playon,Venezuela,0.0,0.0,9.1002578,-69.0466659,"El Playón, Portuguesa, Venezuela",VE
929,no lat/lng entered - geocoded location,El Socorro,Venezuela,0.0,0.0,8.81483315,-70.29279914306466,"Parroquia El Socorro, Barinas, Venezuela",VE
930,no lat/lng entered - geocoded location,Guarico,Venezuela,0.0,0.0,8.666667,-66.583333,"Guárico, Venezuela",VE
931,no lat/lng entered - geocoded location,La Lucia,Venezuela,0.0,0.0,9.6945614,-69.2505518,"La Lucía, Portuguesa, Venezuela",VE
932,no lat/lng entered - geocoded location,Las Caramas,Venezuela,0.0,0.0,10.49013605,-66.89152825671934,"Universidad Central de Venezuela, Av. de las banderas, 1040, Av. de las banderas, Parroquia San Pedro, Capital District, Venezuela",VE
933,correct location data,Las Guacamayas,Venezuela,9.17,-66.97,9.17,-66.97,"Las Guacamayas, Venezuela",VE
934,correct location data,Las Guacamayas (2),Venezuela,9.17,-66.97,9.17,-66.97,"Las Guacamayas (2), Venezuela",VE
935,no lat/lng entered - geocoded location,"Las Guacamayas, El Sombrero",Venezuela,0.0,0.0,9.1856636,-67.0326133,"El Flagelo Runway, Vía Las Guacamayas, 2312, Vía Las Guacamayas, Parroquia Sosa, Guárico, Venezuela",VE
936,no lat/lng entered - geocoded location,"Los Guayos, Carabobo State",Venezuela,0.0,0.0,10.1892618,-67.9382941,"Los Guayos, 2001, Carabobo, Venezuela",VE
937,no lat/lng entered - geocoded location,Manzanita,Venezuela,0.0,0.0,9.9609803,-68.9771823,"La Manzanita, Lara, Venezuela",VE
938,correct location data,Maracay,Venezuela,10.25,-67.6,10.25,-67.6,"Maracay, Venezuela",VE
939,no lat/lng entered - geocoded location,Punta Gorda,Venezuela,0.0,0.0,10.3219265,-71.4073978,"Punta Gorda, 4013, Zulia, Venezuela",VE
940,correct location data,Sabana Del Medio,Venezuela,9.62,-69.22,9.62,-69.22,"Sabana Del Medio, Venezuela",VE
941,no lat/lng entered - geocoded location,Santa Barbara,Venezuela,0.0,0.0,7.8382744,-71.2400749,"Santa Bárbara, Santa Bárbara de Barinas, Barinas, Venezuela",VE
942,no lat/lng entered - geocoded location,Semillas Aragua,Venezuela,0.0,0.0,10.0,-67.166667,"Aragua, Venezuela",VE
943,no lat/lng entered - geocoded location,Tocoron,Venezuela,0.0,0.0,10.0928914,-67.5840267,"Tocorón, Aragua, Venezuela",VE
944,no lat/lng entered - geocoded location,"Tocoron, Estado Aragua",Venezuela,0.0,0.0,10.0928914,-67.5840267,"Tocorón, Aragua, Venezuela",VE
945,no lat/lng entered - geocoded location,Tucupido,Venezuela,0.0,0.0,7.6856445,-71.5193507,"Tucupido, Parroquia Libertador, Táchira, Venezuela",VE
946,no lat/lng entered - geocoded location,Turen,Venezuela,0.0,0.0,9.166667,-68.833333,"Distrito Turén, Portuguesa, Venezuela",VE
947,no lat/lng entered - geocoded location,Venezuela,Venezuela,0.0,0.0,8.0018709,-66.1109318,"Venezuela, Venezuela",VE
948,no lat/lng entered - geocoded location,"Villa De Cura, Aragua",Venezuela,0.0,0.0,10.035746,-67.486157,"Villa de Cura, 2126, Aragua, Venezuela",VE
949,no lat/lng entered - geocoded location,Binh Chanh Dictrict - Ho Chi Minh City,Vietnam,0.0,0.0,10.6901149,106.5826774,"Bình Chánh District, 842, Ho Chi Minh City, Vietnam",VN
950,no lat/lng entered - geocoded location,Binh Duong,Vietnam,0.0,0.0,11.1969829,106.7080527,"Binh Duong Province, Vietnam",VN
951,correct location data,Dan Phuong,Vietnam,21.03,105.75,21.03,105.75,"Dan Phuong, Vietnam",VN
952,no lat/lng entered - geocoded location,Dan Phuong Hatay,Vietnam,0.0,0.0,21.11962705,105.67846875670617,"Dan Phuong District, Hanoi, Vietnam",VN
953,no lat/lng entered - geocoded location,Danphing Dist.,Vietnam,0.0,0.0,10.849306949999999,106.80205522668349,"Sonion Vietnam, Ho Chi Minh City, Vietnam",VN
954,no lat/lng entered - geocoded location,"Duc Hoa District, Long An Province",Vietnam,0.0,0.0,10.882814799999998,106.43380220306233,"Đức Hòa District, Long An province, Vietnam",VN
955,no lat/lng entered - geocoded location,Gorakhpur,Vietnam,0.0,0.0,13.2904027,108.4265113,"Vietnam, Vietnam",VN
956,correct location data,"Hoc May District, Hochimin",Vietnam,10.82,106.67,10.82,106.67,"Hoc May District, Hochimin, Vietnam",VN
957,correct location data,Lam Dong Province,Vietnam,12.0,108.0,12.0,108.0,"Lam Dong Province, Vietnam",VN
958,correct location data,Song-boi,Vietnam,20.48,105.78,20.48,105.78,"Song-boi, Vietnam",VN
959,no lat/lng entered - geocoded location,Tay Ninh Province,Vietnam,0.0,0.0,11.404629,106.0033909,"Tay Ninh province, Vietnam",VN
960,correct location data,Gandajika,Zaire,-6.75,23.95,-6.75,23.95,"Gandajika, Zaire",CD
961,correct location data,Mvuazi,Zaire,-5.45,14.9,-5.45,14.9,"Mvuazi, Zaire",CD
962,correct location data,"Kasama, Misanfu",Zambia,-10.2,31.1,-10.2,31.1,"Kasama, Misanfu, Zambia",ZM
963,correct location data,Katuba,Zambia,-15.17,28.23,-15.17,28.23,"Katuba, Zambia",ZM
964,no lat/lng entered - geocoded location,Kutumani,Zambia,0.0,0.0,-14.5186239,27.5599164,"Zambia, Zambia",ZM
965,no lat/lng entered - geocoded location,Lyempe,Zambia,0.0,0.0,-14.5186239,27.5599164,"Zambia, Zambia",ZM
966,no lat/lng entered - geocoded location,Magobo,Zambia,0.0,0.0,-14.5186239,27.5599164,"Zambia, Zambia",ZM
967,correct location data,Magoye,Zambia,-15.526,27.45,-15.526,27.45,"Magoye, Zambia",ZM
968,correct location data,Mansa,Zambia,-11.12,28.53,-11.12,28.53,"Mansa, Zambia",ZM
969,correct location data,Masumba,Zambia,-13.16,31.58,-13.16,31.58,"Masumba, Zambia",ZM
970,correct location data,Mogoye,Zambia,-16.0,27.6,-16.0,27.6,"Mogoye, Zambia",ZM
971,correct location data,Mount Makulu,Zambia,-15.5,28.3,-15.5,28.3,"Mount Makulu, Zambia",ZM
972,correct location data,Mpongwe,Zambia,-13.533,28.15,-13.533,28.15,"Mpongwe, Zambia",ZM
973,correct location data,Msekera,Zambia,-13.38,32.39,-13.38,32.39,"Msekera, Zambia",ZM
974,correct location data,Nanga,Zambia,-15.767,27.92,-15.767,27.92,"Nanga, Zambia",ZM
975,correct location data,Sesheke,Zambia,-17.28,24.18,-17.28,24.18,"Sesheke, Zambia",ZM
976,no lat/lng entered - geocoded location,Zambia,Zambia,0.0,0.0,-14.5186239,27.5599164,"Zambia, Zambia",ZM
977,correct location data,"Zamseed, Farm",Zambia,-14.2,28.4,-14.2,28.4,"Zamseed, Farm, Zambia",ZM
978,correct location data,Arcturus,Zimbabwe,-17.783,31.317,-17.783,31.317,"Arcturus, Zimbabwe",ZW
979,correct location data,"Arex Drss, Harare",Zimbabwe,-17.8,31.1,-17.8,31.1,"Arex Drss, Harare, Zimbabwe",ZW
980,correct location data,"Art Farm, Harare",Zimbabwe,-17.8,31.05,-17.8,31.05,"Art Farm, Harare, Zimbabwe",ZW
981,correct location data,Chiredzi,Zimbabwe,-21.02,31.58,-21.02,31.58,"Chiredzi, Zimbabwe",ZW
982,no lat/lng entered - geocoded location,"Cimmyt, Harare",Zimbabwe,0.0,0.0,-17.831773,31.045686,"Harare, 0000, Harare Province, Zimbabwe",ZW
983,no lat/lng entered - geocoded location,Dedza,Zimbabwe,0.0,0.0,-18.4554963,29.7468414,"Zimbabwe, Zimbabwe",ZW
984,correct location data,Glendale,Zimbabwe,-17.08,31.03,-17.08,31.03,"Glendale, Zimbabwe",ZW
985,correct location data,Gwebi,Zimbabwe,-17.7,30.85,-17.7,30.85,"Gwebi, Zimbabwe",ZW
986,correct location data,Harare,Zimbabwe,-17.8,31.05,-17.8,31.05,"Harare, Zimbabwe",ZW
987,correct location data,Kadoma,Zimbabwe,-18.32,30.9,-18.32,30.9,"Kadoma, Zimbabwe",ZW
988,correct location data,Lucydale,Zimbabwe,-19.8,30.8,-19.8,30.8,"Lucydale, Zimbabwe",ZW
989,correct location data,Makoholi,Zimbabwe,-19.83,30.78,-19.83,30.78,"Makoholi, Zimbabwe",ZW
990,correct location data,Marondera,Zimbabwe,-18.8,31.6,-18.8,31.6,"Marondera, Zimbabwe",ZW
991,correct location data,Matopos,Zimbabwe,-20.38,28.5,-20.38,28.5,"Matopos, Zimbabwe",ZW
992,correct location data,Mazowe,Zimbabwe,-17.51,30.91,-17.51,30.91,"Mazowe, Zimbabwe",ZW
993,correct location data,Muzarabani,Zimbabwe,-16.37,31.02,-16.37,31.02,"Muzarabani, Zimbabwe",ZW
994,no lat/lng entered - geocoded location,Pannar,Zimbabwe,0.0,0.0,-18.4554963,29.7468414,"Zimbabwe, Zimbabwe",ZW
995,no lat/lng entered - geocoded location,Pioneer,Zimbabwe,0.0,0.0,-17.9365916,25.8347374,"Pioneer Road, 00236, Victoria Falls, Matabeleland North, Zimbabwe",ZW
996,no lat/lng entered - geocoded location,Radoma,Zimbabwe,0.0,0.0,-18.4554963,29.7468414,"Zimbabwe, Zimbabwe",ZW
997,correct location data,Rattray Arnold Farm,Zimbabwe,-18.116667,31.283333,-18.116667,31.283333,"Rattray Arnold Farm, Zimbabwe",ZW
998,correct location data,Ruwa,Zimbabwe,-17.89,31.24,-17.89,31.24,"Ruwa, Zimbabwe",ZW
999,correct location data,Save Valley,Zimbabwe,-20.35,32.33,-20.35,32.33,"Save Valley, Zimbabwe",ZW
1000,correct location data,Shamva Zim,Zimbabwe,-17.32,31.57,-17.32,31.57,"Shamva Zim, Zimbabwe",ZW
1001,no lat/lng entered - geocoded location,Zimbabwe,Zimbabwe,0.0,0.0,-18.4554963,29.7468414,"Zimbabwe, Zimbabwe",ZW
1002,correct location data,Kachwekano,Uganda,-1.26670002937,29.9500007629,-1.26670002937,29.9500007629,"Kachwekano, Uganda",UG
1003,correct location data,Gakuta,Rwanda,-2.16669988632,29.3332996368,-2.16669988632,29.3332996368,"Gakuta, Rwanda",RW
1004,correct location data,Rwerere,Rwanda,-1.5,29.6333007813,-1.5,29.6333007813,"Rwerere, Rwanda",RW
1005,correct location data,Tamira,Rwanda,-1.50310003757,29.6292991638,-1.50310003757,29.6292991638,"Tamira, Rwanda",RW
1006,no lat/lng entered - geocoded location,Gisozi,Burundi,0.0,0.0,-3.5659737,29.6825013,"Gisozi, Mwaro, Burundi",BI
1007,correct location data,Eldoret,Kenya,0.5,35.2832984924,0.5,35.2832984924,"Eldoret, Kenya",KE
1008,correct location data,"Pentecostes, Texcoco",Mexico,19.55134,-98.86279,19.55134,-98.86279,"Pentecostes, Texcoco, Mexico",MX
1009,correct location data,Texcoco,Mexico,19.55134,-98.86279,19.55134,-98.86279,"Texcoco, Mexico",MX
1010,no lat/lng entered - geocoded location,"Zacatepec, Morelos",Mexico,0.0,0.0,18.65059575,-99.20307754840212,"Zacatepec, Morelos, Mexico",MX
1011,no lat/lng entered - geocoded location,Miacatlan,Mexico,0.0,0.0,18.765853,-99.3593994,"Miacatlan, 62630.0, Morelos, Mexico",MX
1012,no lat/lng entered - geocoded location,Salandhar (punjab),India,0.0,0.0,30.9293211,75.5004841,"Punjab, India",IN
1013,correct location data,Dago,Kenya,-0.052517,34.740475,-0.052517,34.740475,"Dago, Kenya",KE
1014,correct location data,Kodiaga,Kenya,-0.066,34.711892,-0.066,34.711892,"Kodiaga, Kenya",KE
1015,correct location data,Luanda,Kenya,0.025922,34.584678,0.025922,34.584678,"Luanda, Kenya",KE
1016,correct location data,Siaya,Kenya,0.067564,34.276828,0.067564,34.276828,"Siaya, Kenya",KE
1017,no lat/lng entered - geocoded location,Kaniaka,Congo,-6.8167,23.9,-0.7264327,15.6419155,"Congo-Brazzaville, Republic of the Congo",CG
1018,correct location data,Chakol,Kenya,3.45,39.066667,3.45,39.066667,"Chakol, Kenya",KE
1019,correct location data,Kibale,Uganda,0.566667,30.366667,0.566667,30.366667,"Kibale, Uganda",UG
1020,correct location data,Yala,Kenya,0.09425,34.533453,0.09425,34.533453,"Yala, Kenya",KE
1021,correct location data,Tanga,Tanzania,-5.069489,39.098758,-5.069489,39.098758,"Tanga, Tanzania",TZ
1022,correct location data,"Mungoshi, Hai",Tanzania,-3.177825,37.211583,-3.177825,37.211583,"Mungoshi, Hai, Tanzania",TZ
1023,correct location data,Kiharu,Kenya,-0.827636,37.232997,-0.827636,37.232997,"Kiharu, Kenya",KE
1024,correct location data,Kilifi,Kenya,-3.615072,39.85445,-3.615072,39.85445,"Kilifi, Kenya",KE
1025,correct location data,Kisumu,Kenya,-0.095161,34.747331,-0.095161,34.747331,"Kisumu, Kenya",KE
1026,correct location data,Kwale,Kenya,-4.174478,39.460461,-4.174478,39.460461,"Kwale, Kenya",KE
1027,correct location data,Malindi,Kenya,-3.216433,40.10925,-3.216433,40.10925,"Malindi, Kenya",KE
1028,no lat/lng entered - geocoded location,Gondar,Ethiopia,0.0,0.0,4.9,43.08333,"El Gondar, Somali Region, Ethiopia",ET
1029,no lat/lng entered - geocoded location,Quindio,Colombia,0.0,0.0,4.3435926,-75.7232898,"Quindío, Colombia",CO
1030,no lat/lng entered - geocoded location,Kisama,Kenya,0.0,0.0,1.4419683,38.4313975,"Kenya, Kenya",KE
1031,no lat/lng entered - geocoded location,Angecha,Ethiopia,0.0,0.0,10.2116702,38.6521203,"Ethiopia, Ethiopia",ET
1032,no lat/lng entered - geocoded location,Ivumwe,Tanzania,0.0,0.0,-8.935421999999999,33.49393852657615,"Ivumwe Primary School, Soweto street - Mbeya, Mbeya, Tanzania",TZ
1033,no lat/lng entered - geocoded location,Mparambo,Burundi,0.0,0.0,-3.3634357,29.8870575,"Burundi, Burundi",BI
1034,no lat/lng entered - geocoded location,Thika,Kenya,0.0,0.0,-1.036648,37.077523,"Thika, Kiambu County, Kenya",KE
1035,no lat/lng entered - geocoded location,Matisi,Kenya,0.0,0.0,1.4419683,38.4313975,"Kenya, Kenya",KE
1036,no lat/lng entered - geocoded location,Kutus,Kenya,0.0,0.0,-0.573059,37.32785,"Kutus, Kirinyaga County, Kenya",KE
1037,no lat/lng entered - geocoded location,Kimaeti,Kenya,0.0,0.0,0.605,34.41,"Kimaeti, Bungoma, Kenya",KE
1038,no lat/lng entered - geocoded location,Elgon Downs,Kenya,0.0,0.0,-1.3021085,36.8159039,"Elgon Road, 764, Nairobi, Nairobi, Kenya",KE
1039,no lat/lng entered - geocoded location,Bumula,Kenya,0.0,0.0,1.4419683,38.4313975,"Kenya, Kenya",KE
1040,no lat/lng entered - geocoded location,Bulindi,Uganda,0.0,0.0,1.476389,31.440556,"Bulindi, Hoima, Uganda",UG
1041,no lat/lng entered - geocoded location,Bugiri,Uganda,0.0,0.0,0.52060155,33.77215775654412,"Bugiri, Uganda",UG
1042,no lat/lng entered - geocoded location,Nyagatare,Rwanda,0.0,0.0,-1.298632,30.329535,"Nyagatare, East Province, Rwanda",RW
1043,no lat/lng entered - geocoded location,Kagumo,Kenya,0.0,0.0,-0.4064921,37.0142017,"Kagumo High School, 10100, Chaka, Nyeri, Kenya",KE
1044,no lat/lng entered - geocoded location,Screen House,Kenya,0.0,0.0,-0.43120795,34.2064672,"icipe screenhouses, icipe guest house road, icipe guest house road, Mbita, Homa Bay, Kenya",KE
1045,no lat/lng entered - geocoded location,Chitedzi,Malawi,0.0,0.0,-13.93356,33.66009553625388,"Chitedzi Agricultural Research Station, P.BAG B525, Lilongwe, Lilongwe, Malawi",MW
1046,no lat/lng entered - geocoded location,Kiteta,Kenya,0.0,0.0,-1.4999764,37.5174943,"Kiteta, Machakos, Kenya",KE
1047,no lat/lng entered - geocoded location,Kyuu,Kenya,0.0,0.0,1.4419683,38.4313975,"Kenya, Kenya",KE
1048,no lat/lng entered - geocoded location,Bingu,Malawi,0.0,0.0,-13.94380235,33.75318330526527,"Bingu Stadium, Kaunda Road, 492283, Kaunda Road, Lilongwe, Lilongwe, Malawi",MW
1049,no lat/lng entered - geocoded location,Mpingu,Malawi,0.0,0.0,-13.2687204,33.9301963,"Malawi, Malawi",MW
1050,no lat/lng entered - geocoded location,Pomela,Malawi,0.0,0.0,-13.2687204,33.9301963,"Malawi, Malawi",MW
1051,no lat/lng entered - geocoded location,Pallisa,Uganda,0.0,0.0,1.2106561,33.759372605323406,"Pallisa, Uganda",UG
1052,no lat/lng entered - geocoded location,"Rancho Guadalupe, Toluca",Mexico,0.0,0.0,28.2020701,-106.2336761,"Rancho Guadalupe, Chihuahua, Mexico",MX
1053,no lat/lng entered - geocoded location,Mwea,Kenya,0.0,0.0,-0.7786437,37.5153156,"Mwea sub-location, Embu County, Kenya",KE
1054,no lat/lng entered - geocoded location,Tlaxcala,Mexico,,,19.416667,-98.166667,"Tlaxcala, Mexico",MX
1055,no lat/lng entered - geocoded location,Cochabamba,Bolivia,,,-17.3935853,-66.1569588,"Cochabamba, Cochabamba, Bolivia",BO
1056,no lat/lng entered - geocoded location,Chuquipata,Ecuador,,,-2.7432269,-78.8418618,"Calle Chuquipata, 030201, Azogues, Cañar, Ecuador",EC
1057,no lat/lng entered - geocoded location,"Changena, Buenos Aires",Costa Rica,,,9.08251365,-83.2465025101169,"Cantón Buenos Aires, Provincia Puntarenas, Costa Rica",CR
1058,no lat/lng entered - geocoded location,Concepcion De Pilas,Costa Rica,,,10.0287589,-84.0670393,"Concepción, 40505, Provincia Heredia, Costa Rica",CR
1059,no lat/lng entered - geocoded location,Africa University,Zimbabwe,,,-18.89671215,32.6016041639447,"Africa University, Old Mutare, Manicaland, Zimbabwe",ZW
1060,no lat/lng entered - geocoded location,Francistown,Botswana,,,-21.16636,27.502515,"Francistown, North-East District, Botswana",BW
1061,no lat/lng entered - geocoded location,Kipopo,Congo,,,-4.96834,17.8331,"Kipopo, Kwilu, Democratic Republic of the Congo",CG
1062,no lat/lng entered - geocoded location,Kisanga,Congo,,,-11.720744,27.397472385626152,"Kisanga, Haut-Katanga, Democratic Republic of the Congo",CG
1063,no lat/lng entered - geocoded location,Kasinga,Congo,,,0.031729,29.209892,"Ecole primaire Kasinga, 256, Musienene, North Kivu, Democratic Republic of the Congo",CG
1064,no lat/lng entered - geocoded location,Kaniameshi,Congo,,,-0.7264327,15.6419155,"Congo-Brazzaville, Republic of the Congo",CG
1065,no lat/lng entered - geocoded location,Kiniameshi,Congo,,,-0.7264327,15.6419155,"Congo-Brazzaville, Republic of the Congo",CG
1066,no lat/lng entered - geocoded location,Tsali-tlama,Lesotho,,,-29.4848462,27.519636,"Tlametlu, Mafeteng, Lesotho",LS
1067,no lat/lng entered - geocoded location,Siloe,Lesotho,,,-29.1443297,27.7406226,"Silos road, 200, Koro koro, Berea, Lesotho",LS
1068,no lat/lng entered - geocoded location,Ntengo-nmodzi,Mozambique,,,-14.89400005,33.61511136317877,"Mártires de Ntengo wa Minga, Furancungo, Tete, Mozambique",MZ
1069,no lat/lng entered - geocoded location,Inhaloongo,Mozambique,,,-19.302233,34.9144977,"Mozambique, Mozambique",MZ
1070,no lat/lng entered - geocoded location,Mokonyane,South Africa,,,-24.1275828,28.9996348,"ND Mokonyane Primary School, Nelson Mandela Drive, 0626, Nelson Mandela Drive, Mogalakwena Local Municipality, Limpopo, South Africa",ZA
1071,no lat/lng entered - geocoded location,Rahad Res,Sudan,,,12.7124966,30.6285116,"Al Rahad Tourist Resort, Kosti-al-Ubayyid Road, Kosti-al-Ubayyid Road, Kosti, White Nile State, Sudan",SD
1072,no lat/lng entered - geocoded location,Sari,Tanzania,,,-6.5247123,35.7878438,"Tanzania, Tanzania",TZ
1073,no lat/lng entered - geocoded location,Karatu,Tanzania,,,-3.52585185,35.44508522561772,"Karatu, 23601, Arusha, Tanzania",TZ
1074,correct location data,Namulonge,Uganda,0.53,32.58,0.53,32.58,"Namulonge, Uganda",UG
1075,no lat/lng entered - geocoded location,Palotaka,Sudan,,,14.5844444,29.4917691,"Sudan, Sudan",SD
1076,no lat/lng entered - geocoded location,Yei,Sudan,,,4.0926733,30.6773928,"Yei, Central Equatoria, South Sudan",SD
1077,no lat/lng entered - geocoded location,Ngetta,Uganda,,,2.2453884,32.8987714,"Ngetta Road, Central, Lira, Uganda",UG
1078,no lat/lng entered - geocoded location,Patancheru,India,,,17.5286092,78.2674254,"Patancheru, 502319, Greater Hyderabad Municipal Corporation, Telangana, India",IN
1079,no lat/lng entered - geocoded location,Kagio,Kenya,,,-0.6166,37.25,"Kagio, Kirinyaga County, Kenya",KE
1080,no lat/lng entered - geocoded location,Maseno,Kenya,,,-0.007851799999999999,34.59989681631588,"Maseno, Kisumu, Kenya",KE
1081,no lat/lng entered - geocoded location,Nebo,South Africa,,,-24.9063889,29.7616667,"Nebo, 0470, Makhuduthamaga Local Municipality, Limpopo, South Africa",ZA
1082,no lat/lng entered - geocoded location,Tecamac,Mexico,,,19.711716250000002,-98.97832693188553,"Tecámac, Mexico, Mexico",MX
1083,no lat/lng entered - geocoded location,Pashad,Afghanistan,,,33.7680065,66.2385139,"Afghanistan, Afghanistan",AF
1084,no lat/lng entered - geocoded location,"Finca Las Matas, Palo Negro",Venezuela,,,10.1536591,-67.5691923,"Estación de Servicio Las Matas, Carretera Palo Negro - Güigüe, 2117, Carretera Palo Negro - Güigüe, La Huérfana, Aragua, Venezuela",VE
1085,no lat/lng entered - geocoded location,"Calpulalpan, Tlaxcala",Mexico,,,19.55201735,-98.61129267708826,"Calpulalpan, Tlaxcala, Mexico",MX
1086,no lat/lng entered - geocoded location,"Nanacamilpa, Tlaxcala",Mexico,,,19.5080315,-98.54324076456274,"Nanacamilpa de Mariano Arista, Tlaxcala, Mexico",MX
1087,no lat/lng entered - geocoded location,La Vizcaina,Colombia,,,6.7365719,-73.808934,"La Forfia, Vizcaina, Santander, Colombia",CO
1088,no lat/lng entered - geocoded location,Edelira,Paraguay,,,-26.767587,-55.2780964,"Edelira Km. 20, Itapúa, Paraguay",PY
1089,no lat/lng entered - geocoded location,Shendi,Sudan,,,16.67803365,34.23751047226567,"Shendi, River Nile State, Sudan",SD
1090,no lat/lng entered - geocoded location,Shambat,Sudan,,,15.6676933,32.5330139652732,"Shambat, 11114, Khartoum, Khartoum State, Sudan",SD
1091,no lat/lng entered - geocoded location,Santa Catalina,Ecuador,,,-2.9307508,-78.9611944,"Quebrada Santa Catalina, 010170, El Valle, Azuay, Ecuador",EC
1092,no lat/lng entered - geocoded location,"Calimaya, Toluca",Mexico,,,19.297111,-99.668411,"Calimaya, 50040, Delegacion De San Mateo Oxtotitlan, Mexico, Mexico",MX
1093,no lat/lng entered - geocoded location,"Arroyo, Almoloya De Juarez",Mexico,,,19.3259269,-99.9117235,"Arroyo Zarco, Mexico, Mexico",MX
1094,no lat/lng entered - geocoded location,Villavicencio1,Colombia,,,2.8894434,-73.783892,"Colombia, Colombia",CO
1095,no lat/lng entered - geocoded location,"Darien1, Valle Del Cauca",Colombia,,,4.063969999999999,-76.12337981939545,"Valle del Cauca, Colombia",CO
1096,no lat/lng entered - geocoded location,"Darien2, Valle Del Cauca",Colombia,,,4.063969999999999,-76.12337981939545,"Valle del Cauca, Colombia",CO
1097,no lat/lng entered - geocoded location,"Paraguaicito, Quindio",Colombia,,,4.3435926,-75.7232898,"Quindío, Colombia",CO
1098,no lat/lng entered - geocoded location,"Villavicencio, La Libertad",Colombia,,,4.0594202,-73.4612829,"La Libertad, 500005, Villavicencio, Meta, Colombia",CO
1099,no lat/lng entered - geocoded location,"Villavicencio, Universidad",Colombia,,,4.14614665,-73.64307289689945,"Universidad de los Llanos Sede San Antonio, Calle 37, 500001, Calle 37, Villavicencio, Meta, Colombia",CO
1100,no lat/lng entered - geocoded location,Tumaco,Colombia,,,1.8077554,-78.7705977,"Tumaco, Nariño, Colombia",CO
1101,no lat/lng entered - geocoded location,"Los Chiles, Alajuela",Costa Rica,,,10.8591828,-84.71546311262927,"Cantón Los Chiles, Provincia Alajuela, Costa Rica",CR
1102,no lat/lng entered - geocoded location,"Upala, Alajuela",Costa Rica,,,10.8838931,-85.14527533051114,"Cantón Upala, Provincia Alajuela, Costa Rica",CR
1103,no lat/lng entered - geocoded location,Ursulo Galvan,Mexico,,,19.4460638,-96.39799962655596,"Ursulo Galván, 91660, Veracruz, Mexico",MX
1104,no lat/lng entered - geocoded location,Kabul,Afghanistan,0.0,0.0,34.5260131,69.1776476,"Kabul, 1001, Kabul, Afghanistan",AF
1105,correct location data,Cabinda,Angola,-5.59999990463257,12.1999998092651,-5.59999990463257,12.1999998092651,"Cabinda, Angola",AO
1106,correct location data,Kilomba,Angola,-8.89999961853027,14.6999998092651,-8.89999961853027,14.6999998092651,"Kilomba, Angola",AO
1107,correct location data,Mazozo,Angola,-9.10000038146973,13.6999998092651,-9.10000038146973,13.6999998092651,"Mazozo, Angola",AO
1108,correct location data,St. Vincent,Angola,-5.57000017166138,12.1999998092651,-5.57000017166138,12.1999998092651,"St. Vincent, Angola",AO
1109,no lat/lng entered - geocoded location,La Catalina,Colombia,0.0,0.0,5.8104468,-74.9804958,"Q. La Catalina, Antioquia, Colombia",CO
1110,no lat/lng entered - geocoded location,Paraguaicito,Colombia,0.0,0.0,2.8894434,-73.783892,"Colombia, Colombia",CO
1111,correct location data,Baka,Malawi,-9.75,34.0,-9.75,34.0,"Baka, Malawi",MW
1112,no lat/lng entered - geocoded location,Freidenheim Valley,South Africa,0.0,0.0,-32.3136111,28.2047222,"Vully Valley, Eastern Cape, South Africa",ZA
1113,correct location data,Potchesftroom,South Africa,-26.7000007629395,27.1000003814697,-26.7000007629395,27.1000003814697,"Potchesftroom, South Africa",ZA
1114,correct location data,Arusha,Tanzania,-3.1800000667572,36.7000007629395,-3.1800000667572,36.7000007629395,"Arusha, Tanzania",TZ
1115,correct location data,Chollima,Tanzania,-7.42999982833862,37.7000007629395,-7.42999982833862,37.7000007629395,"Chollima, Tanzania",TZ
1116,correct location data,Tumbi,Tanzania,-5.07000017166138,32.7299995422363,-5.07000017166138,32.7299995422363,"Tumbi, Tanzania",TZ
1117,no lat/lng entered - geocoded location,Kibray,Uzbekistan,0.0,0.0,41.3873284,69.4641139,"Kibray, 111200, Tashkent Region, Uzbekistan",UZ
1118,no lat/lng entered - geocoded location,Chisamba,Zambia,0.0,0.0,-14.979834,28.376099,"Chisamba, Central Province, Zambia",ZM
1119,correct location data,Golden Valley,Zambia,-14.1700000762939,28.3700008392334,-14.1700000762939,28.3700008392334,"Golden Valley, Zambia",ZM
1120,correct location data,Kasama,Zambia,-10.1000003814697,31.1000003814697,-10.1000003814697,31.1000003814697,"Kasama, Zambia",ZM
1121,correct location data,Misamfu,Zambia,-10.1999998092651,31.1000003814697,-10.1999998092651,31.1000003814697,"Misamfu, Zambia",ZM
1122,correct location data,Zamseed,Zambia,-14.1999998092651,28.3999996185303,-14.1999998092651,28.3999996185303,"Zamseed, Zambia",ZM
1123,correct location data,"Arex, Harare",Zimbabwe,-17.7999992370605,31.1000003814697,-17.7999992370605,31.1000003814697,"Arex, Harare, Zimbabwe",ZW
1124,correct location data,"Drss, Harare",Zimbabwe,-17.7999992370605,31.1000003814697,-17.7999992370605,31.1000003814697,"Drss, Harare, Zimbabwe",ZW
1125,correct location data,Makaholi,Zimbabwe,-19.8299999237061,30.7800006866455,-19.8299999237061,30.7800006866455,"Makaholi, Zimbabwe",ZW
1126,correct location data,Makhoholi,Zimbabwe,-19.8299999237061,30.7800006866455,-19.8299999237061,30.7800006866455,"Makhoholi, Zimbabwe",ZW
1127,correct location data,Rattray,Zimbabwe,-17.7000007629395,31.2000007629395,-17.7000007629395,31.2000007629395,"Rattray, Zimbabwe",ZW
1128,correct location data,Rattray Arnold,Zimbabwe,-17.6700000762939,31.1700000762939,-17.6700000762939,31.1700000762939,"Rattray Arnold, Zimbabwe",ZW
1129,correct location data,Rattray Farm,Zimbabwe,-17.7000007629395,31.2000007629395,-17.7000007629395,31.2000007629395,"Rattray Farm, Zimbabwe",ZW
1130,no lat/lng entered - geocoded location,"Mungushi, Hai",Tanzania,0.0,0.0,-3.3039813000000002,37.13277822779557,"Mungushi Dispensary, 938, Boma Ng'ombe, Kilimanjaro, Tanzania",TZ
1131,no lat/lng entered - geocoded location,Bondo,Kenya,0.0,0.0,-0.0993654,34.2739935,"Bondo, Siaya, Kenya",KE
1132,no lat/lng entered - geocoded location,Kakamega (monsanto),Kenya,0.0,0.0,0.4957104,34.801548861634615,"Kakamega, Kenya",KE
1133,no lat/lng entered - geocoded location,Epdowns,Kenya,,,1.4419683,38.4313975,"Kenya, Kenya",KE
1134,no lat/lng entered - geocoded location,Nai,Kenya,,,-1.3016977,36.769366486554645,"Kenya Rugby Football Union, 58911-00200, Nairobi, Nairobi, Kenya",KE
1135,no lat/lng entered - geocoded location,Eas,Mozambique,,,-26.6927911,32.8867927,"Track east of flood plain, Ponta Malangane, Maputo, Mozambique",MZ
1136,no lat/lng entered - geocoded location,Ntengo-nwodzi,Mozambique,,,-14.89400005,33.61511136317877,"Mártires de Ntengo wa Minga, Furancungo, Tete, Mozambique",MZ
1137,no lat/lng entered - geocoded location,Pan,Mozambique,,,-21.3684368,34.8656745,"Pande, Inhambane, Mozambique",MZ
1138,no lat/lng entered - geocoded location,Agriseeds Farm,Zimbabwe,,,-16.8289189,30.9952956,"Mutengezi Farm, Mashonaland Central, Zimbabwe",ZW
1139,no lat/lng entered - geocoded location,Art Farm Harare,Zimbabwe,,,-17.9030085,31.136802257418765,"Bellapaise Farm, 0000, Harare, Harare Province, Zimbabwe",ZW
1140,no lat/lng entered - geocoded location,Chisumbanje,Zimbabwe,,,-20.8671718,32.23553776718916,"Chisumbanje Ethanol Plant, 102, Manicaland, Zimbabwe",ZW
1141,no lat/lng entered - geocoded location,Rattray-arnold,Zimbabwe,,,-20.2218044,28.5979287,"Arnold Way, Bulawayo, Bulawayo Province, Zimbabwe",ZW
1142,no lat/lng entered - geocoded location,Shamva,Zimbabwe,,,-17.1763039,31.631377461133482,"Shamva, Mashonaland Central, Zimbabwe",ZW
1143,no lat/lng entered - geocoded location,Afsf,Kenya,,,1.4419683,38.4313975,"Kenya, Kenya",KE
1144,no lat/lng entered - geocoded location,Nacrri,Uganda,,,1.5333554,32.2166578,"Uganda, Uganda",UG
1145,correct location data,Cañada Larga,Bolivia,-17.5699996948242,-62.4300003051758,-17.5699996948242,-62.4300003051758,"Cañada Larga, Bolivia",BO
1146,correct location data,Zudañes,Bolivia,-19.1200008392334,-64.1999969482422,-19.1200008392334,-64.1999969482422,"Zudañes, Bolivia",BO
1147,no lat/lng entered - geocoded location,Caña Flecha,Colombia,0.0,0.0,7.3743507,-74.8788184,"Río Caná, Antioquia, Colombia",CO
1148,correct location data,"Cañas, Guanacaste",Costa Rica,10.4300003051758,-85.0999984741211,10.4300003051758,-85.0999984741211,"Cañas, Guanacaste, Costa Rica",CR
1149,no lat/lng entered - geocoded location,Las Cañas,Costa Rica,0.0,0.0,10.0024047,-84.2022887,"Bajo Las Cañas, 20109, Río Segundo, Provincia Alajuela, Costa Rica",CR
1150,no lat/lng entered - geocoded location,San José Pinula,Guatemala,0.0,0.0,14.55343475,-90.34585630827843,"San José Pinula, Guatemala, Guatemala",GT
1151,no lat/lng entered - geocoded location,La Dalía,Nicaragua,,,12.8640648,-87.4949795,"La Dalia, 26200, Chinandega, Nicaragua",NI
1152,no lat/lng entered - geocoded location,La Viña-jayanca-lambayeque,Peru,0.0,0.0,-6.3922485,-79.822774,"Jayanca, 14000, Lambayeque, Peru",PE
1153,no lat/lng entered - geocoded location,"El Vergel Municipio Navolato, Sin.",Mexico,,,24.716682,-107.7990497,"El Vergel, Sinaloa, Mexico",MX
1154,no lat/lng entered - geocoded location,"Chapingo, Edo.mex",Mexico,,,19.486698,-98.909827,"Rio Chapingo, 56236, Mexico, Mexico",MX
1155,no lat/lng entered - geocoded location,"Coatlinchan, Edo. Mex",Mexico,,,19.4505209,-98.8740641,"Coatlinchán, 56250, Mexico, Mexico",MX
1156,no lat/lng entered - geocoded location,"Celaya,gto.",Mexico,,,20.52253925,-100.83073034202397,"Celaya, Guanajuato, Mexico",MX
1157,no lat/lng entered - geocoded location,Tocorón-edo. Aragua,Venezuela,,,10.0928914,-67.5840267,"Tocorón, Aragua, Venezuela",VE
1158,no lat/lng entered - geocoded location,"Guadalajara, Jal.",Mexico,,,20.676143,-103.3469982,"Guadalajara, 44100, Jalisco, Mexico",MX
1159,no lat/lng entered - geocoded location,Los Horcones,El Salvador,,,13.7453787,-89.2564853,"Cerro El Picacho, 00000, Distrito Municipal 3, Departamento de San Salvador, El Salvador",SV
1160,no lat/lng entered - geocoded location,"San Cristobal, Cuscatlan",El Salvador,,,13.67551125,-89.24383353889507,"MCormick El Salvador, 1114, Antiguo Cuscatlán, Departamento de La Libertad, El Salvador",SV
1161,no lat/lng entered - geocoded location,La Catalina-pereira,Colombia,,,4.8023263,-75.6964439,"Carrera 21 bis, 576, Bostón, Risaralda, Colombia",CO
1162,no lat/lng entered - geocoded location,Guararé,Panama,,,7.7987372,-80.3499059,"Rio Guararé, Provincia de Los Santos, Panama",PA
1163,no lat/lng entered - geocoded location,La Colorada,Panama,,,8.0163715,-80.9840861,"La Colorada, Provincia de Veraguas, Panama",PA
1164,no lat/lng entered - geocoded location,Nuevo Ocu,Panama,,,8.4184813,-82.7277216,"Nuevo México, Provincia de Chiriquí, Panama",PA
1165,no lat/lng entered - geocoded location,Peña Blanca,Panama,,,7.7189511,-80.2833921,"Peña Blanca, Provincia de Los Santos, Panama",PA
1166,no lat/lng entered - geocoded location,Santo Domingo,Panama,,,8.5139574,-82.7170431,"Santo Domingo, Provincia de Chiriquí, Panama",PA
1167,no lat/lng entered - geocoded location,"Santa Rosa, Managua",Nicaragua,,,11.7950245,-86.4096549,"Quebrada Santa Rosa, 16700, Managua, Nicaragua",NI
1168,no lat/lng entered - geocoded location,La Nueva Concepcion,Guatemala,,,14.5630149,-90.4786637,"La Nueva Concepcion, 01051, Guatemala, Guatemala",GT
1169,no lat/lng entered - geocoded location,"Comayagua, E.e. Playita",Honduras,,,14.3188383,-87.5135833,"El Coyolito, Comayagua, Comayagua, Honduras",HN
1170,no lat/lng entered - geocoded location,"Danli, E.e. Las Acacias",Honduras,,,13.8026649,-86.558441,"Volcan de Las Barrancas, Danli, El Paraíso, Honduras",HN
1171,no lat/lng entered - geocoded location,La Union,Honduras,,,15.0209565,-86.710294,"La Union, Olancho, Honduras",HN
1172,no lat/lng entered - geocoded location,"San Pedro Sula, E.e. Omonita",Honduras,,,15.4898469,-88.0276247919928,"Embotelladora de Sula, 21104, San Pedro Sula, Cortés, Honduras",HN
1173,no lat/lng entered - geocoded location,Dinajpur,Bangladesh,0.0,0.0,25.6260712,88.6346228,"Dinajpur, 5216, Rangpur Division, Bangladesh",BD
1174,no lat/lng entered - geocoded location,Paraguaicito-quindio,Colombia,,,4.3435926,-75.7232898,"Quindío, Colombia",CO
1175,no lat/lng entered - geocoded location,Cañaveral-guajira,Colombia,,,10.7549138,-72.8442087,"Cañaverales, La Guajira, Colombia",CO
1176,no lat/lng entered - geocoded location,Villlavicencio,Colombia,,,2.8894434,-73.783892,"Colombia, Colombia",CO
1177,no lat/lng entered - geocoded location,Menegua - Puerto López,Colombia,,,7.7933241,-75.8401892,"Puerto Lopez, Córdoba, Colombia",CO
1178,no lat/lng entered - geocoded location,Villavicencio1-la Libertad,Colombia,,,4.0594202,-73.4612829,"La Libertad, 500005, Villavicencio, Meta, Colombia",CO
1179,no lat/lng entered - geocoded location,Paraguaicito-armenia,Colombia,,,4.4923898,-75.73960166465673,"Armenia, Quindío, Colombia",CO
1180,no lat/lng entered - geocoded location,Paraguaicito-colombia,Colombia,,,2.8894434,-73.783892,"Colombia, Colombia",CO
1181,no lat/lng entered - geocoded location,Tumaco-nariño,Colombia,,,1.8077554,-78.7705977,"Tumaco, Nariño, Colombia",CO
1182,no lat/lng entered - geocoded location,Menegua-puerto López,Colombia,,,7.7933241,-75.8401892,"Puerto Lopez, Córdoba, Colombia",CO
1183,no lat/lng entered - geocoded location,Cañaveral-la Guajira,Colombia,,,10.7549138,-72.8442087,"Cañaverales, La Guajira, Colombia",CO
1184,no lat/lng entered - geocoded location,Chiclayo V.florida,Peru,,,-6.7631677,-79.8583674,"Vista Florida, 5174, Chiclayo, Lambayeque, Peru",PE
1185,no lat/lng entered - geocoded location,Celaya Gto (2),Mexico,,,32.2705,-115.022,"Eduardo Celaya Martinez, 21820, Sonora, Mexico",MX
1186,no lat/lng entered - geocoded location,Acayucan,Mexico,,,18.0281048,-95.03593818139205,"Acayucan, 96000, Veracruz, Mexico",MX
1187,no lat/lng entered - geocoded location,Villa Flores,Mexico,,,18.01487755,-96.90708723299721,"Mazatlán Villa de Flores, Oaxaca, Mexico",MX
1188,no lat/lng entered - geocoded location,Santa Cruz,El Salvador,,,13.9841726,-89.6795623,"Correos de El Salvador, Avenida Club de Leones, Avenida Club de Leones, Chalchuapa, Departamento de Santa Ana, El Salvador",SV
1189,no lat/lng entered - geocoded location,Monjas,Guatemala,,,14.51342945,-89.8990143228134,"Monjas, Jalapa, Guatemala",GT
1190,no lat/lng entered - geocoded location,Quesada,Guatemala,,,14.2853523,-90.03049884223813,"Quesada, Jutiapa, Guatemala",GT
1191,no lat/lng entered - geocoded location,Sanarate,Guatemala,,,14.7669329,-90.19860906475421,"Sanarate, El Progreso, Guatemala",GT
1192,no lat/lng entered - geocoded location,Sonarate,Guatemala,,,15.6356088,-89.8988087,"Guatemala, Guatemala",GT
1193,no lat/lng entered - geocoded location,Choluteca,Honduras,,,13.3696253,-87.07564445652513,"Choluteca, Honduras",HN
1194,no lat/lng entered - geocoded location,Tulancingo,Mexico,,,20.132241049999998,-98.31678506523691,"Tulancingo de Bravo, Hidalgo, Mexico",MX
1195,no lat/lng entered - geocoded location,E. Downs,Kenya,,,-1.3083784,36.8856095,"Downstream Community School, Lunga Lunga Road, 00200, Lunga Lunga Road, Nairobi, Nairobi, Kenya",KE
1196,no lat/lng entered - geocoded location,Eldoret Downs,Kenya,,,0.5198329,35.2715481,"Eldoret, 30100, Uasin Gishu, Kenya",KE
1197,no lat/lng entered - geocoded location,Fipah,Honduras,,,15.0610686,-84.5978534,"Honduras, Honduras",HN
1198,no lat/lng entered - geocoded location,La Ceiba,Honduras,,,15.7833743,-86.7917749,"La Ceiba, Atlántida, Honduras",HN
1199,no lat/lng entered - geocoded location,Sulaco,Honduras,,,14.9071999,-87.2633972,"Sulaco Airport, Yoro, Yoro, Honduras",HN
1200,no lat/lng entered - geocoded location,"Iguala, Gro.",Mexico,,,18.352485350000002,-99.52996126668887,"Pepsi Bottling Group, Calle Federal a Taxco, 40000, Calle Federal a Taxco, Iguala, Guerrero, Mexico",MX
1201,no lat/lng entered - geocoded location,Estili / Pueblo Nuevo,Nicaragua,,,13.3804064,-86.4383255,"Río Pueblo Nuevo, 32200, Estelí, Nicaragua",NI
1202,no lat/lng entered - geocoded location,Juigalpa,Nicaragua,,,12.1033476,-85.3713105,"Juigalpa, 55000, Chontales, Nicaragua",NI
1203,no lat/lng entered - geocoded location,Masatepe,Nicaragua,,,11.9144808,-86.14487,"Masatepe, 42600, Masaya, Nicaragua",NI
1204,no lat/lng entered - geocoded location,Santa Rosa/managua,Nicaragua,,,11.7950245,-86.4096549,"Quebrada Santa Rosa, 16700, Managua, Nicaragua",NI
1205,no lat/lng entered - geocoded location,Las Lajitas,Panama,,,8.3743193,-81.6488659,"Las Lajitas, Comarca Ngäbe-Buglé, Panama",PA
1206,no lat/lng entered - geocoded location,Nuevo Ocú,Panama,,,8.4184813,-82.7277216,"Nuevo México, Provincia de Chiriquí, Panama",PA
1207,no lat/lng entered - geocoded location,Pocrí,Panama,,,7.659308,-80.1179001,"Pocrí, Provincia de Los Santos, Panama",PA
1208,no lat/lng entered - geocoded location,La Molina,Peru,,,-12.0901768,-76.92233779667893,"La Molina, Lima, Peru",PE
1209,no lat/lng entered - geocoded location,"Dan Phuong, Hanoi",Vietnam,,,21.11962705,105.67846875670617,"Dan Phuong District, Hanoi, Vietnam",VN
1210,no lat/lng entered - geocoded location,Santa Rosa/managua,Nicaragua,,,11.7950245,-86.4096549,"Quebrada Santa Rosa, 16700, Managua, Nicaragua",NI
1211,no lat/lng entered - geocoded location,Estili/condega,Nicaragua,,,13.4012543,-86.2191268,"Telpaneca-Condega, 35700, Madriz, Nicaragua",NI
1212,no lat/lng entered - geocoded location,Santa Tereza Carazo / La Vainilla,Nicaragua,,,11.6238581,-86.1904384,"La_Conquista-Santa_Teresa, 46600, Carazo, Nicaragua",NI
1213,no lat/lng entered - geocoded location,La Zumbona,Panama,,,9.484668,-82.8815329,"La Amistad Panamá - Costa Rica, Provincia de Bocas del Toro, Panama",PA
1214,no lat/lng entered - geocoded location,Taltizapan,Mexico,,,32.5206856,-117.0387142,"Callejón Taltizapan, 22055, Tijuana, Baja California, Mexico",MX
1215,no lat/lng entered - geocoded location,San Adres,El Salvador,,,13.8000382,-88.9140683,"El Salvador, El Salvador",SV
1216,no lat/lng entered - geocoded location,"Inifap-iguala, Gro",Mexico,,,19.3828167,-99.2167443,"Iguala, 01279, Mexico City, Mexico",MX
1217,no lat/lng entered - geocoded location,"Inifap-iguala, Gro.",Mexico,,,19.3828167,-99.2167443,"Iguala, 01279, Mexico City, Mexico",MX
1218,no lat/lng entered - geocoded location,"Amealco, Qro",Mexico,,,20.2541644,-100.0422385,"Estancia de Santa Lucía - La Muralla - E.C. Amealco de Bonfil - Límite Estados (Qro - Edo de Mex), 76803, San Juan del Rio, Querétaro, Mexico",MX
1219,no lat/lng entered - geocoded location,"Arroyo, Edo De Mex",Mexico,,,18.960642,-99.6821978,"San Mateo Coapexco, Villa Guerrero Edo. Mex., 51760, Mexico, Mexico",MX
1220,no lat/lng entered - geocoded location,"Arroyo, Edo. De Mexico",Mexico,,,20.3509081,-97.1518057,"Arroyo de Cañas, Veracruz, Mexico",MX
1221,no lat/lng entered - geocoded location,Jocotitlan Edo. Mexico,Mexico,,,19.7156587,-99.76222786953815,"Jocotitlán, 50700, Mexico, Mexico",MX
1222,no lat/lng entered - geocoded location,"Progeso, Hgo.",Mexico,,,19.3860289,-99.0094641,"Progeso Nacional, 59720, Nezahualcóyotl, Mexico, Mexico",MX
1223,no lat/lng entered - geocoded location,"Sta. Lucia, Edo. De Mexico",Mexico,,,19.79659,-98.7103892,"Sta. Lucia, Nopaltepec, Mexico, Mexico",MX
1224,no lat/lng entered - geocoded location,"Tetela Del Volcan, Morelos",Mexico,,,18.918346,-98.72015249609856,"Tetela del Volcán, Morelos, Mexico",MX
1225,no lat/lng entered - geocoded location,Texcoco Edo. De Mexico,Mexico,,,19.5144327,-98.8821254,"Texcoco de Mora, 56100, Mexico, Mexico",MX
1226,no lat/lng entered - geocoded location,"Tlaltizapan, Morelos",Mexico,,,18.7045227,-99.14191731588632,"Tlaltizapán de Zapata, Morelos, Mexico",MX
1227,no lat/lng entered - geocoded location,"Tlaxcoapan, Hidalgo",Mexico,,,20.097502650000003,-99.23306962708496,"Tlaxcoapan, Hidalgo, Mexico",MX
1228,no lat/lng entered - geocoded location,"Zumpango, Estado De Mexico",Mexico,,,19.81293675,-99.08180953352705,"Zumpango, Mexico, Mexico",MX
1229,no lat/lng entered - geocoded location,Babati,Tanzania,,,-4.2100635,35.7491495,"Babati, Manyara, Tanzania",TZ
1230,no lat/lng entered - geocoded location,Sanya Juu,Tanzania,,,-3.1862916,37.0686859,"Sanya Juu, 938, Kilimanjaro, Tanzania",TZ
1231,no lat/lng entered - geocoded location,Tengeru,Tanzania,,,-3.3733364,36.7860205,"Tengeru, 23210, Tanzania",TZ
1232,no lat/lng entered - geocoded location,Lanet,Kenya,,,-0.2966963,36.1564327,"Nakuru Airport Lanet Barraks, 20100, Nakuru, Nakuru, Kenya",KE
1233,no lat/lng entered - geocoded location,Mabanga,Kenya,,,0.5978944,34.6209158,"Mabanga, Eldoret Road, Eldoret Road, Kimaeti, Bungoma, Kenya",KE
1234,no lat/lng entered - geocoded location,Njoro,Kenya,,,-3.3740499,37.840045,"Njoro, Taita Taveta, Kenya",KE
1235,no lat/lng entered - geocoded location,Hamdeni,Tanzania,,,-6.5247123,35.7878438,"Tanzania, Tanzania",TZ
1236,no lat/lng entered - geocoded location,Mwele,Tanzania,,,-6.7158652,39.2123442,"Mwelewa, 34588 DSM, Dar es Salaam, Dar es Salaam, Tanzania",TZ
1237,no lat/lng entered - geocoded location,Bani Snef,Egypt,,,31.023889,31.648333,"Bani Ubayd, Dakahlia Governorate, Egypt",EG
1238,no lat/lng entered - geocoded location,Bani Suef,Egypt,,,29.3,31.15,"Bani Ghunaym, Beni Suef Governorate, Egypt",EG
1239,no lat/lng entered - geocoded location,El Menia,Egypt,,,31.3827023,30.8516791133286,"Kafr el-Sheikh Governorate, Egypt",EG
1240,no lat/lng entered - geocoded location,Baka Research,Malawi,,,-13.680208050000001,34.25890878313515,"Chitala Agricultural Research Station, Mphunga, Salima, Malawi",MW
1241,no lat/lng entered - geocoded location,Zombwe,Malawi,,,-11.3140201,33.8527879,"Zombwe 2, Mzimba, Malawi",MW
1242,no lat/lng entered - geocoded location,Mooi River,South Africa,,,-29.06039505,30.330517980091393,"Mooi River, KwaZulu-Natal, South Africa",ZA
1243,no lat/lng entered - geocoded location,Lusaka,Zambia,,,-15.416697,28.281381,"Lusaka, Lusaka Province, Zambia",ZM
1244,no lat/lng entered - geocoded location,Msrs,Zambia,,,-14.5186239,27.5599164,"Zambia, Zambia",ZM
1245,no lat/lng entered - geocoded location,Musamfu Kasama,Zambia,,,-10.2088378,31.188255,"Kasama, Northern Province, Zambia",ZM
1246,no lat/lng entered - geocoded location,Arex Harare,Zimbabwe,,,-17.831773,31.045686,"Harare, 0000, Harare Province, Zimbabwe",ZW
1247,no lat/lng entered - geocoded location,Golden Valley Zambia,Zimbabwe,,,-18.2291438,29.7958704,"Golden Valley, Mashonaland West, Zimbabwe",ZW
1248,no lat/lng entered - geocoded location,Mutare,Zimbabwe,,,-18.974656,32.670473,"Mutare, Manicaland, Zimbabwe",ZW
1249,no lat/lng entered - geocoded location,Panmure,Zimbabwe,,,-18.4554963,29.7468414,"Zimbabwe, Zimbabwe",ZW
1250,no lat/lng entered - geocoded location,Athi River,Kenya,,,-1.4269207,36.929805,"Athi River, 00519, Nairobi, Nairobi, Kenya",KE
1251,no lat/lng entered - geocoded location,Kampi Ya Mawe,Kenya,,,-2.9166,40.1333,"Kampi ya Kerenzeni, Kilifi, Kenya",KE
1252,no lat/lng entered - geocoded location,Shikusa,Kenya,,,0.3179733,34.8126303,"Shikusa Prison, Lubao, Kakamega, Kenya",KE
1253,no lat/lng entered - geocoded location,Yatta,Kenya,,,-1.28413,36.8325567,"Yatta Road, 00200, Nairobi, Nairobi, Kenya",KE
1254,no lat/lng entered - geocoded location,"Almoloya De Juarez, Estado De Mexico",Mexico,,,19.39712725,-99.82162587396992,"Almoloya de Juárez, Mexico, Mexico",MX
1255,no lat/lng entered - geocoded location,"Arroyo, Estado De Mexico",Mexico,,,19.1893502,-100.0673778,"Arroyo Chiquito, 51200, Mexico, Mexico",MX
1256,no lat/lng entered - geocoded location,"Atitalaquia, Hidalgo",Mexico,,,20.0597395,-99.21328819731298,"Atitalaquia, Hidalgo, Mexico",MX
1257,no lat/lng entered - geocoded location,"Boximo, Toluca",Mexico,,,19.2842743,-99.65263421776106,"Toluca, Mexico, Mexico",MX
1258,no lat/lng entered - geocoded location,"Calixtlahuaca, Estado De Mexico",Mexico,,,19.3343316,-99.6889279,"Calixtlahuaca, 50290, Mexico, Mexico",MX
1259,no lat/lng entered - geocoded location,"Epitacio Huerta, Michoacan",Mexico,,,20.14291355,-100.30214017658625,"Epitacio Huerta, Michoacán, Mexico",MX
1260,no lat/lng entered - geocoded location,"La Trinidad, Texcoco",Mexico,,,19.4883148,-98.8643929,"Iglesia de la Santísima Trinidad, 83, Geranios, 56223, Geranios, San Nicolás Huexotla, Mexico, Mexico",MX
1261,no lat/lng entered - geocoded location,Kti,Kenya,,,1.4419683,38.4313975,"Kenya, Kenya",KE
1262,no lat/lng entered - geocoded location,Isinya,Kenya,,,-1.684538,36.846708,"Isinya, Kajiado County, Kenya",KE
1263,no lat/lng entered - geocoded location,"Playita, Comayagua",Honduras,,,14.55509585,-87.67794635681561,"Comayagua, Honduras",HN
1264,no lat/lng entered - geocoded location,Ceniab. Managua,Nicaragua,,,12.1461244,-86.273717,"Managua, 10000 (CODIGO MAESTRO), Managua, Nicaragua",NI
1265,no lat/lng entered - geocoded location,"San Gilberto, Leon",Nicaragua,,,12.2804233,-86.6505005,"Río San Gabriel, 22200, Leon, Nicaragua",NI
1266,no lat/lng entered - geocoded location,Sennar,Sudan,,,13.54727615,33.63265493088987,"Sennar Dam, Sennar, Sennar State, Sudan",SD
1267,no lat/lng entered - geocoded location,Carapari,Bolivia,,,-21.82869395,-63.846821227185856,"Municipio Caraparí, Tarija, Bolivia",BO
1268,no lat/lng entered - geocoded location,Pajonal Entre Rios,Bolivia,,,-17.3054892,-64.44148087663636,"Municipio Entre Ríos, +591, Cochabamba, Bolivia",BO
1269,no lat/lng entered - geocoded location,Piriti Villa Montes,Bolivia,,,-17.0005215,-62.8460312,"Comunidad El Carmen Villa Montes, 3391, Santa Cruz, Bolivia",BO
1270,no lat/lng entered - geocoded location,San Jose Norte,Bolivia,,,-16.8482449,-63.384011,"San Jose del Norte, 28, Santa Cruz, Bolivia",BO
1271,no lat/lng entered - geocoded location,Palo Negro,Venezuela,,,10.2591856,-67.0110344,"Palo Negro, Miranda, Venezuela",VE
1272,no lat/lng entered - geocoded location,Lusaka West,Zambia,,,-15.5141009,28.2555507,"West Rotana Road, 31914, Lusaka Province, Zambia",ZM
1273,no lat/lng entered - geocoded location,Zamseed Farm,Zambia,,,-16.0277442,28.1062417,"Mubuyu Farm Dam, Southern Province, Zambia",ZM
1274,no lat/lng entered - geocoded location,Cimmyt Harare,Zimbabwe,,,-17.831773,31.045686,"Harare, 0000, Harare Province, Zimbabwe",ZW
1275,no lat/lng entered - geocoded location,Sandburst Farm,Zimbabwe,,,-16.8289189,30.9952956,"Mutengezi Farm, Mashonaland Central, Zimbabwe",ZW
1276,no lat/lng entered - geocoded location,Sandhurst Farm,Zimbabwe,,,-16.8289189,30.9952956,"Mutengezi Farm, Mashonaland Central, Zimbabwe",ZW
1277,no lat/lng entered - geocoded location,"Vallecillo, Fco. Morazan",Honduras,,,14.4958159,-87.3483698,"Vallecillos, Francisco Morazán, Honduras",HN
1278,no lat/lng entered - geocoded location,"Yorito, Yoro",Honduras,,,15.0654325,-87.2820675,"Yorito, Yoro, Honduras",HN
1279,no lat/lng entered - geocoded location,"Bauta, Artemisa",Cuba,,,22.982412,-82.547409,"Bauta, 30600, Artemisa, Cuba",CU
1280,no lat/lng entered - geocoded location,Panner,Zimbabwe,,,-18.4554963,29.7468414,"Zimbabwe, Zimbabwe",ZW
1281,correct location data,Sahagu - - - - Sahagun,Colombia,8.94632816314697,-75.4312591552734,8.94632816314697,-75.4312591552734,"Sahagu - - - - Sahagun, Colombia",CO
1282,correct location data,Tshibati - - - - Kibati,Congo,-4.01666688919067,12.1833333969116,-4.01666688919067,12.1833333969116,"Tshibati - - - - Kibati, Congo",CG
1283,correct location data,Lodana - - - - - Lodano,Ecuador,-1.18333327770233,-80.4000015258789,-1.18333327770233,-80.4000015258789,"Lodana - - - - - Lodano, Ecuador",EC
1284,correct location data,Organos - - - - Horganos,Ecuador,-4.11289691925049,-80.1526107788086,-4.11289691925049,-80.1526107788086,"Organos - - - - Horganos, Ecuador",EC
1285,correct location data,Chalchahuapa - - - Chalchuapa,El Salvador,13.981632232666,-89.6813735961914,13.981632232666,-89.6813735961914,"Chalchahuapa - - - Chalchuapa, El Salvador",SV
1286,correct location data,El Coyalito - - - El Coyolito,El Salvador,14.0782823562622,-89.1396331787109,14.0782823562622,-89.1396331787109,"El Coyalito - - - El Coyolito, El Salvador",SV
1287,correct location data,Dobuleni Research Station - - - Dobuilevu Research,Fiji,-17.3736000061035,178.170608520508,-17.3736000061035,178.170608520508,"Dobuleni Research Station - - - Dobuilevu Research, Fiji",FJ
1288,correct location data,La Maquina Caballo Blanco,Guatemala,14.4956617355347,-91.8501205444336,14.4956617355347,-91.8501205444336,"La Maquina Caballo Blanco, Guatemala",GT
1289,correct location data,San Jose Pinula,Guatemala,14.5500001907349,-90.4166641235352,14.5500001907349,-90.4166641235352,"San Jose Pinula, Guatemala",GT
1290,correct location data,"Catacamas, Olancho - - - Catacama",Honduras,14.8473997116089,-85.8921966552734,14.8473997116089,-85.8921966552734,"Catacamas, Olancho - - - Catacama, Honduras",HN
1291,correct location data,La Dalia,Nicaragua,13.1373748779297,-85.7346115112305,13.1373748779297,-85.7346115112305,"La Dalia, Nicaragua",NI
1292,"entered (lat, -lng)",Finkolo,Mali,11.216667175293,6.18333339691162,11.216667175293,-6.18333339691162,"Finkolo, Mali",ML
1293,correct location data,"Villa Flores, Chiap.",Mexico,16.2333335876465,-93.2666702270508,16.2333335876465,-93.2666702270508,"Villa Flores, Chiap., Mexico",MX
1294,"entered (lat, -lng)",Finkolo,Mali,11.216667175293,6.18333339691162,11.216667175293,-6.18333339691162,"Finkolo, Mali",ML
1295,"entered (lat, -lng)","El Aguila, Pejibaye, Perez Zeledon",Costa Rica,9.13074016571045,83.5256271362305,9.13074016571045,-83.5256271362305,"El Aguila, Pejibaye, Perez Zeledon, Costa Rica",CR
1296,"entered (lat, -lng)",Los Chiles,Costa Rica,10.9072999954224,84.5482864379883,10.9072999954224,-84.5482864379883,"Los Chiles, Costa Rica",CR
1297,"entered (lat, -lng)","Araure, Edo. Portuguesa",Venezuela,9.31999969482422,68.5199966430664,9.31999969482422,-68.5199966430664,"Araure, Edo. Portuguesa, Venezuela",VE
1298,"entered (lat, -lng)","Las Velas, Edo. Yaracuy",Venezuela,9.59000015258789,69.0800018310547,9.59000015258789,-69.0800018310547,"Las Velas, Edo. Yaracuy, Venezuela",VE
1299,"entered (lat, -lng)","Tiznados, Edo. Guarico",Venezuela,9.26000022888184,67.3399963378906,9.26000022888184,-67.3399963378906,"Tiznados, Edo. Guarico, Venezuela",VE
1300,"entered (lat, -lng)","Concepcion De Pilas, Buenos Aires",Costa Rica,9.10365009307861,83.4467010498047,9.10365009307861,-83.4467010498047,"Concepcion De Pilas, Buenos Aires, Costa Rica",CR
1301,"entered (lat, -lng)","El Amparo, El Gallito, Los Chiles, Alajuela",Costa Rica,10.8362998962402,84.6432876586914,10.8362998962402,-84.6432876586914,"El Amparo, El Gallito, Los Chiles, Alajuela, Costa Rica",CR
1302,"entered (lat, -lng)","Guagaral, Buenos Aires Puntarenas",Costa Rica,9.07569980621338,83.5074768066406,9.07569980621338,-83.5074768066406,"Guagaral, Buenos Aires Puntarenas, Costa Rica",CR
1303,"entered (lat, -lng)","Pueblo Nuevo, San Jose, Upala",Costa Rica,10.9829301834106,85.1275329589844,10.9829301834106,-85.1275329589844,"Pueblo Nuevo, San Jose, Upala, Costa Rica",CR
1304,"entered (lat, -lng)","Veracruz, Pejibaye, Perez Zeledon",Costa Rica,9.09609985351563,83.5466079711914,9.09609985351563,-83.5466079711914,"Veracruz, Pejibaye, Perez Zeledon, Costa Rica",CR
1305,"entered (lat, -lng)","El Progreso, Pejibaye, Perez Zeledon",Costa Rica,9.1004695892334,83.5448684692383,9.1004695892334,-83.5448684692383,"El Progreso, Pejibaye, Perez Zeledon, Costa Rica",CR
1306,"entered (lat, -lng)","Guagaral, Buenos Aires",Costa Rica,9.07569980621338,83.5074768066406,9.07569980621338,-83.5074768066406,"Guagaral, Buenos Aires, Costa Rica",CR
1307,no lat/lng entered - geocoded location,La Fazenda-puerto Lopez(meta),Colombia,,,4.3019136,-72.3720927,"Via Puerto López - Puerto Gaitán, Caserío La Victoria, Meta, Colombia",CO
1308,no lat/lng entered - geocoded location,Taluma-puerto Lopez(meta),Colombia,,,4.085013,-72.9584671,"Puerto Lopez, Meta, Colombia",CO
1309,no lat/lng entered - geocoded location,Libertad Pto Lopez Meta,Colombia,,,4.080558,-73.46033,"La Libertad (La Represa), vía Alto Pompeya - Pachaquiaro - Puerto López, 057, vía Alto Pompeya - Pachaquiaro - Puerto López, Puerto Lopez, Meta, Colombia",CO
1310,no lat/lng entered - geocoded location,Aucaloma-san Martin,Peru,,,-7.0,-76.833333,"San Martín, Peru",PE
1311,no lat/lng entered - geocoded location,Carimagua,Colombia,,,5.3958472,-71.0521725,"Carimagua, Casanare, Colombia",CO
1312,no lat/lng entered - geocoded location,"Dholi, Bihar",India,,,25.9944458,85.658769,"Dholi, 843114, Bihar, India",IN
1313,no lat/lng entered - geocoded location,West Bengal,India,,,22.9964948,87.6855882,"West Bengal, India",IN
1314,no lat/lng entered - geocoded location,Bihar-drt,India,,,25.6440845,85.906508,"Bihar, India",IN
1315,no lat/lng entered - geocoded location,Hyderabad-drt,India,,,17.41500345,78.41936588482253,"Hyderabad, Telangana, India",IN
1316,no lat/lng entered - geocoded location,Hyderabad-opt,India,,,17.4520413,78.3934676,"Option Matrix Infotech Private Limited., Wing B, 100 Feet Road, 500081, 100 Feet Road, Greater Hyderabad Municipal Corporation, Telangana, India",IN
1317,no lat/lng entered - geocoded location,Udaipur-drt,India,,,24.5787228,73.6862551,"Udaipur, 313001, Rajasthan, India",IN
1318,no lat/lng entered - geocoded location,Sabour,India,,,25.238384,87.0461306,"Sabour Railway Station, 812002, Bhagalpur, Bihar, India",IN
1319,no lat/lng entered - geocoded location,Mandya,India,,,12.594106700000001,76.86426781799315,"Mandya taluk, Karnataka, India",IN
1320,no lat/lng entered - geocoded location,China,China,,,35.000074,104.999927,"China, China",CN
1321,no lat/lng entered - geocoded location,Aurangabad-ww,India,,,19.8739536,75.3277803,"Aurangabad, 431002, Maharashtra, India",IN
1322,no lat/lng entered - geocoded location,Bakaram/kanchan,India,,,17.2890993,78.3134553,"Bakaram Jagir, Telangana, India",IN
1323,no lat/lng entered - geocoded location,Banswara-drt,India,,,23.5,74.333333,"Bānswāra, Rajasthan, India",IN
1324,no lat/lng entered - geocoded location,Bihar Agr Uni,India,,,25.2383952,87.05065963208676,"Bihar Agricultural University, 812002, Bhagalpur, Bihar, India",IN
1325,no lat/lng entered - geocoded location,Drt-hyd,India,,,17.4594,78.4439212,"State Bank of India, Bharata nagar slum, 500037, Bharata nagar slum, Greater Hyderabad Municipal Corporation, Telangana, India",IN
1326,no lat/lng entered - geocoded location,Gowraram/kaveri,India,,,10.9142248,79.1814096,"Kaveri river, 613001, Thanjavur, Tamil Nadu, India",IN
1327,no lat/lng entered - geocoded location,Guntur/nuzi,India,,,16.2915189,80.4541588,"Guntur, 522001, Andhra Pradesh, India",IN
1328,no lat/lng entered - geocoded location,Hs- Lud,India,,,30.7725162,75.6502176,"State Bank of India, Ludhiana Road, 141104, Ludhiana Road, Ghuman, Punjab, India",IN
1329,no lat/lng entered - geocoded location,Hs-del,India,,,12.9159629,77.623725,"Srinagar - Kanyakumari Highway, 560068, Bengaluru, Karnataka, India",IN
1330,no lat/lng entered - geocoded location,Hs-guj,India,,,22.69425765,72.85909723785187,"State Bank of India, Station Road, 387001, Station Road, Nadiad, Gujarat, India",IN
1331,no lat/lng entered - geocoded location,Hs-hyd,India,,,17.45626725,78.36807320789387,"HSBC, 500032, Greater Hyderabad Municipal Corporation, Telangana, India",IN
1332,no lat/lng entered - geocoded location,Hs-kar,India,,,12.8954065,77.6019489,"State Bank of India, Bannerghatta Road, 560076, Bannerghatta Road, Bengaluru, Karnataka, India",IN
1333,no lat/lng entered - geocoded location,Hs-pan,India,,,30.1533559,74.2092357,"HS Public School, Panjpeer Rd, 152116, Panjpeer Rd, Abohar, Punjab, India",IN
1334,no lat/lng entered - geocoded location,Hs-pant,India,,,28.6128924,77.2294312,"India Gate, Rajpath, 020626, Rajpath, New Delhi, Delhi, India",IN
1335,no lat/lng entered - geocoded location,Hyd,India,,,17.4594,78.4439212,"State Bank of India, Bharata nagar slum, 500037, Bharata nagar slum, Greater Hyderabad Municipal Corporation, Telangana, India",IN
1336,no lat/lng entered - geocoded location,Hyderabad-ww,India,,,17.41500345,78.41936588482253,"Hyderabad, Telangana, India",IN
1337,no lat/lng entered - geocoded location,Jalna/krishidhan,India,,,19.965490000000003,75.8270463555813,"Jalna, Maharashtra, India",IN
1338,no lat/lng entered - geocoded location,Jalna-drt,India,,,19.965490000000003,75.8270463555813,"Jalna, Maharashtra, India",IN
1339,no lat/lng entered - geocoded location,Phaltan/nimbkar,India,,,17.9907746,74.4298834,"Phaltan, 415523, Maharashtra, India",IN
1340,no lat/lng entered - geocoded location,Vijayawada,India,,,16.5087586,80.6185102,"Vijayawada, 520001, Andhra Pradesh, India",IN
1341,no lat/lng entered - geocoded location,Ww-bh,India,,,13.054758,80.2412002,"Padma Seshadri Bala Bhavan Higher Secondary School, Nungambakkam, Chennai -., Lake Area 1st Main Road, 600034, Lake Area 1st Main Road, Chennai, Tamil Nadu, India",IN
1342,no lat/lng entered - geocoded location,Ww-hyd,India,,,17.4594,78.4439212,"State Bank of India, Bharata nagar slum, 500037, Bharata nagar slum, Greater Hyderabad Municipal Corporation, Telangana, India",IN
1343,no lat/lng entered - geocoded location,Yellampet/nuziveedu,India,,,17.6828696,78.4895896,"Yellampet, 501401, Telangana, India",IN
1344,no lat/lng entered - geocoded location,Hs-pak,Pakistan,,,24.8164906,67.0411623,"HSN Pakistan- Zamzama, 5th Commercial Lane, 75500, 5th Commercial Lane, Karachi, Sindh, Pakistan",PK
1345,no lat/lng entered - geocoded location,Phillipines-drt,Philippines,,,16.405670800000003,120.59832638819113,"University of the Philippines Baguio, UP Drive, 2600, UP Drive, Baguio, Benguet, Philippines",PH
1346,no lat/lng entered - geocoded location,Thailand,Thailand,,,14.8971921,100.83273,"Thailand, Thailand",TH
1347,no lat/lng entered - geocoded location,"Amealco, Queretaro",Mexico,,,20.18744455,-100.06915521888163,"Amealco de Bonfil, Querétaro, Mexico",MX
1348,no lat/lng entered - geocoded location,San Diego Texcoco De Mora,Mexico,,,19.50475275,-98.87219091316118,"Escuela Primaria José María Luis Mora, Miguel Hidalgo, 56130, Miguel Hidalgo, San Diego, Mexico, Mexico",MX
1349,no lat/lng entered - geocoded location,"Coyuta, Escuintla",Guatemala,,,14.1914955,-90.98821497117913,"Escuintla, Guatemala",GT
1350,no lat/lng entered - geocoded location,"La Maquina, Suchitepequez",Guatemala,,,14.30496535,-91.56539103867601,"Parque San José La Máquina, Suchitepéquez, Guatemala",GT
1351,no lat/lng entered - geocoded location,"E.e. La Lujosa, Cholulteca",Honduras,,,13.121331999999999,-86.99301134833182,"Plaza de la Virgen, El Triunfo, Choluteca, Honduras",HN
1352,no lat/lng entered - geocoded location,E.e. La Lujosa.cholulteca,Honduras,,,13.121331999999999,-86.99301134833182,"Plaza de la Virgen, El Triunfo, Choluteca, Honduras",HN
1353,no lat/lng entered - geocoded location,"E.e. La Playita, Comayagua",Honduras,,,14.098398750000001,-87.20854067337245,"La Esperanza, 504, Comayaguela, Francisco Morazán, Honduras",HN
1354,no lat/lng entered - geocoded location,Kibugu-embu,Kenya,,,-0.5359626500000001,37.66530196902043,"Embu County, Kenya",KE
1355,no lat/lng entered - geocoded location,Boma Ngombe,Tanzania,,,-3.3321315,37.1478956,"Boma Ng'ombe, 938, Kilimanjaro, Tanzania",TZ
1356,no lat/lng entered - geocoded location,Alemaya (2),Ethiopia,,,9.38333,41.93333,"`Alemaya, Oromia Region, Ethiopia",ET
1357,no lat/lng entered - geocoded location,Cereté-cordoba,Colombia,,,8.8884178,-75.84239456572658,"Cereté, Córdoba, Colombia",CO
1358,no lat/lng entered - geocoded location,"La Catalina (pereira, Risaralda)",Colombia,,,4.8023263,-75.6964439,"Carrera 21 bis, 576, Bostón, Risaralda, Colombia",CO
1359,no lat/lng entered - geocoded location,"La Catalina (pereira, Risasralda)",Colombia,,,4.80171205,-75.6964201745624,"Santa Catalina II, Bostón, Risaralda, Colombia",CO
1360,no lat/lng entered - geocoded location,"La Catalina (perira, Risaralda)",Colombia,,,4.80171205,-75.6964201745624,"Santa Catalina II, Bostón, Risaralda, Colombia",CO
1361,no lat/lng entered - geocoded location,La Catalina- Pereira (risaralda),Colombia,,,4.8023263,-75.6964439,"Carrera 21 bis, 576, Bostón, Risaralda, Colombia",CO
1362,no lat/lng entered - geocoded location,La Catalina-pereira (meta),Colombia,,,2.389606,-73.5311851,"La Catalina, Meta, Colombia",CO
1363,no lat/lng entered - geocoded location,La Catalina-pereira (risaralda),Colombia,,,4.8023263,-75.6964439,"Carrera 21 bis, 576, Bostón, Risaralda, Colombia",CO
1364,no lat/lng entered - geocoded location,Menegua - Puerto Lopez (meta),Colombia,,,4.085013,-72.9584671,"Puerto Lopez, Meta, Colombia",CO
1365,no lat/lng entered - geocoded location,Menegua-puerto Lopez (meta),Colombia,,,4.085013,-72.9584671,"Puerto Lopez, Meta, Colombia",CO
1366,no lat/lng entered - geocoded location,Menegua-puerto Lopez (meta),Colombia,,,4.085013,-72.9584671,"Puerto Lopez, Meta, Colombia",CO
1367,no lat/lng entered - geocoded location,Menegua-puerto López (meta),Colombia,,,4.085013,-72.9584671,"Puerto Lopez, Meta, Colombia",CO
1368,no lat/lng entered - geocoded location,Paraguaicito (armenia),Colombia,,,4.4923898,-75.73960166465673,"Armenia, Quindío, Colombia",CO
1369,no lat/lng entered - geocoded location,Paraguaicito-armenia (quindio),Colombia,,,4.4923898,-75.73960166465673,"Armenia, Quindío, Colombia",CO
1370,no lat/lng entered - geocoded location,Sampués-cordoba,Colombia,,,8.3344713,-75.6666238,"Córdoba, Colombia",CO
1371,no lat/lng entered - geocoded location,Semillas Valle - Cerrito,Colombia,,,3.6829185,-76.3071487,"El Cerrito, Valle del Cauca, Colombia",CO
1372,no lat/lng entered - geocoded location,Turipana-cordoba,Colombia,,,8.3344713,-75.6666238,"Córdoba, Colombia",CO
1373,no lat/lng entered - geocoded location,Villavicencio (1),Colombia,,,4.6195293,-74.1652038,"Avenida Villavicencio, 110881, Kennedy, Bogota Capital District, Colombia",CO
1374,no lat/lng entered - geocoded location,Villavicencio (meta),Colombia,,,4.1315113,-73.6206667,"Villavicencio, 500005, Villavicencio, Meta, Colombia",CO
1375,no lat/lng entered - geocoded location,Villavivencio (meta),Colombia,,,3.5000086,-73.0000086,"Meta, Colombia",CO
1376,no lat/lng entered - geocoded location,"Paraguaicito,",Cambodia,,,13.5066394,104.869423,"Cambodia, Cambodia",KH
1377,no lat/lng entered - geocoded location,Taluma (meta),Colombia,,,3.5000086,-73.0000086,"Meta, Colombia",CO
1378,no lat/lng entered - geocoded location,Barranca (lima),Peru,,,-10.6742472,-77.7207774,"Province of Barranca, Pativilca, Lima, Peru",PE
1379,no lat/lng entered - geocoded location,"Chachapoyas, Chimbote",Peru,,,-9.0783629,-78.5900838,"Chimbote, Ancash, Peru",PE
1380,no lat/lng entered - geocoded location,"Ee El Porvenir, Tarapoto",Peru,,,-6.4989451,-76.3782804,"Jirón El Porvenir, TARAPOTO, Tarapoto, San Martín, Peru",PE
1381,no lat/lng entered - geocoded location,Huaral Ee Donoso,Peru,,,-9.5872445,-77.5215493,"EESS SAN NICOLAS, Km. 8, Longitudinal de la Sierra Norte, 02690, Longitudinal de la Sierra Norte, Huaraz, Ancash, Peru",PE
1382,no lat/lng entered - geocoded location,"La Molina, Lima",Peru,,,-12.0901768,-76.92233779667893,"La Molina, Lima, Peru",PE
1383,no lat/lng entered - geocoded location,Sagrado Corazónl,Bolivia,,,-16.8477439,-63.4316312,"Sagrado Corazon, 28, Santa Cruz, Bolivia",BO
1384,no lat/lng entered - geocoded location,Aguachica-cesar,Colombia,,,8.24811845,-73.62140380560058,"Aguachica, Cesar, Colombia",CO
1385,no lat/lng entered - geocoded location,Allahabad,India,,,25.4381302,81.8338005,"Allahabad, 211001, Uttar Pradesh, India",IN
1386,no lat/lng entered - geocoded location,Aligarh,India,,,27.8815412,78.0690216,"Aligarh, 202001, Uttar Pradesh, India",IN
1387,no lat/lng entered - geocoded location,Attur,India,,,11.5998273,78.5960829,"Attur, 636102, Tamil Nadu, India",IN
1388,no lat/lng entered - geocoded location,Bakaram,India,,,17.2890993,78.3134553,"Bakaram Jagir, Telangana, India",IN
1389,no lat/lng entered - geocoded location,Bihar Sabor,India,,,25.6440845,85.906508,"Bihar, India",IN
1390,no lat/lng entered - geocoded location,Chitradurga,India,,,14.2548525,76.34828932491845,"Chitradurga taluku, Karnataka, India",IN
1391,no lat/lng entered - geocoded location,Dhangaon,India,,,19.58766755,75.38201640261204,"Lilasones Agro Industri,Dhangaon, Dhorkingaon, Maharashtra, India",IN
1392,no lat/lng entered - geocoded location,Haveri,India,,,14.84627745,75.49272552005591,"Haveri taluku, Karnataka, India",IN
1393,no lat/lng entered - geocoded location,Karimnagar,India,,,18.4346438,79.1322648,"Karimnagar, 505001, Telangana, India",IN
1394,no lat/lng entered - geocoded location,Yellampet,India,,,17.6828696,78.4895896,"Yellampet, 501401, Telangana, India",IN
1395,no lat/lng entered - geocoded location,"Tarimbaro, Michoacan",Mexico,,,19.81627885,-101.16373112841322,"Tarímbaro, 58880, Michoacán, Mexico",MX
1396,no lat/lng entered - geocoded location,Handeni,Tanzania,,,-5.4270912,38.0230182,"Handeni, Tanga, Tanzania",TZ
1397,no lat/lng entered - geocoded location,Mlangarini,Tanzania,,,-6.5247123,35.7878438,"Tanzania, Tanzania",TZ
1398,no lat/lng entered - geocoded location,Dhera,Ethiopia,,,10.2116702,38.6521203,"Ethiopia, Ethiopia",ET
1399,no lat/lng entered - geocoded location,Endebes,Kenya,,,1.0321015,34.8482511,"C44, Endebess, Trans Nzoia, Kenya",KE
1400,no lat/lng entered - geocoded location,Dutwa-bariadi,Tanzania,,,-2.5093101,33.9686528,"Dutwa, Simiyu, Tanzania",TZ
1401,no lat/lng entered - geocoded location,Kilimatembo,Tanzania,,,-6.5247123,35.7878438,"Tanzania, Tanzania",TZ
1402,no lat/lng entered - geocoded location,Mara Farm,Tanzania,,,-1.7109912,34.621376,"Farm, Mto mara, Mara, Tanzania",TZ
1403,no lat/lng entered - geocoded location,Meru,Tanzania,,,-3.2125918,36.7740188,"Little Meru, Tanzania",TZ
1404,no lat/lng entered - geocoded location,Kakamega (intercrop),Kenya,,,0.4957104,34.801548861634615,"Kakamega, Kenya",KE
1405,no lat/lng entered - geocoded location,Kakamega (solecrop),Kenya,,,0.4957104,34.801548861634615,"Kakamega, Kenya",KE
1406,no lat/lng entered - geocoded location,Tlawi,Tanzania,,,-6.5247123,35.7878438,"Tanzania, Tanzania",TZ
